{"type":"FeatureCollection","features":[
{"type":"Feature","geometry":{"type":"LineString","coordinates":[[-117.818559,43.777952],[-117.784172,43.776565],[-117.768618,43.780923],[-117.738139,43.774212],[-117.719561,43.787427],[-117.688093,43.790646],[-117.681235,43.800736],[-117.637826,43.832184],[-117.623271,43.849768],[-117.613576,43.850658],[-117.597635,43.867947],[-117.568864,43.882399],[-117.537349,43.884798],[-117.530352,43.873827],[-117.508743,43.884259],[-117.51087,43.892812],[-117.50084,43.912683],[-117.478808,43.918963],[-117.490113,43.925911],[-117.469527,43.955169],[-117.440131,43.949155],[-117.418837,43.951666],[-117.39231,43.948897],[-117.371263,43.943105],[-117.332624,43.912431],[-117.281885,43.928308],[-117.279792,43.936336],[-117.243125,43.964376],[-117.239706,43.974695]]},"properties":{"OBJECTID":1,"fhdFtrID":1,"fhdRefID":53580,"fhdRevDt":"20190401","fhdONm":"Jay Stevens","fhdOEnt":"BLM","fhdSpNm":"Ccat","fhdRun":"NA","fhdLifeHst":"FluvRes","fhdUseTy":"Unknown","fhdBasis":"UndocObsFish","fhdStNm":"Malheur River","fhdGenus":"Ictalurus","fhdSp":"punctatus","fhdSubSp":null,"fhdOrig":"NonNative","fhdProd":"Natural","fhdComment":null,"fhdESH":"NA","fhdBasisD":null,"fhdNMF":"no","fhdBasisDt":null,"fhdBasisNm":null,"fhdBasisEnt":null,"fhdBasisPrj":null,"fhdBasisMethod":null,"fhdAccess":null,"fhdBarrierFtrID":null,"fhdEndExtent":null,"Shape__Length":122772.2341207134,"habitatType":"stream"},"id":1},
{"type":"Feature","geometry":{"type":"LineString","coordinates":[[-117.205653,43.700183],[-117.191285,43.701504],[-117.203887,43.728305],[-117.143589,43.747981],[-117.15509,43.757015],[-117.152188,43.773712],[-117.1438,43.773561],[-117.128169,43.785735],[-117.111912,43.785563],[-117.069579,43.773928],[-117.052225,43.785611],[-117.053829,43.794385],[-117.025665,43.812765]]},"properties":{"OBJECTID":2,"fhdFtrID":2,"fhdRefID":53580,"fhdRevDt":"20190401","fhdONm":"Jay Stevens","fhdOEnt":"BLM","fhdSpNm":"Ccat","fhdRun":"NA","fhdLifeHst":"FluvRes","fhdUseTy":"Unknown","fhdBasis":"UndocObsFish","fhdStNm":"Owyhee River","fhdGenus":"Ictalurus","fhdSp":"punctatus","fhdSubSp":null,"fhdOrig":"NonNative","fhdProd":"Natural","fhdComment":null,"fhdESH":"NA","fhdBasisD":null,"fhdNMF":"no","fhdBasisDt":null,"fhdBasisNm":null,"fhdBasisEnt":null,"fhdBasisPrj":null,"fhdBasisMethod":null,"fhdAccess":null,"fhdBarrierFtrID":null,"fhdEndExtent":null,"Shape__Length":44787.307725898216,"habitatType":"stream"},"id":2},
{"type":"Feature","geometry":{"type":"LineString","coordinates":[[-117.644745,43.19397],[-117.644992,43.200387],[-117.611372,43.203149],[-117.599615,43.209262],[-117.574312,43.204781],[-117.540726,43.209771],[-117.533842,43.19961],[-117.520121,43.201438],[-117.512547,43.214151],[-117.496152,43.217839],[-117.497405,43.236282],[-117.486048,43.240459],[-117.497985,43.258159],[-117.486047,43.273395],[-117.485296,43.283604],[-117.471014,43.304498],[-117.463087,43.325571],[-117.447896,43.321174],[-117.440893,43.311258],[-117.419483,43.302563],[-117.410415,43.310719],[-117.372181,43.299482],[-117.358455,43.305762],[-117.346082,43.302326],[-117.327706,43.318135],[-117.333046,43.325807],[-117.318658,43.332014],[-117.309621,43.390794],[-117.318002,43.395101],[-117.346661,43.443858],[-117.343605,43.462165],[-117.350816,43.474227],[-117.340265,43.486926],[-117.348451,43.503072],[-117.349259,43.52225],[-117.368412,43.533517],[-117.350072,43.543459],[-117.353198,43.557699],[-117.337456,43.58324],[-117.326777,43.58703],[-117.320457,43.602574],[-117.29906,43.605944],[-117.293422,43.612998],[-117.273708,43.614315],[-117.258989,43.624395],[-117.23686,43.633034],[-117.243221,43.642234]]},"properties":{"OBJECTID":3,"fhdFtrID":3,"fhdRefID":53580,"fhdRevDt":"20190401","fhdONm":"Jay Stevens","fhdOEnt":"BLM","fhdSpNm":"Ccat","fhdRun":"NA","fhdLifeHst":"FluvRes","fhdUseTy":"Unknown","fhdBasis":"UndocObsFish","fhdStNm":"Owyhee River","fhdGenus":"Ictalurus","fhdSp":"punctatus","fhdSubSp":null,"fhdOrig":"NonNative","fhdProd":"Natural","fhdComment":null,"fhdESH":"NA","fhdBasisD":null,"fhdNMF":"no","fhdBasisDt":null,"fhdBasisNm":null,"fhdBasisEnt":null,"fhdBasisPrj":null,"fhdBasisMethod":null,"fhdAccess":null,"fhdBarrierFtrID":null,"fhdEndExtent":null,"Shape__Length":147806.90538654267,"habitatType":"stream"},"id":3},
{"type":"Feature","geometry":{"type":"LineString","coordinates":[[-117.282142,42.690911],[-117.293227,42.708364],[-117.34511,42.727816],[-117.37185,42.748553],[-117.407803,42.747378],[-117.435266,42.76427],[-117.462599,42.761489],[-117.48206,42.774728],[-117.499701,42.77495],[-117.504803,42.782385],[-117.533417,42.789414],[-117.545954,42.78433],[-117.575525,42.793128],[-117.587755,42.791076],[-117.608099,42.800606],[-117.615302,42.81286],[-117.625113,42.843389],[-117.637754,42.848021],[-117.640935,42.861928],[-117.659231,42.872726],[-117.676642,42.870655],[-117.693321,42.875983],[-117.700995,42.903897],[-117.719489,42.911409],[-117.704433,42.923448],[-117.701456,42.944521],[-117.717824,42.950124],[-117.726716,42.96195],[-117.725376,42.972108],[-117.708878,42.978105],[-117.709284,42.987306],[-117.730573,42.99773],[-117.735987,43.005197],[-117.713496,43.011904],[-117.698723,43.023908],[-117.698276,43.039661],[-117.68948,43.063245],[-117.697318,43.072058]]},"properties":{"OBJECTID":4,"fhdFtrID":4,"fhdRefID":53580,"fhdRevDt":"20190401","fhdONm":"Jay Stevens","fhdOEnt":"BLM","fhdSpNm":"Ccat","fhdRun":"NA","fhdLifeHst":"FluvRes","fhdUseTy":"Unknown","fhdBasis":"UndocObsFish","fhdStNm":"Owyhee River","fhdGenus":"Ictalurus","fhdSp":"punctatus","fhdSubSp":null,"fhdOrig":"NonNative","fhdProd":"Natural","fhdComment":null,"fhdESH":"NA","fhdBasisD":null,"fhdNMF":"no","fhdBasisDt":null,"fhdBasisNm":null,"fhdBasisEnt":null,"fhdBasisPrj":null,"fhdBasisMethod":null,"fhdAccess":null,"fhdBarrierFtrID":null,"fhdEndExtent":null,"Shape__Length":107020.34172260229,"habitatType":"stream"},"id":4},
{"type":"Feature","geometry":{"type":"LineString","coordinates":[[-117.029245,42.326919],[-117.059508,42.351642],[-117.052597,42.363749],[-117.076845,42.38019],[-117.099407,42.383063],[-117.118978,42.40266],[-117.132802,42.406265],[-117.151336,42.427154],[-117.165808,42.43867],[-117.183483,42.444085],[-117.200175,42.440696],[-117.214631,42.455523],[-117.221984,42.470643],[-117.218928,42.481564],[-117.227788,42.498181],[-117.210144,42.500628],[-117.172408,42.535026],[-117.168846,42.545237]]},"properties":{"OBJECTID":5,"fhdFtrID":5,"fhdRefID":53580,"fhdRevDt":"20190401","fhdONm":"Jay Stevens","fhdOEnt":"BLM","fhdSpNm":"Ccat","fhdRun":"NA","fhdLifeHst":"FluvRes","fhdUseTy":"Unknown","fhdBasis":"UndocObsFish","fhdStNm":"Owyhee River","fhdGenus":"Ictalurus","fhdSp":"punctatus","fhdSubSp":null,"fhdOrig":"NonNative","fhdProd":"Natural","fhdComment":null,"fhdESH":"NA","fhdBasisD":null,"fhdNMF":"no","fhdBasisDt":null,"fhdBasisNm":null,"fhdBasisEnt":null,"fhdBasisPrj":null,"fhdBasisMethod":null,"fhdAccess":null,"fhdBarrierFtrID":null,"fhdEndExtent":null,"Shape__Length":56213.55799537572,"habitatType":"stream"},"id":5},
{"type":"Feature","geometry":{"type":"LineString","coordinates":[[-117.239706,43.974695],[-117.213765,43.991555],[-117.184163,43.984032],[-117.13806,44.003827],[-117.123741,44.001367],[-117.089601,44.005811],[-117.074305,44.018742],[-117.046617,44.033725],[-117.042371,44.028685],[-117.008149,44.047645],[-116.974671,44.059001]]},"properties":{"OBJECTID":6,"fhdFtrID":6,"fhdRefID":53714,"fhdRevDt":"20190401","fhdONm":"H. Lavigne, et al.","fhdOEnt":"OSU","fhdSpNm":"Ccat","fhdRun":"NA","fhdLifeHst":"FluvRes","fhdUseTy":"Unknown","fhdBasis":"DocObsFish","fhdStNm":"Malheur River","fhdGenus":"Ictalurus","fhdSp":"punctatus","fhdSubSp":null,"fhdOrig":"NonNative","fhdProd":"Natural","fhdComment":null,"fhdESH":"NA","fhdBasisD":null,"fhdNMF":"no","fhdBasisDt":"20070000","fhdBasisNm":null,"fhdBasisEnt":null,"fhdBasisPrj":null,"fhdBasisMethod":"Electrofishing","fhdAccess":null,"fhdBarrierFtrID":null,"fhdEndExtent":null,"Shape__Length":47629.35793653392,"habitatType":"stream"},"id":6},
{"type":"Feature","geometry":{"type":"LineString","coordinates":[[-117.027717,43.681425],[-117.053668,43.685444],[-117.073098,43.674907],[-117.085659,43.679148],[-117.089507,43.692996],[-117.085753,43.710117],[-117.074109,43.729472],[-117.0579,43.741937],[-117.038595,43.750028],[-117.023919,43.76177],[-117.032764,43.782147],[-117.026357,43.794538],[-117.029296,43.805378],[-117.01998,43.821143],[-117.03192,43.835173],[-117.010036,43.848762],[-117.021433,43.857743],[-117.009112,43.863689],[-116.99059,43.864001],[-116.982273,43.869631],[-116.983659,43.881385],[-116.976177,43.895406],[-116.979083,43.916145],[-116.961858,43.917771],[-116.959252,43.927054],[-116.968944,43.940649],[-116.960968,43.969617],[-116.9504,43.984132],[-116.934465,43.987927],[-116.944408,44.004598],[-116.934538,44.022532],[-116.944557,44.036339],[-116.973073,44.049092],[-116.977201,44.085935],[-116.943992,44.093792],[-116.933641,44.100026],[-116.927319,44.116781],[-116.916064,44.124729],[-116.911543,44.139375],[-116.895047,44.151966],[-116.8949,44.16994],[-116.903102,44.179888],[-116.926575,44.191977],[-116.96324,44.1943],[-116.97205,44.20066],[-116.97466,44.215894],[-116.972459,44.23796],[-116.995577,44.247565],[-117.031759,44.248659],[-117.057362,44.231615],[-117.086536,44.252142],[-117.09531,44.278087],[-117.120416,44.277698],[-117.12688,44.26574],[-117.148011,44.25574],[-117.172944,44.259372],[-117.193143,44.27031],[-117.219496,44.290784],[-117.224634,44.304068],[-117.203096,44.31327],[-117.189734,44.337817],[-117.211987,44.358629],[-117.2353,44.374271],[-117.243211,44.395443],[-117.226622,44.404984],[-117.21505,44.426312],[-117.216696,44.457837],[-117.225051,44.474278],[-117.220917,44.484946],[-117.199993,44.492146],[-117.184334,44.52131],[-117.160483,44.526437],[-117.149036,44.535694],[-117.142969,44.556371],[-117.145034,44.570012],[-117.125665,44.582796],[-117.124296,44.604251],[-117.116346,44.622471],[-117.098105,44.64021],[-117.095739,44.664828],[-117.081974,44.67314],[-117.079045,44.691826],[-117.064899,44.702251],[-117.058291,44.730414],[-117.037708,44.74804],[-116.986144,44.761548],[-116.970361,44.774602],[-116.935471,44.783247],[-116.930985,44.806397],[-116.916196,44.818388],[-116.898346,44.842247],[-116.895753,44.855793],[-116.885739,44.857012],[-116.865773,44.870538],[-116.852299,44.889016],[-116.837727,44.924239],[-116.83531,44.939309],[-116.851847,44.960032],[-116.827253,44.9804],[-116.857628,44.983184],[-116.844335,45.002687],[-116.847634,45.023104],[-116.799102,45.057901],[-116.783119,45.078594],[-116.783432,45.093097],[-116.773135,45.10662],[-116.754129,45.114309],[-116.729575,45.141885],[-116.724855,45.173065],[-116.708022,45.20655],[-116.70983,45.215507],[-116.701032,45.243014]]},"properties":{"OBJECTID":7,"fhdFtrID":7,"fhdRefID":53713,"fhdRevDt":"20190401","fhdONm":"Matthew Neilson","fhdOEnt":"USGS","fhdSpNm":"Ccat","fhdRun":"NA","fhdLifeHst":"FluvRes","fhdUseTy":"Unknown","fhdBasis":"UndocObsFish","fhdStNm":"Snake River","fhdGenus":"Ictalurus","fhdSp":"punctatus","fhdSubSp":null,"fhdOrig":"NonNative","fhdProd":"Natural","fhdComment":null,"fhdESH":"NA","fhdBasisD":null,"fhdNMF":"no","fhdBasisDt":null,"fhdBasisNm":null,"fhdBasisEnt":null,"fhdBasisPrj":null,"fhdBasisMethod":null,"fhdAccess":null,"fhdBarrierFtrID":null,"fhdEndExtent":null,"Shape__Length":364755.0032117869,"habitatType":"stream"},"id":7},
{"type":"Feature","geometry":{"type":"LineString","coordinates":[[-119.041484,46.192627],[-119.017379,46.178585],[-119.000709,46.154255],[-118.973319,46.125663],[-118.943183,46.078056],[-118.941912,46.065396],[-118.94822,46.047662],[-118.941507,46.02604],[-118.964961,46.018045],[-118.981307,45.999863],[-118.989613,45.997467],[-119.027561,45.967102],[-119.065873,45.955852],[-119.117395,45.929708],[-119.192354,45.927056],[-119.256657,45.93833],[-119.312777,45.935853],[-119.356455,45.923],[-119.414655,45.917166],[-119.448954,45.918704],[-119.50346,45.903686],[-119.542562,45.91153],[-119.57447,45.925362],[-119.604114,45.918555],[-119.626148,45.901073],[-119.656999,45.865399],[-119.667151,45.857444],[-119.686866,45.855904],[-119.713514,45.84899],[-119.801535,45.849875],[-119.859042,45.838754],[-119.900785,45.82676],[-119.943076,45.826162],[-119.98297,45.821315],[-120.050459,45.790157],[-120.134624,45.774344],[-120.163306,45.770822],[-120.182702,45.753447],[-120.19204,45.736383],[-120.209453,45.725288],[-120.265076,45.719701],[-120.284906,45.72041],[-120.305506,45.714963],[-120.375543,45.703262],[-120.382989,45.700268],[-120.48999,45.693148],[-120.52913,45.714157],[-120.547984,45.731844],[-120.578223,45.742534],[-120.601443,45.746308],[-120.630619,45.74479],[-120.654188,45.736145],[-120.692264,45.714966],[-120.728638,45.705327],[-120.788587,45.686433],[-120.855428,45.671738],[-120.895843,45.64293],[-120.917443,45.638727],[-120.936073,45.655061],[-120.949103,45.657374],[-120.981279,45.648821],[-121.040595,45.657996],[-121.077303,45.650298],[-121.101177,45.637565],[-121.138664,45.610004],[-121.175024,45.604236],[-121.195709,45.616758],[-121.197535,45.649862],[-121.212504,45.670564],[-121.285892,45.687297],[-121.302196,45.69672],[-121.338104,45.704131],[-121.371876,45.703514],[-121.397446,45.69139],[-121.45918,45.700976],[-121.506707,45.720385],[-121.53748,45.722246],[-121.564467,45.716585],[-121.64433,45.705086],[-121.680651,45.702455],[-121.690417,45.695543],[-121.730719,45.694612],[-121.780321,45.700184],[-121.811169,45.707164],[-121.867093,45.693878],[-121.899249,45.674303],[-121.908936,45.654277],[-121.930854,45.644835],[-121.951732,45.644775],[-121.965735,45.631364],[-121.999213,45.618678],[-122.039647,45.610857],[-122.070674,45.597758],[-122.111359,45.583966],[-122.143035,45.581717],[-122.177692,45.568377],[-122.212954,45.558355],[-122.258121,45.548217],[-122.308185,45.544421],[-122.331355,45.550851],[-122.350567,45.567892],[-122.368502,45.57293],[-122.396725,45.571286],[-122.439803,45.564186],[-122.453544,45.567614],[-122.480217,45.582148],[-122.5241,45.586181],[-122.546736,45.59631],[-122.639221,45.60954],[-122.688481,45.625787],[-122.713902,45.637834],[-122.747638,45.646683],[-122.764025,45.657479],[-122.775693,45.679097],[-122.776235,45.688644],[-122.759695,45.734233],[-122.760424,45.759334],[-122.769869,45.781658],[-122.795149,45.810339],[-122.795121,45.825142],[-122.784484,45.846061],[-122.784759,45.862843],[-122.784647,45.868495]]},"properties":{"OBJECTID":8,"fhdFtrID":8,"fhdRefID":53718,"fhdRevDt":"20190409","fhdONm":"Kevin Stertz","fhdOEnt":"ODFW","fhdSpNm":"Ccat","fhdRun":"NA","fhdLifeHst":"FluvRes","fhdUseTy":"Unknown","fhdBasis":"UndocObsFish","fhdStNm":"Columbia River","fhdGenus":"Ictalurus","fhdSp":"punctatus","fhdSubSp":null,"fhdOrig":"NonNative","fhdProd":"Natural","fhdComment":null,"fhdESH":"NA","fhdBasisD":null,"fhdNMF":"no","fhdBasisDt":null,"fhdBasisNm":null,"fhdBasisEnt":null,"fhdBasisPrj":null,"fhdBasisMethod":null,"fhdAccess":null,"fhdBarrierFtrID":null,"fhdEndExtent":null,"Shape__Length":552637.4045455896,"habitatType":"stream"},"id":8},
{"type":"Feature","geometry":{"type":"LineString","coordinates":[[-120.492803,45.466336],[-120.450271,45.485313],[-120.421087,45.467865],[-120.407163,45.471767],[-120.422679,45.48315],[-120.421868,45.50019],[-120.36528,45.496786],[-120.360094,45.506887],[-120.380069,45.520095],[-120.373494,45.529926],[-120.392588,45.551707],[-120.407049,45.557783],[-120.402669,45.569941],[-120.411713,45.59607],[-120.432703,45.598443],[-120.446634,45.614266],[-120.444234,45.627034],[-120.467963,45.619325],[-120.477784,45.628091],[-120.479492,45.644862],[-120.488908,45.655257],[-120.530158,45.671944],[-120.5464,45.66909],[-120.56681,45.686154],[-120.568524,45.69302],[-120.587193,45.701552],[-120.602849,45.703139],[-120.616351,45.720525],[-120.644057,45.72237],[-120.654188,45.736145]]},"properties":{"OBJECTID":9,"fhdFtrID":9,"fhdRefID":53713,"fhdRevDt":"20190401","fhdONm":"Matthew Neilson","fhdOEnt":"USGS","fhdSpNm":"Ccat","fhdRun":"NA","fhdLifeHst":"FluvRes","fhdUseTy":"Unknown","fhdBasis":"UndocObsFish","fhdStNm":"John Day River","fhdGenus":"Ictalurus","fhdSp":"punctatus","fhdSubSp":null,"fhdOrig":"NonNative","fhdProd":"Natural","fhdComment":null,"fhdESH":"NA","fhdBasisD":null,"fhdNMF":"no","fhdBasisDt":null,"fhdBasisNm":null,"fhdBasisEnt":null,"fhdBasisPrj":null,"fhdBasisMethod":null,"fhdAccess":null,"fhdBarrierFtrID":null,"fhdEndExtent":null,"Shape__Length":95292.09189022971,"habitatType":"stream"},"id":9},
{"type":"Feature","geometry":{"type":"LineString","coordinates":[[-120.446923,44.905759],[-120.459101,44.902198],[-120.473831,44.909917]]},"properties":{"OBJECTID":10,"fhdFtrID":10,"fhdRefID":53585,"fhdRevDt":"20190401","fhdONm":"Wayne Wood","fhdOEnt":"OSU","fhdSpNm":"Ccat","fhdRun":"NA","fhdLifeHst":"FluvRes","fhdUseTy":"Unknown","fhdBasis":"DocObsFish","fhdStNm":"John Day River","fhdGenus":"Ictalurus","fhdSp":"punctatus","fhdSubSp":null,"fhdOrig":"NonNative","fhdProd":"Natural","fhdComment":null,"fhdESH":"NA","fhdBasisD":null,"fhdNMF":"no","fhdBasisDt":"20000911","fhdBasisNm":null,"fhdBasisEnt":null,"fhdBasisPrj":null,"fhdBasisMethod":null,"fhdAccess":null,"fhdBarrierFtrID":null,"fhdEndExtent":null,"Shape__Length":4825.78331161477,"habitatType":"stream"},"id":10},
{"type":"Feature","geometry":{"type":"LineString","coordinates":[[-122.79086,45.619485],[-122.803564,45.620027],[-122.820305,45.632661],[-122.824682,45.645023],[-122.842344,45.653872],[-122.867066,45.674944],[-122.866772,45.717257],[-122.855989,45.732498],[-122.825248,45.747463],[-122.819498,45.769677],[-122.803744,45.788261],[-122.800675,45.799953],[-122.817471,45.803284],[-122.827177,45.812441],[-122.802719,45.8421],[-122.784759,45.862843]]},"properties":{"OBJECTID":11,"fhdFtrID":11,"fhdRefID":53718,"fhdRevDt":"20190409","fhdONm":"Kevin Stertz","fhdOEnt":"ODFW","fhdSpNm":"Ccat","fhdRun":"NA","fhdLifeHst":"FluvRes","fhdUseTy":"Unknown","fhdBasis":"UndocObsFish","fhdStNm":"Multnomah Channel","fhdGenus":"Ictalurus","fhdSp":"punctatus","fhdSubSp":null,"fhdOrig":"NonNative","fhdProd":"Natural","fhdComment":null,"fhdESH":"NA","fhdBasisD":null,"fhdNMF":"no","fhdBasisDt":null,"fhdBasisNm":null,"fhdBasisEnt":null,"fhdBasisPrj":null,"fhdBasisMethod":null,"fhdAccess":null,"fhdBarrierFtrID":null,"fhdEndExtent":null,"Shape__Length":50487.869100071344,"habitatType":"stream"},"id":11},
{"type":"Feature","geometry":{"type":"LineString","coordinates":[[-123.18365,44.283626],[-123.192046,44.293211],[-123.194097,44.307108],[-123.213966,44.309629],[-123.229689,44.341614],[-123.232796,44.357746],[-123.223434,44.369201],[-123.244865,44.381611],[-123.223215,44.39442],[-123.229477,44.414889],[-123.223174,44.422922],[-123.226713,44.434427],[-123.208479,44.435862],[-123.205565,44.444925],[-123.216766,44.468986],[-123.220052,44.486458],[-123.211769,44.501272],[-123.237623,44.527902],[-123.253304,44.528828],[-123.241912,44.544116],[-123.260747,44.555887],[-123.253867,44.572179],[-123.228216,44.583154],[-123.185432,44.58686],[-123.18492,44.594853],[-123.1977,44.603366],[-123.170585,44.621703],[-123.163923,44.637522],[-123.109433,44.639231],[-123.093108,44.641546],[-123.073524,44.650383],[-123.074904,44.659551],[-123.093693,44.676016],[-123.116746,44.676751],[-123.121699,44.691836],[-123.144337,44.709079],[-123.150515,44.723029],[-123.132706,44.743437],[-123.147521,44.754383],[-123.144151,44.775751],[-123.123194,44.793301],[-123.101729,44.797375],[-123.092657,44.813666],[-123.12835,44.826595],[-123.167694,44.828423],[-123.178617,44.833819],[-123.183247,44.847279],[-123.178722,44.860506],[-123.168503,44.864394],[-123.147538,44.862699],[-123.145031,44.877364],[-123.128561,44.904508],[-123.107273,44.920815],[-123.10982,44.930815],[-123.073479,44.927932],[-123.043476,44.94465],[-123.03695,44.967049],[-123.039144,44.987213],[-123.064263,44.989722],[-123.075742,45.014413],[-123.065876,45.066459],[-123.069137,45.076138],[-123.043779,45.091594],[-123.035519,45.10419],[-123.013973,45.102806],[-122.997175,45.120411],[-123.033097,45.148672],[-123.029115,45.160705],[-123.005214,45.160127],[-123.000736,45.166464],[-123.014524,45.17583],[-123.018712,45.197067],[-123.027638,45.202101],[-123.045854,45.200706],[-123.043832,45.219795],[-123.026772,45.223171],[-123.004303,45.221878],[-122.996915,45.229862],[-123.001196,45.258532],[-122.990477,45.272395],[-122.963758,45.284847],[-122.944393,45.26752],[-122.920121,45.268262],[-122.899949,45.256868],[-122.869244,45.253057],[-122.845897,45.262344],[-122.82726,45.2796],[-122.787126,45.292495],[-122.76513,45.291642],[-122.742535,45.300977],[-122.724638,45.302704],[-122.71273,45.296626],[-122.687709,45.299571],[-122.668415,45.28484],[-122.660435,45.292456],[-122.666058,45.318648],[-122.649729,45.337523],[-122.624842,45.348894],[-122.60397,45.36535],[-122.619749,45.377236],[-122.629356,45.394029],[-122.658235,45.409761],[-122.656074,45.42373],[-122.645833,45.439922],[-122.665095,45.463281],[-122.669234,45.489517],[-122.665506,45.502914],[-122.667953,45.526423],[-122.697971,45.550344],[-122.722669,45.560354],[-122.749739,45.578796],[-122.764148,45.584804],[-122.782788,45.604652],[-122.79086,45.619485],[-122.788736,45.633],[-122.770776,45.645993],[-122.764025,45.657479]]},"properties":{"OBJECTID":12,"fhdFtrID":12,"fhdRefID":53718,"fhdRevDt":"20190409","fhdONm":"Kevin Stertz","fhdOEnt":"ODFW","fhdSpNm":"Ccat","fhdRun":"NA","fhdLifeHst":"FluvRes","fhdUseTy":"Rearing","fhdBasis":"IndivProfOpinion","fhdStNm":"Willamette River","fhdGenus":"Ictalurus","fhdSp":"punctatus","fhdSubSp":null,"fhdOrig":"NonNative","fhdProd":"Natural","fhdComment":null,"fhdESH":"NA","fhdBasisD":null,"fhdNMF":"no","fhdBasisDt":null,"fhdBasisNm":null,"fhdBasisEnt":null,"fhdBasisPrj":null,"fhdBasisMethod":null,"fhdAccess":null,"fhdBarrierFtrID":null,"fhdEndExtent":null,"Shape__Length":367165.6759378214,"habitatType":"stream"},"id":12},
{"type":"Feature","geometry":{"type":"LineString","coordinates":[[-122.784647,45.868495],[-122.808186,45.901922],[-122.804741,45.929044],[-122.806207,45.94832],[-122.8142,45.961365],[-122.837341,45.980861],[-122.855144,46.013626],[-122.876729,46.031116],[-122.884718,46.064014],[-122.904614,46.084526],[-122.961884,46.105518],[-122.988977,46.119469],[-123.005041,46.13509],[-123.034471,46.144316],[-123.056928,46.156777],[-123.074266,46.161343],[-123.120139,46.18676],[-123.166871,46.189428],[-123.231714,46.167164],[-123.264736,46.151461],[-123.313644,46.14302],[-123.390127,46.150622],[-123.395123,46.154399]]},"properties":{"OBJECTID":13,"fhdFtrID":13,"fhdRefID":53718,"fhdRevDt":"20190409","fhdONm":"Kevin Stertz","fhdOEnt":"ODFW","fhdSpNm":"Ccat","fhdRun":"NA","fhdLifeHst":"FluvRes","fhdUseTy":"Unknown","fhdBasis":"IndivProfOpinion","fhdStNm":"Columbia River","fhdGenus":"Ictalurus","fhdSp":"punctatus","fhdSubSp":null,"fhdOrig":"NonNative","fhdProd":"Natural","fhdComment":null,"fhdESH":"NA","fhdBasisD":null,"fhdNMF":"no","fhdBasisDt":null,"fhdBasisNm":null,"fhdBasisEnt":null,"fhdBasisPrj":null,"fhdBasisMethod":null,"fhdAccess":null,"fhdBarrierFtrID":null,"fhdEndExtent":null,"Shape__Length":100676.69655106284,"habitatType":"stream"},"id":13},
{"type":"Feature","geometry":{"type":"LineString","coordinates":[[-122.851984,45.80837],[-122.835594,45.825806],[-122.802719,45.8421]]},"properties":{"OBJECTID":14,"fhdFtrID":14,"fhdRefID":53718,"fhdRevDt":"20190409","fhdONm":"Kevin Stertz","fhdOEnt":"ODFW","fhdSpNm":"Ccat","fhdRun":"NA","fhdLifeHst":"FluvRes","fhdUseTy":"Unknown","fhdBasis":"IndivProfOpinion","fhdStNm":"Scappoose Bay","fhdGenus":"Ictalurus","fhdSp":"punctatus","fhdSubSp":null,"fhdOrig":"NonNative","fhdProd":"Natural","fhdComment":null,"fhdESH":"NA","fhdBasisD":null,"fhdNMF":"no","fhdBasisDt":null,"fhdBasisNm":null,"fhdBasisEnt":null,"fhdBasisPrj":null,"fhdBasisMethod":null,"fhdAccess":null,"fhdBarrierFtrID":null,"fhdEndExtent":null,"Shape__Length":8042.914998265032,"habitatType":"stream"},"id":14},
{"type":"Feature","geometry":{"type":"LineString","coordinates":[[-123.096314,44.502312],[-123.129553,44.517459],[-123.150393,44.538356],[-123.153548,44.548435],[-123.14923,44.565833],[-123.138497,44.575142],[-123.141743,44.586639],[-123.133184,44.603948],[-123.125603,44.606256],[-123.128701,44.630893],[-123.109433,44.639231]]},"properties":{"OBJECTID":15,"fhdFtrID":15,"fhdRefID":53585,"fhdRevDt":"20190409","fhdONm":"Wayne Wood","fhdOEnt":"OSU","fhdSpNm":"Ccat","fhdRun":"NA","fhdLifeHst":"FluvRes","fhdUseTy":"Spawning","fhdBasis":"DocObsFish","fhdStNm":"Calapooia River","fhdGenus":"Ictalurus","fhdSp":"punctatus","fhdSubSp":null,"fhdOrig":"NonNative","fhdProd":"Natural","fhdComment":null,"fhdESH":"NA","fhdBasisD":null,"fhdNMF":"no","fhdBasisDt":"19970708","fhdBasisNm":null,"fhdBasisEnt":null,"fhdBasisPrj":null,"fhdBasisMethod":null,"fhdAccess":null,"fhdBarrierFtrID":null,"fhdEndExtent":null,"Shape__Length":44865.70492760223,"habitatType":"stream"},"id":15},
{"type":"Feature","geometry":{"type":"LineString","coordinates":[[-123.144634,45.225827],[-123.124491,45.226843],[-123.12025,45.242394],[-123.105834,45.234313],[-123.106797,45.224732],[-123.078777,45.227057],[-123.058945,45.221871],[-123.050165,45.23596],[-123.019543,45.234509],[-122.996915,45.229862]]},"properties":{"OBJECTID":16,"fhdFtrID":16,"fhdRefID":53718,"fhdRevDt":"20190409","fhdONm":"Kevin Stertz","fhdOEnt":"ODFW","fhdSpNm":"Ccat","fhdRun":"NA","fhdLifeHst":"FluvRes","fhdUseTy":"Spawning","fhdBasis":"IndivProfOpinion","fhdStNm":"Yamhill River","fhdGenus":"Ictalurus","fhdSp":"punctatus","fhdSubSp":null,"fhdOrig":"NonNative","fhdProd":"Natural","fhdComment":null,"fhdESH":"NA","fhdBasisD":null,"fhdNMF":"no","fhdBasisDt":null,"fhdBasisNm":null,"fhdBasisEnt":null,"fhdBasisPrj":null,"fhdBasisMethod":null,"fhdAccess":null,"fhdBarrierFtrID":null,"fhdEndExtent":null,"Shape__Length":25842.994410946343,"habitatType":"stream"},"id":16},
{"type":"Feature","geometry":{"type":"LineString","coordinates":[[-123.125635,45.442169],[-123.124936,45.461256],[-123.125369,45.474675],[-123.112947,45.490626],[-123.102182,45.491534],[-123.088924,45.498684],[-123.056715,45.493068],[-123.056309,45.503015],[-123.025308,45.492076],[-122.995638,45.501657],[-122.983085,45.49814],[-122.987291,45.486142],[-122.967306,45.478178],[-122.960004,45.487874],[-122.946205,45.490653],[-122.933947,45.469778],[-122.956114,45.443707],[-122.931063,45.408219],[-122.920716,45.414771],[-122.907462,45.407362],[-122.903075,45.395072],[-122.890501,45.395979],[-122.875377,45.406495],[-122.859756,45.398267],[-122.857138,45.387759],[-122.838143,45.396294],[-122.814862,45.389535],[-122.780104,45.398762],[-122.764106,45.393033],[-122.734064,45.383542],[-122.710573,45.383566],[-122.697071,45.378913],[-122.677622,45.349156],[-122.651247,45.338144]]},"properties":{"OBJECTID":17,"fhdFtrID":17,"fhdRefID":53720,"fhdRevDt":"20190410","fhdONm":"Tom Murtaugh","fhdOEnt":"ODFW","fhdSpNm":"Ccat","fhdRun":"NA","fhdLifeHst":"FluvRes","fhdUseTy":"Unknown","fhdBasis":"IndivProfOpinion","fhdStNm":"Tualatin River","fhdGenus":"Ictalurus","fhdSp":"punctatus","fhdSubSp":null,"fhdOrig":"NonNative","fhdProd":"Natural","fhdComment":null,"fhdESH":"NA","fhdBasisD":null,"fhdNMF":"no","fhdBasisDt":null,"fhdBasisNm":null,"fhdBasisEnt":null,"fhdBasisPrj":null,"fhdBasisMethod":null,"fhdAccess":null,"fhdBarrierFtrID":null,"fhdEndExtent":null,"Shape__Length":151197.10564551112,"habitatType":"stream"},"id":17},
{"type":"Feature","geometry":{"type":"LineString","coordinates":[[-122.818951,45.636343],[-122.811857,45.644969],[-122.810785,45.659685],[-122.829795,45.673993],[-122.841957,45.701908],[-122.824831,45.703387],[-122.833273,45.724615],[-122.843955,45.734066]]},"properties":{"OBJECTID":18,"fhdFtrID":18,"fhdRefID":53718,"fhdRevDt":"20190409","fhdONm":"Kevin Stertz","fhdOEnt":"ODFW","fhdSpNm":"Ccat","fhdRun":"NA","fhdLifeHst":"FluvRes","fhdUseTy":"Unknown","fhdBasis":"UndocObsFish","fhdStNm":"Gilbert River","fhdGenus":"Ictalurus","fhdSp":"punctatus","fhdSubSp":null,"fhdOrig":"NonNative","fhdProd":"Natural","fhdComment":null,"fhdESH":"NA","fhdBasisD":null,"fhdNMF":"no","fhdBasisDt":null,"fhdBasisNm":null,"fhdBasisEnt":null,"fhdBasisPrj":null,"fhdBasisMethod":null,"fhdAccess":null,"fhdBarrierFtrID":null,"fhdEndExtent":null,"Shape__Length":24669.04524498752,"habitatType":"stream"},"id":18},
{"type":"Feature","geometry":{"type":"LineString","coordinates":[[-123.247261,45.499175],[-123.232435,45.496175],[-123.221747,45.486115],[-123.180368,45.458588],[-123.130016,45.457757],[-123.124936,45.461256]]},"properties":{"OBJECTID":19,"fhdFtrID":19,"fhdRefID":53720,"fhdRevDt":"20190409","fhdONm":"Tom Murtaugh","fhdOEnt":"ODFW","fhdSpNm":"Ccat","fhdRun":"NA","fhdLifeHst":"FluvRes","fhdUseTy":"Unknown","fhdBasis":"IndivProfOpinion","fhdStNm":"Scoggins Creek","fhdGenus":"Ictalurus","fhdSp":"punctatus","fhdSubSp":null,"fhdOrig":"NonNative","fhdProd":"Natural","fhdComment":null,"fhdESH":"NA","fhdBasisD":null,"fhdNMF":"no","fhdBasisDt":null,"fhdBasisNm":null,"fhdBasisEnt":null,"fhdBasisPrj":null,"fhdBasisMethod":null,"fhdAccess":null,"fhdBarrierFtrID":null,"fhdEndExtent":null,"Shape__Length":19343.77050419463,"habitatType":"stream"},"id":19},
{"type":"Feature","geometry":{"type":"LineString","coordinates":[[-123.130868,45.518936],[-123.109499,45.506503],[-123.102182,45.491534]]},"properties":{"OBJECTID":20,"fhdFtrID":20,"fhdRefID":53720,"fhdRevDt":"20190409","fhdONm":"Tom Murtaugh","fhdOEnt":"ODFW","fhdSpNm":"Ccat","fhdRun":"NA","fhdLifeHst":"FluvRes","fhdUseTy":"Unknown","fhdBasis":"IndivProfOpinion","fhdStNm":"Gales Creek","fhdGenus":"Ictalurus","fhdSp":"punctatus","fhdSubSp":null,"fhdOrig":"NonNative","fhdProd":"Natural","fhdComment":null,"fhdESH":"NA","fhdBasisD":null,"fhdNMF":"no","fhdBasisDt":null,"fhdBasisNm":null,"fhdBasisEnt":null,"fhdBasisPrj":null,"fhdBasisMethod":null,"fhdAccess":null,"fhdBarrierFtrID":null,"fhdEndExtent":null,"Shape__Length":10050.089235719246,"habitatType":"stream"},"id":20},
{"type":"Feature","geometry":{"type":"LineString","coordinates":[[-123.028687,45.535517],[-123.011785,45.522401],[-123.004908,45.506506],[-122.995638,45.501657]]},"properties":{"OBJECTID":21,"fhdFtrID":21,"fhdRefID":53720,"fhdRevDt":"20190409","fhdONm":"Tom Murtaugh","fhdOEnt":"ODFW","fhdSpNm":"Ccat","fhdRun":"NA","fhdLifeHst":"FluvRes","fhdUseTy":"Unknown","fhdBasis":"IndivProfOpinion","fhdStNm":"Dairy Creek","fhdGenus":"Ictalurus","fhdSp":"punctatus","fhdSubSp":null,"fhdOrig":"NonNative","fhdProd":"Natural","fhdComment":null,"fhdESH":"NA","fhdBasisD":null,"fhdNMF":"no","fhdBasisDt":null,"fhdBasisNm":null,"fhdBasisEnt":null,"fhdBasisPrj":null,"fhdBasisMethod":null,"fhdAccess":null,"fhdBarrierFtrID":null,"fhdEndExtent":null,"Shape__Length":10882.651051710674,"habitatType":"stream"},"id":21},
{"type":"Feature","geometry":{"type":"LineString","coordinates":[[-122.991186,45.57381],[-122.999748,45.537082],[-123.011785,45.522401]]},"properties":{"OBJECTID":22,"fhdFtrID":22,"fhdRefID":53720,"fhdRevDt":"20190409","fhdONm":"Tom Murtaugh","fhdOEnt":"ODFW","fhdSpNm":"Ccat","fhdRun":"NA","fhdLifeHst":"FluvRes","fhdUseTy":"Unknown","fhdBasis":"IndivProfOpinion","fhdStNm":"McKay Creek","fhdGenus":"Ictalurus","fhdSp":"punctatus","fhdSubSp":null,"fhdOrig":"NonNative","fhdProd":"Natural","fhdComment":null,"fhdESH":"NA","fhdBasisD":null,"fhdNMF":"no","fhdBasisDt":null,"fhdBasisNm":null,"fhdBasisEnt":null,"fhdBasisPrj":null,"fhdBasisMethod":null,"fhdAccess":null,"fhdBarrierFtrID":null,"fhdEndExtent":null,"Shape__Length":14999.663472679087,"habitatType":"stream"},"id":22},
{"type":"Feature","geometry":{"type":"LineString","coordinates":[[-122.913072,45.519353],[-122.932711,45.516265],[-122.946968,45.507164],[-122.946205,45.490653]]},"properties":{"OBJECTID":23,"fhdFtrID":23,"fhdRefID":53720,"fhdRevDt":"20190409","fhdONm":"Tom Murtaugh","fhdOEnt":"ODFW","fhdSpNm":"Ccat","fhdRun":"NA","fhdLifeHst":"FluvRes","fhdUseTy":"Unknown","fhdBasis":"IndivProfOpinion","fhdStNm":"Rock Creek","fhdGenus":"Ictalurus","fhdSp":"punctatus","fhdSubSp":null,"fhdOrig":"NonNative","fhdProd":"Natural","fhdComment":null,"fhdESH":"NA","fhdBasisD":null,"fhdNMF":"no","fhdBasisDt":null,"fhdBasisNm":null,"fhdBasisEnt":null,"fhdBasisPrj":null,"fhdBasisMethod":null,"fhdAccess":null,"fhdBarrierFtrID":null,"fhdEndExtent":null,"Shape__Length":11612.005596806199,"habitatType":"stream"},"id":23},
{"type":"Feature","geometry":{"type":"LineString","coordinates":[[-122.87886,45.513588],[-122.905282,45.521147],[-122.913072,45.519353]]},"properties":{"OBJECTID":24,"fhdFtrID":24,"fhdRefID":53720,"fhdRevDt":"20190409","fhdONm":"Tom Murtaugh","fhdOEnt":"ODFW","fhdSpNm":"Ccat","fhdRun":"NA","fhdLifeHst":"FluvRes","fhdUseTy":"Unknown","fhdBasis":"IndivProfOpinion","fhdStNm":"Beaverton Creek","fhdGenus":"Ictalurus","fhdSp":"punctatus","fhdSubSp":null,"fhdOrig":"NonNative","fhdProd":"Natural","fhdComment":null,"fhdESH":"NA","fhdBasisD":null,"fhdNMF":"no","fhdBasisDt":null,"fhdBasisNm":null,"fhdBasisEnt":null,"fhdBasisPrj":null,"fhdBasisMethod":null,"fhdAccess":null,"fhdBarrierFtrID":null,"fhdEndExtent":null,"Shape__Length":6960.371764671893,"habitatType":"stream"},"id":24},
{"type":"Feature","geometry":{"type":"LineString","coordinates":[[-122.78751,45.443407],[-122.754597,45.416],[-122.753059,45.404448],[-122.764106,45.393033]]},"properties":{"OBJECTID":25,"fhdFtrID":25,"fhdRefID":53720,"fhdRevDt":"20190409","fhdONm":"Tom Murtaugh","fhdOEnt":"ODFW","fhdSpNm":"Ccat","fhdRun":"NA","fhdLifeHst":"FluvRes","fhdUseTy":"Unknown","fhdBasis":"IndivProfOpinion","fhdStNm":"Fanno Creek","fhdGenus":"Ictalurus","fhdSp":"punctatus","fhdSubSp":null,"fhdOrig":"NonNative","fhdProd":"Natural","fhdComment":null,"fhdESH":"NA","fhdBasisD":null,"fhdNMF":"no","fhdBasisDt":null,"fhdBasisNm":null,"fhdBasisEnt":null,"fhdBasisPrj":null,"fhdBasisMethod":null,"fhdAccess":null,"fhdBarrierFtrID":null,"fhdEndExtent":null,"Shape__Length":14296.27488713205,"habitatType":"stream"},"id":25},
{"type":"Feature","geometry":{"type":"LineString","coordinates":[[-120.473831,44.909917],[-120.469962,44.922248],[-120.474673,44.937281],[-120.488949,44.951471],[-120.484463,44.974197],[-120.477188,44.982016],[-120.483893,45.000314],[-120.478958,45.01766],[-120.489114,45.029163],[-120.481046,45.037805],[-120.489679,45.046759],[-120.483103,45.056788],[-120.495375,45.063485],[-120.494728,45.074532],[-120.514584,45.095096],[-120.509606,45.101697],[-120.477714,45.111474],[-120.461315,45.108351],[-120.458608,45.120907],[-120.465289,45.130242],[-120.462227,45.144212],[-120.47631,45.156615],[-120.482739,45.169809],[-120.482004,45.193372],[-120.505807,45.195755],[-120.541517,45.210034],[-120.54195,45.231996],[-120.55615,45.250097],[-120.540518,45.253386],[-120.547442,45.263282],[-120.540533,45.275474],[-120.542758,45.28759],[-120.526047,45.305916],[-120.533653,45.3534],[-120.521878,45.377762],[-120.532046,45.383519],[-120.519007,45.395981],[-120.523882,45.405504],[-120.506454,45.407778],[-120.502995,45.417172],[-120.483354,45.422069],[-120.484888,45.441116],[-120.494597,45.451291],[-120.481829,45.456304],[-120.492803,45.466336]]},"properties":{"OBJECTID":26,"fhdFtrID":26,"fhdRefID":53750,"fhdRevDt":"20190426","fhdONm":"Karen Blocksom","fhdOEnt":"EPA","fhdSpNm":"Ccat","fhdRun":"NA","fhdLifeHst":"FluvRes","fhdUseTy":"Unknown","fhdBasis":"DocObsFish","fhdStNm":"John Day River","fhdGenus":"Ictalurus","fhdSp":"punctatus","fhdSubSp":null,"fhdOrig":"NonNative","fhdProd":"Natural","fhdComment":null,"fhdESH":"NA","fhdBasisD":null,"fhdNMF":"no","fhdBasisDt":null,"fhdBasisNm":null,"fhdBasisEnt":null,"fhdBasisPrj":null,"fhdBasisMethod":"Electrofisher","fhdAccess":null,"fhdBarrierFtrID":null,"fhdEndExtent":null,"Shape__Length":155379.39406140606,"habitatType":"stream"},"id":26},
{"type":"Feature","geometry":{"type":"LineString","coordinates":[[-119.356455,45.923],[-119.352783,45.916322],[-119.328104,45.908545],[-119.324474,45.882041]]},"properties":{"OBJECTID":27,"fhdFtrID":27,"fhdRefID":53724,"fhdRevDt":"20190506","fhdONm":"Bill Duke","fhdOEnt":"ODFW","fhdSpNm":"Ccat","fhdRun":"NA","fhdLifeHst":"FluvRes","fhdUseTy":"Unknown","fhdBasis":"UndocObsFish","fhdStNm":"Umatilla River","fhdGenus":"Ictalurus","fhdSp":"punctatus","fhdSubSp":null,"fhdOrig":"NonNative","fhdProd":"Natural","fhdComment":null,"fhdESH":"NA","fhdBasisD":null,"fhdNMF":"no","fhdBasisDt":null,"fhdBasisNm":null,"fhdBasisEnt":null,"fhdBasisPrj":null,"fhdBasisMethod":null,"fhdAccess":null,"fhdBarrierFtrID":null,"fhdEndExtent":null,"Shape__Length":9068.814132031494,"habitatType":"stream"},"id":27},
{"type":"Feature","geometry":{"type":"Polygon","coordinates":[[[-116.701875,45.236909],[-116.700389,45.242403],[-116.702999,45.243297],[-116.706749,45.237817],[-116.705282,45.234058],[-116.706655,45.227379],[-116.710882,45.221827],[-116.711583,45.215194],[-116.709814,45.210951],[-116.709968,45.204311],[-116.715638,45.193619],[-116.717666,45.186338],[-116.721826,45.179636],[-116.726524,45.174467],[-116.726851,45.172399],[-116.725341,45.161835],[-116.728725,45.156556],[-116.730448,45.150976],[-116.731245,45.14272],[-116.732493,45.14085],[-116.745554,45.134235],[-116.746985,45.132522],[-116.746461,45.12774],[-116.753559,45.123023],[-116.755268,45.115055],[-116.759314,45.112198],[-116.767405,45.11022],[-116.775547,45.10696],[-116.780236,45.101232],[-116.784584,45.094352],[-116.785297,45.084265],[-116.786609,45.080008],[-116.78502,45.07846],[-116.791102,45.072049],[-116.79675,45.06478],[-116.797708,45.061286],[-116.8212,45.045006],[-116.826005,45.039425],[-116.842809,45.03143],[-116.844175,45.028286],[-116.849371,45.022797],[-116.849632,45.020435],[-116.846883,45.018081],[-116.845708,45.014351],[-116.848953,45.011915],[-116.846531,45.008125],[-116.845376,45.002036],[-116.852852,44.992643],[-116.856176,44.986222],[-116.858615,44.984408],[-116.859525,44.98009],[-116.858809,44.977019],[-116.85375,44.972117],[-116.8481,44.970874],[-116.843853,44.974939],[-116.838902,44.982263],[-116.840464,44.98354],[-116.845546,44.975361],[-116.849841,44.972385],[-116.853046,44.973103],[-116.857872,44.978334],[-116.856532,44.983405],[-116.851731,44.991463],[-116.844369,45.000356],[-116.843388,45.005459],[-116.845913,45.011691],[-116.843666,45.015845],[-116.846554,45.023173],[-116.842912,45.026373],[-116.841847,45.029213],[-116.823985,45.037644],[-116.816186,45.045822],[-116.807442,45.050415],[-116.796455,45.058499],[-116.794025,45.063958],[-116.791932,45.06517],[-116.786959,45.072224],[-116.782268,45.075597],[-116.78128,45.078634],[-116.782619,45.081341],[-116.78242,45.094007],[-116.776922,45.100198],[-116.774138,45.104613],[-116.765428,45.108669],[-116.753252,45.113273],[-116.750634,45.118783],[-116.745399,45.121653],[-116.740604,45.125974],[-116.740405,45.129702],[-116.736842,45.131556],[-116.733119,45.136774],[-116.728866,45.139904],[-116.726092,45.149239],[-116.72662,45.155042],[-116.723763,45.159108],[-116.722278,45.164702],[-116.723284,45.172031],[-116.720275,45.178483],[-116.715866,45.184205],[-116.712708,45.194925],[-116.70876,45.198754],[-116.706513,45.207782],[-116.708258,45.21641],[-116.702762,45.228063],[-116.701875,45.236909]]]},"properties":{"OBJECTID":1,"fhdFtrID":2,"fhdRefID":53684,"fhdRevDt":"20190212","fhdONm":"Peter Robinson","fhdOEnt":"ODFW","fhdSpNm":"Ccat","fhdRun":"NA","fhdLifeHst":"Resident","fhdUseTy":"ResidentMultipleUses","fhdBasis":"UndocObsFish","fhdStNm":"Hells Canyon Reservoir","fhdGenus":"Ictalurus","fhdSp":"punctatus","fhdSubSp":null,"fhdOrig":"NonNative","fhdProd":"Natural","fhdComment":null,"fhdESH":"NA","fhdBasisD":null,"fhdNMF":"no","fhdBasisDt":null,"fhdBasisNm":null,"fhdBasisEnt":null,"fhdBasisPrj":null,"fhdBasisMethod":null,"fhdAccess":null,"fhdBarrierFtrID":null,"fhdEndExtent":null,"Shape__Area":18695910.95635435,"Shape__Length":121775.12852254763,"habitatType":"lake"},"id":28},
{"type":"Feature","geometry":{"type":"Polygon","coordinates":[[[-119.236019,46.262924],[-119.242641,46.266656],[-119.251139,46.270034],[-119.251141,46.265413],[-119.241015,46.261649],[-119.244255,46.258593],[-119.245287,46.255538],[-119.241933,46.253768],[-119.239048,46.249376],[-119.241519,46.246343],[-119.239039,46.240706],[-119.234582,46.241004],[-119.232486,46.239403],[-119.22553,46.240113],[-119.230553,46.243973],[-119.230335,46.248508],[-119.227245,46.249787],[-119.223876,46.247024],[-119.223303,46.241721],[-119.224786,46.238496],[-119.217625,46.238317],[-119.200598,46.232792],[-119.189336,46.231016],[-119.178525,46.227797],[-119.158778,46.22362],[-119.152418,46.222807],[-119.144673,46.223506],[-119.136757,46.221924],[-119.117005,46.215219],[-119.104924,46.214725],[-119.097282,46.211536],[-119.078082,46.205386],[-119.063514,46.198417],[-119.0544,46.195416],[-119.051849,46.193551],[-119.051297,46.18901],[-119.037896,46.186967],[-119.031327,46.183757],[-119.018661,46.17412],[-119.014584,46.168744],[-119.0228,46.172027],[-119.027805,46.171469],[-119.013205,46.165754],[-119.012948,46.161914],[-119.009334,46.1607],[-119.006323,46.156377],[-119.001897,46.147434],[-119.005334,46.143043],[-119.005001,46.137223],[-119.00256,46.132636],[-118.992192,46.124862],[-118.988846,46.123372],[-118.978905,46.121023],[-118.973674,46.118068],[-118.971872,46.112787],[-118.966212,46.103492],[-118.971502,46.103068],[-118.968762,46.096135],[-118.966174,46.092735],[-118.957199,46.084395],[-118.953185,46.079344],[-118.951479,46.06675],[-118.950297,46.065664],[-118.955617,46.046839],[-118.95515,46.039077],[-118.958266,46.032253],[-118.988346,46.011022],[-118.995708,46.005308],[-118.999609,45.998026],[-119.007529,45.989249],[-119.012766,45.985099],[-119.02669,45.976575],[-119.035007,45.972628],[-119.062319,45.965451],[-119.06777,45.963498],[-119.090085,45.95242],[-119.100548,45.947541],[-119.115263,45.943119],[-119.125537,45.94149],[-119.147679,45.937388],[-119.15154,45.93728],[-119.168308,45.934749],[-119.180548,45.933868],[-119.200569,45.935128],[-119.209366,45.936032],[-119.220821,45.938547],[-119.234221,45.943818],[-119.250736,45.947857],[-119.263606,45.948206],[-119.29986,45.944348],[-119.296695,45.931969],[-119.2936,45.926501],[-119.269845,45.931442],[-119.249348,45.930527],[-119.230764,45.926784],[-119.219263,45.92319],[-119.206648,45.921141],[-119.197218,45.920084],[-119.1797,45.920572],[-119.174231,45.919771],[-119.170175,45.921169],[-119.158529,45.919774],[-119.150795,45.921242],[-119.145044,45.919139],[-119.138457,45.920173],[-119.129645,45.922928],[-119.12717,45.921819],[-119.12234,45.923101],[-119.118103,45.922215],[-119.114277,45.923292],[-119.095859,45.930912],[-119.063238,45.948721],[-119.060667,45.950411],[-119.047062,45.955358],[-119.040425,45.957276],[-119.02245,45.963355],[-119.01267,45.967843],[-118.995873,45.978693],[-118.993334,45.981366],[-118.983684,45.994041],[-118.975413,46.00156],[-118.965374,46.009225],[-118.947427,46.019107],[-118.941066,46.025048],[-118.933672,46.028585],[-118.937625,46.036577],[-118.940665,46.03876],[-118.941075,46.043],[-118.937137,46.051431],[-118.929983,46.056455],[-118.923246,46.057738],[-118.916232,46.063305],[-118.910597,46.06473],[-118.909215,46.071536],[-118.9094,46.079704],[-118.913526,46.091597],[-118.914029,46.095897],[-118.92203,46.100303],[-118.9249,46.104296],[-118.922769,46.109112],[-118.927342,46.11745],[-118.93097,46.120406],[-118.933387,46.124862],[-118.945111,46.133089],[-118.945459,46.141481],[-118.943479,46.147082],[-118.944482,46.150949],[-118.942904,46.152336],[-118.950396,46.157868],[-118.946615,46.162078],[-118.953547,46.167545],[-118.959608,46.163858],[-118.957231,46.160173],[-118.960388,46.15834],[-118.961547,46.155203],[-118.960677,46.150957],[-118.958869,46.149938],[-118.960935,46.145703],[-118.957997,46.138869],[-118.958515,46.131947],[-118.960849,46.128403],[-118.964472,46.13403],[-118.967152,46.1428],[-118.974018,46.15719],[-118.973128,46.158847],[-118.983139,46.171289],[-118.988029,46.174748],[-119.004651,46.18519],[-119.015101,46.191283],[-119.015542,46.19385],[-119.023808,46.197988],[-119.022747,46.201251],[-119.027075,46.203138],[-119.026899,46.206659],[-119.020385,46.214018],[-119.003753,46.221854],[-118.994248,46.224789],[-118.985339,46.229341],[-118.978269,46.234427],[-118.974065,46.23589],[-118.968563,46.235539],[-118.956162,46.236544],[-118.951087,46.236276],[-118.931516,46.239871],[-118.908954,46.24187],[-118.896429,46.245966],[-118.884253,46.247612],[-118.880071,46.247483],[-118.880197,46.250481],[-118.885051,46.251064],[-118.894694,46.249798],[-118.904501,46.247668],[-118.910659,46.246985],[-118.928092,46.243623],[-118.953761,46.240942],[-118.96127,46.241821],[-118.969041,46.241287],[-118.97817,46.239869],[-118.986199,46.237349],[-118.997608,46.232799],[-119.005997,46.230011],[-119.011985,46.224551],[-119.023368,46.218133],[-119.033953,46.208455],[-119.037298,46.200442],[-119.039795,46.198513],[-119.049312,46.203457],[-119.05304,46.206539],[-119.064676,46.209594],[-119.07509,46.213877],[-119.09099,46.219364],[-119.094181,46.218568],[-119.108375,46.221651],[-119.121014,46.225385],[-119.135756,46.227935],[-119.143459,46.230477],[-119.157597,46.231227],[-119.173213,46.234723],[-119.185203,46.236271],[-119.193621,46.238184],[-119.204664,46.242598],[-119.211053,46.24603],[-119.219094,46.248759],[-119.225425,46.253824],[-119.231699,46.259843],[-119.236019,46.262924]],[[-118.936207,46.104308],[-118.940609,46.113111],[-118.936815,46.111049],[-118.936207,46.104308]],[[-119.006397,46.225212],[-119.005572,46.227965],[-118.998246,46.230745],[-118.99769,46.228626],[-119.002767,46.227569],[-119.006397,46.225212]]]},"properties":{"OBJECTID":2,"fhdFtrID":3,"fhdRefID":53684,"fhdRevDt":"20190212","fhdONm":"Peter Robinson","fhdOEnt":"ODFW","fhdSpNm":"Ccat","fhdRun":"NA","fhdLifeHst":"Resident","fhdUseTy":"ResidentMultipleUses","fhdBasis":"UndocObsFish","fhdStNm":"Lake Wallula","fhdGenus":"Ictalurus","fhdSp":"punctatus","fhdSubSp":null,"fhdOrig":"NonNative","fhdProd":"Natural","fhdComment":null,"fhdESH":"NA","fhdBasisD":null,"fhdNMF":"no","fhdBasisDt":null,"fhdBasisNm":null,"fhdBasisEnt":null,"fhdBasisPrj":null,"fhdBasisMethod":null,"fhdAccess":null,"fhdBarrierFtrID":null,"fhdEndExtent":null,"Shape__Area":273204934.4210888,"Shape__Length":436423.0237358849,"habitatType":"lake"},"id":29},
{"type":"Feature","geometry":{"type":"Polygon","coordinates":[[[-122.132968,45.577306],[-122.139071,45.576404],[-122.135595,45.575524],[-122.131875,45.576225],[-122.132968,45.577306]]]},"properties":{"OBJECTID":3,"fhdFtrID":5,"fhdRefID":53718,"fhdRevDt":"20190429","fhdONm":"Kevin Stertz","fhdOEnt":"ODFW","fhdSpNm":"Ccat","fhdRun":"NA","fhdLifeHst":"Resident","fhdUseTy":"ResidentMultipleUses","fhdBasis":"DocObsFish","fhdStNm":"Hartman Pond","fhdGenus":"Ictalurus","fhdSp":"punctatus","fhdSubSp":null,"fhdOrig":"NonNative","fhdProd":"Natural","fhdComment":null,"fhdESH":"NA","fhdBasisD":null,"fhdNMF":"no","fhdBasisDt":null,"fhdBasisNm":null,"fhdBasisEnt":null,"fhdBasisPrj":null,"fhdBasisMethod":null,"fhdAccess":null,"fhdBarrierFtrID":null,"fhdEndExtent":null,"Shape__Area":157430.717617665,"Shape__Length":1911.85754371111,"habitatType":"lake"},"id":30},
{"type":"Feature","geometry":{"type":"Polygon","coordinates":[[[-118.248039,43.667104],[-118.254624,43.667138],[-118.255385,43.662298],[-118.253338,43.660052],[-118.25567,43.656113],[-118.260509,43.654332],[-118.260325,43.649024],[-118.259148,43.646752],[-118.260028,43.643256],[-118.251583,43.639053],[-118.244291,43.637606],[-118.241897,43.631263],[-118.249364,43.626462],[-118.248418,43.620301],[-118.249457,43.617579],[-118.24869,43.61344],[-118.25416,43.610709],[-118.259327,43.610042],[-118.255198,43.607071],[-118.255624,43.604025],[-118.259905,43.605229],[-118.258936,43.598719],[-118.255269,43.595134],[-118.25104,43.595996],[-118.24374,43.60307],[-118.241497,43.602912],[-118.239491,43.59844],[-118.239549,43.595356],[-118.242824,43.59233],[-118.245537,43.587071],[-118.238449,43.589423],[-118.235393,43.591538],[-118.231421,43.591748],[-118.23743,43.581438],[-118.241084,43.580547],[-118.241353,43.578231],[-118.236074,43.575061],[-118.23551,43.577564],[-118.232476,43.578938],[-118.232887,43.583224],[-118.230292,43.585804],[-118.223957,43.586701],[-118.218235,43.588728],[-118.213682,43.588625],[-118.209324,43.585245],[-118.205881,43.586848],[-118.205831,43.594746],[-118.212606,43.598345],[-118.21531,43.598772],[-118.217287,43.610813],[-118.224482,43.616848],[-118.222617,43.618594],[-118.225136,43.622698],[-118.225203,43.625715],[-118.229346,43.630686],[-118.231727,43.631135],[-118.23523,43.636672],[-118.238868,43.640742],[-118.24139,43.647256],[-118.245609,43.648802],[-118.250831,43.655604],[-118.249725,43.659831],[-118.252383,43.662],[-118.252554,43.665288],[-118.248028,43.664541],[-118.248039,43.667104]]]},"properties":{"OBJECTID":4,"fhdFtrID":7,"fhdRefID":53684,"fhdRevDt":"20190219","fhdONm":"Peter Robinson","fhdOEnt":"ODFW","fhdSpNm":"Ccat","fhdRun":"NA","fhdLifeHst":"Resident","fhdUseTy":"ResidentMultipleUses","fhdBasis":"UndocObsFish","fhdStNm":"Warm Springs Reservoir","fhdGenus":"Ictalurus","fhdSp":"punctatus","fhdSubSp":null,"fhdOrig":"NonNative","fhdProd":"Natural","fhdComment":null,"fhdESH":"NA","fhdBasisD":null,"fhdNMF":"no","fhdBasisDt":null,"fhdBasisNm":null,"fhdBasisEnt":null,"fhdBasisPrj":null,"fhdBasisMethod":null,"fhdAccess":null,"fhdBarrierFtrID":null,"fhdEndExtent":null,"Shape__Area":31964369.911938075,"Shape__Length":71794.61772522835,"habitatType":"lake"},"id":31},
{"type":"Feature","geometry":{"type":"Polygon","coordinates":[[[-117.238128,43.643285],[-117.243341,43.641465],[-117.238766,43.639102],[-117.237531,43.634508],[-117.240945,43.633101],[-117.246892,43.632583],[-117.252871,43.6311],[-117.253507,43.628987],[-117.26263,43.626746],[-117.265322,43.62408],[-117.265741,43.620946],[-117.26871,43.616331],[-117.278893,43.618892],[-117.286894,43.618839],[-117.290226,43.619822],[-117.295999,43.616047],[-117.303079,43.607502],[-117.308903,43.608726],[-117.317145,43.608528],[-117.321457,43.606091],[-117.322159,43.599049],[-117.325708,43.598983],[-117.328647,43.601392],[-117.332255,43.595238],[-117.330969,43.58841],[-117.33186,43.586511],[-117.336564,43.58595],[-117.34166,43.583446],[-117.344134,43.578643],[-117.34238,43.575086],[-117.349507,43.574898],[-117.35075,43.571203],[-117.355106,43.571097],[-117.352385,43.566153],[-117.362693,43.570019],[-117.365023,43.567773],[-117.370105,43.568895],[-117.370804,43.573396],[-117.374893,43.57117],[-117.372059,43.568373],[-117.378735,43.567087],[-117.382581,43.564638],[-117.38728,43.56465],[-117.393583,43.562197],[-117.400614,43.561358],[-117.394035,43.558922],[-117.386066,43.559746],[-117.374794,43.563322],[-117.364114,43.564474],[-117.358573,43.563478],[-117.35911,43.554822],[-117.355702,43.550135],[-117.355653,43.544432],[-117.356711,43.537472],[-117.357834,43.535803],[-117.362732,43.536942],[-117.367559,43.535354],[-117.369826,43.530528],[-117.368073,43.527856],[-117.368749,43.524996],[-117.357814,43.5287],[-117.354875,43.523558],[-117.349789,43.520277],[-117.351457,43.5101],[-117.354125,43.507382],[-117.356352,43.501031],[-117.352265,43.498235],[-117.346863,43.500436],[-117.343726,43.497996],[-117.341678,43.493742],[-117.342305,43.487281],[-117.352064,43.482146],[-117.354302,43.479785],[-117.353793,43.475311],[-117.348937,43.47175],[-117.341008,43.470188],[-117.342973,43.467344],[-117.339287,43.465177],[-117.348156,43.463885],[-117.350649,43.461408],[-117.353509,43.456033],[-117.352654,43.450797],[-117.348629,43.448542],[-117.350465,43.445484],[-117.357268,43.444818],[-117.358719,43.441436],[-117.362438,43.438508],[-117.362788,43.433952],[-117.355522,43.426248],[-117.352985,43.427858],[-117.348194,43.42585],[-117.345295,43.427481],[-117.340993,43.425385],[-117.34438,43.421207],[-117.349779,43.419652],[-117.34672,43.417183],[-117.341453,43.410043],[-117.338261,43.410093],[-117.330821,43.408349],[-117.325173,43.402948],[-117.320851,43.396411],[-117.321641,43.395016],[-117.315972,43.392854],[-117.31254,43.390367],[-117.3126,43.385515],[-117.314346,43.378527],[-117.317627,43.376002],[-117.316204,43.372219],[-117.318153,43.367443],[-117.316498,43.364122],[-117.313315,43.36129],[-117.312781,43.357898],[-117.319589,43.354692],[-117.321191,43.352924],[-117.32213,43.347429],[-117.324348,43.344152],[-117.323731,43.340062],[-117.318924,43.335808],[-117.32227,43.33246],[-117.330805,43.330576],[-117.334353,43.326876],[-117.329779,43.319784],[-117.331688,43.317116],[-117.337197,43.314068],[-117.342689,43.307244],[-117.343146,43.305037],[-117.347159,43.303093],[-117.35564,43.307745],[-117.357067,43.306361],[-117.364425,43.305113],[-117.375042,43.300991],[-117.381542,43.303887],[-117.387593,43.303471],[-117.387868,43.307368],[-117.393624,43.308925],[-117.396757,43.311237],[-117.401952,43.310618],[-117.408618,43.314056],[-117.414836,43.310989],[-117.417145,43.306514],[-117.419724,43.306324],[-117.427901,43.3084],[-117.433824,43.31253],[-117.440409,43.31462],[-117.445078,43.317314],[-117.446846,43.321287],[-117.444749,43.325086],[-117.447057,43.327374],[-117.451749,43.327166],[-117.449681,43.324253],[-117.452063,43.320974],[-117.446732,43.314357],[-117.441454,43.310959],[-117.432983,43.306739],[-117.431728,43.300348],[-117.424926,43.302492],[-117.418357,43.302257],[-117.414161,43.307279],[-117.402421,43.305972],[-117.39658,43.30673],[-117.388692,43.300952],[-117.384316,43.303126],[-117.380641,43.302392],[-117.377923,43.299547],[-117.370395,43.299368],[-117.363918,43.30126],[-117.361047,43.303653],[-117.355345,43.304265],[-117.352284,43.301988],[-117.344865,43.301518],[-117.340132,43.303885],[-117.33769,43.306971],[-117.335039,43.312949],[-117.326147,43.318099],[-117.325456,43.320109],[-117.328472,43.32551],[-117.328112,43.32748],[-117.323518,43.328452],[-117.316382,43.332268],[-117.316872,43.34059],[-117.314338,43.345942],[-117.304906,43.347215],[-117.302039,43.354417],[-117.303761,43.357046],[-117.303407,43.361608],[-117.306694,43.365961],[-117.310108,43.375233],[-117.308137,43.383517],[-117.305375,43.388402],[-117.305939,43.39113],[-117.309318,43.392695],[-117.310342,43.395061],[-117.30712,43.397487],[-117.309092,43.399414],[-117.313842,43.398113],[-117.317351,43.400264],[-117.319693,43.405408],[-117.330702,43.413629],[-117.330402,43.416802],[-117.326299,43.419805],[-117.327437,43.425514],[-117.335029,43.426501],[-117.333735,43.431217],[-117.335055,43.434082],[-117.341987,43.438455],[-117.345067,43.437916],[-117.342782,43.44816],[-117.344127,43.453923],[-117.343736,43.456915],[-117.335312,43.457861],[-117.327717,43.460283],[-117.324441,43.465251],[-117.33038,43.468258],[-117.332847,43.474922],[-117.336247,43.476667],[-117.345563,43.476577],[-117.348135,43.478222],[-117.338435,43.482177],[-117.333559,43.48495],[-117.338068,43.492448],[-117.339409,43.498804],[-117.337483,43.502107],[-117.333867,43.504221],[-117.340293,43.506442],[-117.342919,43.509323],[-117.345661,43.516156],[-117.344193,43.521997],[-117.347439,43.526464],[-117.352306,43.528131],[-117.354647,43.531561],[-117.35277,43.532786],[-117.35103,43.537765],[-117.346761,43.539945],[-117.343806,43.545358],[-117.347589,43.54977],[-117.347116,43.552954],[-117.348688,43.556609],[-117.347309,43.559743],[-117.344207,43.561402],[-117.342241,43.568434],[-117.33578,43.571904],[-117.330617,43.573667],[-117.334778,43.575445],[-117.337777,43.579885],[-117.33392,43.583102],[-117.32535,43.584552],[-117.324663,43.587478],[-117.327429,43.593021],[-117.32647,43.595607],[-117.319001,43.592193],[-117.311358,43.597205],[-117.314153,43.604132],[-117.306789,43.600674],[-117.297452,43.604136],[-117.293712,43.609087],[-117.289247,43.610947],[-117.288142,43.614371],[-117.275519,43.613879],[-117.273435,43.611936],[-117.261621,43.610169],[-117.253861,43.612443],[-117.25647,43.616945],[-117.245777,43.620349],[-117.241389,43.622667],[-117.23814,43.622328],[-117.23176,43.630075],[-117.229736,43.631229],[-117.23,43.639736],[-117.233198,43.641914],[-117.238128,43.643285]]]},"properties":{"OBJECTID":5,"fhdFtrID":8,"fhdRefID":53718,"fhdRevDt":"20190219","fhdONm":"Kevin Stertz","fhdOEnt":"ODFW","fhdSpNm":"Ccat","fhdRun":"NA","fhdLifeHst":"Resident","fhdUseTy":"ResidentMultipleUses","fhdBasis":"DocObsFish","fhdStNm":"Owyhee Reservoir","fhdGenus":"Ictalurus","fhdSp":"punctatus","fhdSubSp":null,"fhdOrig":"NonNative","fhdProd":"Natural","fhdComment":null,"fhdESH":"NA","fhdBasisD":null,"fhdNMF":"no","fhdBasisDt":"20170000","fhdBasisNm":null,"fhdBasisEnt":null,"fhdBasisPrj":null,"fhdBasisMethod":"Boat Electrofisher","fhdAccess":null,"fhdBarrierFtrID":null,"fhdEndExtent":null,"Shape__Area":85251208.81921154,"Shape__Length":319417.8155288524,"habitatType":"lake"},"id":32},
{"type":"Feature","geometry":{"type":"Polygon","coordinates":[[[-116.837628,44.968133],[-116.845592,44.96818],[-116.852068,44.964849],[-116.85394,44.961655],[-116.849957,44.95272],[-116.846719,44.950222],[-116.842704,44.944131],[-116.835297,44.936955],[-116.833737,44.932911],[-116.834506,44.929915],[-116.839642,44.924404],[-116.840047,44.920011],[-116.842946,44.916208],[-116.844918,44.908694],[-116.849151,44.903343],[-116.851011,44.899088],[-116.854194,44.887875],[-116.857748,44.88472],[-116.858653,44.882228],[-116.865413,44.874904],[-116.867851,44.870023],[-116.878221,44.866415],[-116.879752,44.8627],[-116.884872,44.858346],[-116.894041,44.855419],[-116.88932,44.854375],[-116.884102,44.856759],[-116.868336,44.868772],[-116.863507,44.87109],[-116.860666,44.877117],[-116.858651,44.877835],[-116.854778,44.882538],[-116.854888,44.884068],[-116.850518,44.889122],[-116.850508,44.893038],[-116.848156,44.896545],[-116.848414,44.899453],[-116.844108,44.904029],[-116.841191,44.909778],[-116.840341,44.914683],[-116.837675,44.916587],[-116.835831,44.923408],[-116.831661,44.927786],[-116.830743,44.934167],[-116.833429,44.938744],[-116.839868,44.947566],[-116.845472,44.951715],[-116.843983,44.953693],[-116.849386,44.957932],[-116.850139,44.96075],[-116.846948,44.96378],[-116.843091,44.964449],[-116.837628,44.968133]]]},"properties":{"OBJECTID":6,"fhdFtrID":9,"fhdRefID":53684,"fhdRevDt":"20190219","fhdONm":"Peter Robinson","fhdOEnt":"ODFW","fhdSpNm":"Ccat","fhdRun":"NA","fhdLifeHst":"Resident","fhdUseTy":"ResidentMultipleUses","fhdBasis":"UndocObsFish","fhdStNm":"Oxbow Reservoir","fhdGenus":"Ictalurus","fhdSp":"punctatus","fhdSubSp":null,"fhdOrig":"NonNative","fhdProd":"Natural","fhdComment":null,"fhdESH":"NA","fhdBasisD":null,"fhdNMF":"no","fhdBasisDt":null,"fhdBasisNm":null,"fhdBasisEnt":null,"fhdBasisPrj":null,"fhdBasisMethod":null,"fhdAccess":null,"fhdBarrierFtrID":null,"fhdEndExtent":null,"Shape__Area":8922295.49513655,"Shape__Length":57451.92246342264,"habitatType":"lake"},"id":33},
{"type":"Feature","geometry":{"type":"Polygon","coordinates":[[[-117.421056,44.03461],[-117.426967,44.036642],[-117.432636,44.035534],[-117.436158,44.032383],[-117.434584,44.028036],[-117.424778,44.029287],[-117.421605,44.03134],[-117.417202,44.027261],[-117.411703,44.025394],[-117.410397,44.020393],[-117.406921,44.019146],[-117.399335,44.012882],[-117.397958,44.013518],[-117.395254,44.019269],[-117.397747,44.021696],[-117.401025,44.021571],[-117.407306,44.025074],[-117.405213,44.026802],[-117.40735,44.029372],[-117.414933,44.031843],[-117.415952,44.034385],[-117.421056,44.03461]]]},"properties":{"OBJECTID":7,"fhdFtrID":10,"fhdRefID":53684,"fhdRevDt":"20190219","fhdONm":"Peter Robinson","fhdOEnt":"ODFW","fhdSpNm":"Ccat","fhdRun":"NA","fhdLifeHst":"Resident","fhdUseTy":"ResidentMultipleUses","fhdBasis":"UndocObsFish","fhdStNm":"Bully Creek Reservoir","fhdGenus":"Ictalurus","fhdSp":"punctatus","fhdSubSp":null,"fhdOrig":"NonNative","fhdProd":"Natural","fhdComment":null,"fhdESH":"NA","fhdBasisD":null,"fhdNMF":"no","fhdBasisDt":null,"fhdBasisNm":null,"fhdBasisEnt":null,"fhdBasisPrj":null,"fhdBasisMethod":null,"fhdAccess":null,"fhdBarrierFtrID":null,"fhdEndExtent":null,"Shape__Area":4786584.97927659,"Shape__Length":20134.498932298662,"habitatType":"lake"},"id":34},
{"type":"Feature","geometry":{"type":"Polygon","coordinates":[[[-117.048689,44.743379],[-117.052256,44.741807],[-117.05529,44.737856],[-117.054829,44.73548],[-117.057716,44.732347],[-117.062051,44.730887],[-117.064291,44.724175],[-117.063329,44.723199],[-117.064468,44.717277],[-117.066523,44.712492],[-117.066653,44.707322],[-117.070916,44.702202],[-117.076017,44.699924],[-117.081541,44.695796],[-117.083909,44.691965],[-117.084499,44.68578],[-117.081113,44.68048],[-117.082889,44.676588],[-117.090832,44.671988],[-117.098742,44.665527],[-117.10096,44.65826],[-117.101646,44.649852],[-117.111625,44.631244],[-117.117555,44.627504],[-117.122221,44.62107],[-117.124519,44.613962],[-117.124883,44.609401],[-117.127078,44.605483],[-117.126391,44.601608],[-117.131007,44.594098],[-117.129994,44.585832],[-117.13062,44.581321],[-117.133279,44.579095],[-117.14109,44.576815],[-117.148134,44.5728],[-117.151384,44.568966],[-117.150873,44.562237],[-117.146901,44.557538],[-117.146428,44.554097],[-117.148058,44.548829],[-117.153373,44.542942],[-117.157127,44.539958],[-117.158986,44.53621],[-117.163691,44.533258],[-117.166338,44.533275],[-117.17062,44.529972],[-117.177134,44.526845],[-117.183671,44.525062],[-117.191495,44.51903],[-117.196519,44.516023],[-117.199472,44.511511],[-117.199707,44.501353],[-117.204429,44.493732],[-117.21057,44.491096],[-117.210515,44.488961],[-117.215307,44.488582],[-117.224498,44.486477],[-117.229578,44.482293],[-117.230179,44.475801],[-117.225558,44.467191],[-117.221693,44.463044],[-117.217135,44.449939],[-117.218504,44.445526],[-117.217448,44.43359],[-117.21832,44.431685],[-117.217567,44.426499],[-117.22117,44.419067],[-117.226335,44.41412],[-117.22751,44.407611],[-117.236929,44.400714],[-117.241873,44.39945],[-117.244977,44.395222],[-117.245271,44.390978],[-117.23864,44.378601],[-117.237106,44.374244],[-117.228254,44.365444],[-117.221689,44.363109],[-117.217234,44.359405],[-117.213569,44.357897],[-117.206033,44.352459],[-117.203859,44.349551],[-117.198314,44.346429],[-117.19416,44.340409],[-117.191024,44.337599],[-117.192094,44.330821],[-117.197217,44.327116],[-117.201641,44.318076],[-117.205737,44.312829],[-117.220235,44.308226],[-117.228607,44.30099],[-117.224769,44.298357],[-117.22346,44.295196],[-117.218053,44.287662],[-117.21508,44.285369],[-117.209494,44.282999],[-117.206443,44.275909],[-117.201217,44.271343],[-117.19474,44.26861],[-117.192066,44.265175],[-117.181175,44.260312],[-117.174073,44.258215],[-117.158778,44.256324],[-117.153983,44.255154],[-117.149471,44.252809],[-117.14366,44.25279],[-117.14013,44.256104],[-117.132453,44.260316],[-117.134851,44.263548],[-117.140538,44.260638],[-117.145129,44.25941],[-117.156936,44.258552],[-117.164649,44.260585],[-117.168513,44.260091],[-117.173324,44.263023],[-117.183848,44.268199],[-117.19089,44.271069],[-117.203244,44.280113],[-117.205124,44.283494],[-117.209931,44.28582],[-117.214121,44.29403],[-117.216162,44.295571],[-117.214874,44.302328],[-117.209702,44.306813],[-117.205453,44.308614],[-117.199783,44.315629],[-117.198148,44.320815],[-117.195213,44.325349],[-117.190236,44.329526],[-117.18846,44.336607],[-117.191342,44.340069],[-117.194982,44.347797],[-117.2007,44.349874],[-117.202927,44.353311],[-117.20924,44.358853],[-117.215009,44.36114],[-117.217336,44.364098],[-117.226168,44.36915],[-117.230257,44.372825],[-117.233856,44.378033],[-117.23346,44.379388],[-117.240318,44.389336],[-117.241372,44.39529],[-117.230643,44.399866],[-117.224652,44.403864],[-117.22183,44.408946],[-117.222154,44.41258],[-117.219744,44.416543],[-117.214723,44.420232],[-117.212804,44.428366],[-117.2143,44.433157],[-117.211905,44.438316],[-117.212917,44.441797],[-117.211915,44.444342],[-117.213083,44.451899],[-117.212256,44.4546],[-117.214825,44.458084],[-117.218326,44.471222],[-117.221763,44.475979],[-117.220103,44.482242],[-117.21647,44.483927],[-117.209333,44.484423],[-117.201583,44.488507],[-117.195581,44.494309],[-117.190083,44.503329],[-117.18891,44.510919],[-117.186486,44.514503],[-117.179652,44.520018],[-117.161869,44.523643],[-117.156644,44.525463],[-117.150611,44.529106],[-117.148,44.533693],[-117.142954,44.539382],[-117.139426,44.546065],[-117.13681,44.554049],[-117.137068,44.556738],[-117.143156,44.566197],[-117.135168,44.57043],[-117.129048,44.571975],[-117.122937,44.576809],[-117.120294,44.582683],[-117.122497,44.589613],[-117.122648,44.594678],[-117.120318,44.5998],[-117.12161,44.601764],[-117.118474,44.607594],[-117.118086,44.611627],[-117.115464,44.617457],[-117.111442,44.623347],[-117.106818,44.626175],[-117.102526,44.631412],[-117.099693,44.637132],[-117.096513,44.640382],[-117.095564,44.647121],[-117.093083,44.651386],[-117.092855,44.657285],[-117.094273,44.663119],[-117.089106,44.665266],[-117.082925,44.670211],[-117.077335,44.67306],[-117.074337,44.682462],[-117.075092,44.688235],[-117.068084,44.697054],[-117.062129,44.702125],[-117.058796,44.70826],[-117.059843,44.713172],[-117.056309,44.719543],[-117.05523,44.72631],[-117.047461,44.732247],[-117.045442,44.740061],[-117.027541,44.749139],[-117.024045,44.748671],[-117.016304,44.750685],[-117.010409,44.754151],[-117.006266,44.753671],[-116.997003,44.75417],[-116.990728,44.755841],[-116.984316,44.761288],[-116.973036,44.768371],[-116.969762,44.769014],[-116.967806,44.771759],[-116.956597,44.772628],[-116.945858,44.777074],[-116.940934,44.778139],[-116.930547,44.784779],[-116.930046,44.787023],[-116.924828,44.791193],[-116.924511,44.793696],[-116.918437,44.79398],[-116.917874,44.795879],[-116.925913,44.797806],[-116.924323,44.80381],[-116.916689,44.811288],[-116.913582,44.811886],[-116.913179,44.816506],[-116.909815,44.82106],[-116.907115,44.822223],[-116.904976,44.827008],[-116.902592,44.829553],[-116.899835,44.835199],[-116.904676,44.838131],[-116.909639,44.832897],[-116.915232,44.828454],[-116.91558,44.825792],[-116.918466,44.821353],[-116.924204,44.814807],[-116.928438,44.811394],[-116.9321,44.810132],[-116.936286,44.805995],[-116.937543,44.80122],[-116.937459,44.79401],[-116.936041,44.792028],[-116.940263,44.788895],[-116.943948,44.783034],[-116.948147,44.781283],[-116.953194,44.78064],[-116.960158,44.777429],[-116.965205,44.777379],[-116.967324,44.779282],[-116.983051,44.768708],[-116.984637,44.76851],[-116.992936,44.761998],[-116.996024,44.760734],[-117.01608,44.760025],[-117.017276,44.758171],[-117.023093,44.755347],[-117.031281,44.753797],[-117.039147,44.749592],[-117.043398,44.749291],[-117.047981,44.74687],[-117.047809,44.753164],[-117.043934,44.754255],[-117.045096,44.75836],[-117.047536,44.761308],[-117.051442,44.762373],[-117.052388,44.764744],[-117.057696,44.765918],[-117.062048,44.770303],[-117.07184,44.77005],[-117.07372,44.773381],[-117.078574,44.773524],[-117.08124,44.775395],[-117.092381,44.775766],[-117.095955,44.773899],[-117.095745,44.770431],[-117.101915,44.767948],[-117.108456,44.769054],[-117.115643,44.768129],[-117.118029,44.765714],[-117.118664,44.76073],[-117.122768,44.759614],[-117.125538,44.756715],[-117.130482,44.755287],[-117.13915,44.755592],[-117.142693,44.757442],[-117.14528,44.756467],[-117.151661,44.756548],[-117.157217,44.7552],[-117.161389,44.751647],[-117.157344,44.749553],[-117.157061,44.746814],[-117.152333,44.744936],[-117.148159,44.746548],[-117.138247,44.747444],[-117.136482,44.749337],[-117.131815,44.749279],[-117.127372,44.754156],[-117.122289,44.758138],[-117.119016,44.759271],[-117.115657,44.757549],[-117.111968,44.758001],[-117.110676,44.760882],[-117.114861,44.763394],[-117.115479,44.765397],[-117.107939,44.767611],[-117.102931,44.766592],[-117.096199,44.768268],[-117.093811,44.769827],[-117.092457,44.773905],[-117.084483,44.774291],[-117.082094,44.772047],[-117.077587,44.771016],[-117.075483,44.767476],[-117.071192,44.766083],[-117.063797,44.767461],[-117.053853,44.761917],[-117.049925,44.757944],[-117.051444,44.751007],[-117.055049,44.749737],[-117.05299,44.744367],[-117.048689,44.743379],[-117.047889,44.743589],[-117.048689,44.743379]]]},"properties":{"OBJECTID":8,"fhdFtrID":11,"fhdRefID":53684,"fhdRevDt":"20190219","fhdONm":"Peter Robinson","fhdOEnt":"ODFW","fhdSpNm":"Ccat","fhdRun":"NA","fhdLifeHst":"Resident","fhdUseTy":"ResidentMultipleUses","fhdBasis":"UndocObsFish","fhdStNm":"Brownlee Reservoir","fhdGenus":"Ictalurus","fhdSp":"punctatus","fhdSubSp":null,"fhdOrig":"NonNative","fhdProd":"Natural","fhdComment":null,"fhdESH":"NA","fhdBasisD":null,"fhdNMF":"no","fhdBasisDt":null,"fhdBasisNm":null,"fhdBasisEnt":null,"fhdBasisPrj":null,"fhdBasisMethod":null,"fhdAccess":null,"fhdBarrierFtrID":null,"fhdEndExtent":null,"Shape__Area":110800209.23444748,"Shape__Length":373252.30665381806,"habitatType":"lake"},"id":35},
{"type":"Feature","geometry":{"type":"Polygon","coordinates":[[[-123.218844,44.666162],[-123.219744,44.666573],[-123.220152,44.666172],[-123.218844,44.666162]]]},"properties":{"OBJECTID":9,"fhdFtrID":12,"fhdRefID":53718,"fhdRevDt":"20190429","fhdONm":"Kevin Stertz","fhdOEnt":"ODFW","fhdSpNm":"Ccat","fhdRun":"NA","fhdLifeHst":"Resident","fhdUseTy":"ResidentMultipleUses","fhdBasis":"DocObsFish","fhdStNm":"Adair Pond","fhdGenus":"Ictalurus","fhdSp":"punctatus","fhdSubSp":null,"fhdOrig":"NonNative","fhdProd":"Natural","fhdComment":null,"fhdESH":"NA","fhdBasisD":null,"fhdNMF":"no","fhdBasisDt":null,"fhdBasisNm":null,"fhdBasisEnt":null,"fhdBasisPrj":null,"fhdBasisMethod":null,"fhdAccess":null,"fhdBarrierFtrID":null,"fhdEndExtent":null,"Shape__Area":6389.66913352,"Shape__Length":358.8373531182482,"habitatType":"lake"},"id":36},
{"type":"Feature","geometry":{"type":"Polygon","coordinates":[[[-123.058696,44.33215],[-123.060081,44.329229],[-123.058606,44.324531],[-123.058696,44.33215]]]},"properties":{"OBJECTID":10,"fhdFtrID":14,"fhdRefID":53718,"fhdRevDt":"20190429","fhdONm":"Kevin Stertz","fhdOEnt":"ODFW","fhdSpNm":"Ccat","fhdRun":"NA","fhdLifeHst":"Resident","fhdUseTy":"ResidentMultipleUses","fhdBasis":"DocObsFish","fhdStNm":"Bond Butte Pond ","fhdGenus":"Ictalurus","fhdSp":"punctatus","fhdSubSp":null,"fhdOrig":"NonNative","fhdProd":"Natural","fhdComment":null,"fhdESH":"NA","fhdBasisD":null,"fhdNMF":"no","fhdBasisDt":null,"fhdBasisNm":null,"fhdBasisEnt":null,"fhdBasisPrj":null,"fhdBasisMethod":null,"fhdAccess":null,"fhdBarrierFtrID":null,"fhdEndExtent":null,"Shape__Area":217061.21930719,"Shape__Length":3715.3723875804076,"habitatType":"lake"},"id":37},
{"type":"Feature","geometry":{"type":"Polygon","coordinates":[[[-122.930329,45.112592],[-122.930585,45.112268],[-122.927276,45.111856],[-122.927524,45.111198],[-122.928492,45.111225],[-122.928237,45.11066],[-122.927028,45.110622],[-122.926989,45.112125],[-122.92857,45.112235],[-122.930329,45.112592]]]},"properties":{"OBJECTID":11,"fhdFtrID":15,"fhdRefID":53718,"fhdRevDt":"20190429","fhdONm":"Kevin Stertz","fhdOEnt":"ODFW","fhdSpNm":"Ccat","fhdRun":"NA","fhdLifeHst":"Resident","fhdUseTy":"ResidentMultipleUses","fhdBasis":"DocObsFish","fhdStNm":"St. Louis Ponds","fhdGenus":"Ictalurus","fhdSp":"punctatus","fhdSubSp":null,"fhdOrig":"NonNative","fhdProd":"Natural","fhdComment":null,"fhdESH":"NA","fhdBasisD":null,"fhdNMF":"no","fhdBasisDt":null,"fhdBasisNm":null,"fhdBasisEnt":null,"fhdBasisPrj":null,"fhdBasisMethod":null,"fhdAccess":null,"fhdBarrierFtrID":null,"fhdEndExtent":null,"Shape__Area":53966.68542063,"Shape__Length":2372.88741990527,"habitatType":"lake"},"id":38},
{"type":"Feature","geometry":{"type":"Polygon","coordinates":[[[-122.935087,45.114419],[-122.936723,45.113398],[-122.934243,45.112976],[-122.935087,45.114419]]]},"properties":{"OBJECTID":12,"fhdFtrID":17,"fhdRefID":53718,"fhdRevDt":"20190429","fhdONm":"Kevin Stertz","fhdOEnt":"ODFW","fhdSpNm":"Ccat","fhdRun":"NA","fhdLifeHst":"Resident","fhdUseTy":"ResidentMultipleUses","fhdBasis":"DocObsFish","fhdStNm":"St. Louis Ponds","fhdGenus":"Ictalurus","fhdSp":"punctatus","fhdSubSp":null,"fhdOrig":"NonNative","fhdProd":"Mixed","fhdComment":null,"fhdESH":"NA","fhdBasisD":null,"fhdNMF":"no","fhdBasisDt":null,"fhdBasisNm":null,"fhdBasisEnt":null,"fhdBasisPrj":null,"fhdBasisMethod":null,"fhdAccess":null,"fhdBarrierFtrID":null,"fhdEndExtent":null,"Shape__Area":60810.708173765,"Shape__Length":2474.891465697579,"habitatType":"lake"},"id":39},
{"type":"Feature","geometry":{"type":"Polygon","coordinates":[[[-122.928871,45.116016],[-122.929329,45.114661],[-122.927934,45.114578],[-122.927655,45.115269],[-122.928871,45.116016]]]},"properties":{"OBJECTID":13,"fhdFtrID":18,"fhdRefID":53718,"fhdRevDt":"20190429","fhdONm":"Kevin Stertz","fhdOEnt":"ODFW","fhdSpNm":"Ccat","fhdRun":"NA","fhdLifeHst":"Resident","fhdUseTy":"ResidentMultipleUses","fhdBasis":"DocObsFish","fhdStNm":"St. Louis Ponds","fhdGenus":"Ictalurus","fhdSp":"punctatus","fhdSubSp":null,"fhdOrig":"NonNative","fhdProd":"Mixed","fhdComment":null,"fhdESH":"NA","fhdBasisD":null,"fhdNMF":"no","fhdBasisDt":null,"fhdBasisNm":null,"fhdBasisEnt":null,"fhdBasisPrj":null,"fhdBasisMethod":null,"fhdAccess":null,"fhdBarrierFtrID":null,"fhdEndExtent":null,"Shape__Area":60624.10886951,"Shape__Length":3110.8244700458577,"habitatType":"lake"},"id":40},
{"type":"Feature","geometry":{"type":"Polygon","coordinates":[[[-122.929384,45.109585],[-122.928121,45.10931],[-122.926997,45.11038],[-122.928593,45.110484],[-122.929384,45.109585]]]},"properties":{"OBJECTID":14,"fhdFtrID":19,"fhdRefID":53718,"fhdRevDt":"20190429","fhdONm":"Kevin Stertz","fhdOEnt":"ODFW","fhdSpNm":"Ccat","fhdRun":"NA","fhdLifeHst":"Resident","fhdUseTy":"ResidentMultipleUses","fhdBasis":"DocObsFish","fhdStNm":"St. Louis Ponds","fhdGenus":"Ictalurus","fhdSp":"punctatus","fhdSubSp":null,"fhdOrig":"NonNative","fhdProd":"Mixed","fhdComment":null,"fhdESH":"NA","fhdBasisD":null,"fhdNMF":"no","fhdBasisDt":null,"fhdBasisNm":null,"fhdBasisEnt":null,"fhdBasisPrj":null,"fhdBasisMethod":null,"fhdAccess":null,"fhdBarrierFtrID":null,"fhdEndExtent":null,"Shape__Area":73331.64783679,"Shape__Length":2990.852531977683,"habitatType":"lake"},"id":41},
{"type":"Feature","geometry":{"type":"Polygon","coordinates":[[[-122.929972,45.11533],[-122.931375,45.115428],[-122.932282,45.114677],[-122.930732,45.114507],[-122.929972,45.11533]]]},"properties":{"OBJECTID":15,"fhdFtrID":20,"fhdRefID":53718,"fhdRevDt":"20190429","fhdONm":"Kevin Stertz","fhdOEnt":"ODFW","fhdSpNm":"Ccat","fhdRun":"NA","fhdLifeHst":"Resident","fhdUseTy":"ResidentMultipleUses","fhdBasis":"DocObsFish","fhdStNm":"St. Louis Ponds","fhdGenus":"Ictalurus","fhdSp":"punctatus","fhdSubSp":null,"fhdOrig":"NonNative","fhdProd":"Mixed","fhdComment":null,"fhdESH":"NA","fhdBasisD":null,"fhdNMF":"no","fhdBasisDt":null,"fhdBasisNm":null,"fhdBasisEnt":null,"fhdBasisPrj":null,"fhdBasisMethod":null,"fhdAccess":null,"fhdBarrierFtrID":null,"fhdEndExtent":null,"Shape__Area":38138.000854575,"Shape__Length":2062.1122037876553,"habitatType":"lake"},"id":42},
{"type":"Feature","geometry":{"type":"Polygon","coordinates":[[[-122.927702,45.114205],[-122.929352,45.114353],[-122.929569,45.113722],[-122.927981,45.113459],[-122.92833,45.11246],[-122.927818,45.112657],[-122.927725,45.113579],[-122.929267,45.113826],[-122.929205,45.114128],[-122.927717,45.114013],[-122.927702,45.114205]]]},"properties":{"OBJECTID":16,"fhdFtrID":21,"fhdRefID":53718,"fhdRevDt":"20190429","fhdONm":"Kevin Stertz","fhdOEnt":"ODFW","fhdSpNm":"Ccat","fhdRun":"NA","fhdLifeHst":"Resident","fhdUseTy":"ResidentMultipleUses","fhdBasis":"DocObsFish","fhdStNm":"St. Louis Ponds","fhdGenus":"Ictalurus","fhdSp":"punctatus","fhdSubSp":null,"fhdOrig":"NonNative","fhdProd":"Mixed","fhdComment":null,"fhdESH":"NA","fhdBasisD":null,"fhdNMF":"no","fhdBasisDt":null,"fhdBasisNm":null,"fhdBasisEnt":null,"fhdBasisPrj":null,"fhdBasisMethod":null,"fhdAccess":null,"fhdBarrierFtrID":null,"fhdEndExtent":null,"Shape__Area":31641.299672535,"Shape__Length":2086.626714213839,"habitatType":"lake"},"id":43},
{"type":"Feature","geometry":{"type":"Polygon","coordinates":[[[-122.93222,45.116334],[-122.93556,45.115248],[-122.933561,45.114534],[-122.93222,45.116334]]]},"properties":{"OBJECTID":17,"fhdFtrID":22,"fhdRefID":53718,"fhdRevDt":"20190429","fhdONm":"Kevin Stertz","fhdOEnt":"ODFW","fhdSpNm":"Ccat","fhdRun":"NA","fhdLifeHst":"Resident","fhdUseTy":"ResidentMultipleUses","fhdBasis":"DocObsFish","fhdStNm":"St. Louis Ponds","fhdGenus":"Ictalurus","fhdSp":"punctatus","fhdSubSp":null,"fhdOrig":"NonNative","fhdProd":"Mixed","fhdComment":null,"fhdESH":"NA","fhdBasisD":null,"fhdNMF":"no","fhdBasisDt":null,"fhdBasisNm":null,"fhdBasisEnt":null,"fhdBasisPrj":null,"fhdBasisMethod":null,"fhdAccess":null,"fhdBarrierFtrID":null,"fhdEndExtent":null,"Shape__Area":61327.12517181,"Shape__Length":2579.672103173037,"habitatType":"lake"},"id":44},
{"type":"Feature","geometry":{"type":"Polygon","coordinates":[[[-121.138152,45.615937],[-121.144972,45.611067],[-121.150794,45.609289],[-121.162177,45.609018],[-121.168532,45.608042],[-121.176971,45.607813],[-121.182807,45.608995],[-121.191299,45.613394],[-121.19477,45.617235],[-121.194457,45.622637],[-121.191632,45.630598],[-121.195583,45.639044],[-121.194988,45.646689],[-121.199322,45.658906],[-121.202234,45.660951],[-121.209504,45.670555],[-121.216637,45.674044],[-121.229153,45.676226],[-121.234542,45.676104],[-121.244514,45.679331],[-121.249754,45.682023],[-121.262211,45.684605],[-121.265428,45.68579],[-121.275422,45.687232],[-121.279743,45.689007],[-121.28657,45.688056],[-121.290777,45.691148],[-121.290513,45.695174],[-121.294776,45.697653],[-121.315749,45.704656],[-121.324965,45.704965],[-121.329229,45.706441],[-121.334594,45.705366],[-121.338362,45.70854],[-121.347648,45.709875],[-121.356833,45.707228],[-121.361175,45.706777],[-121.374526,45.707113],[-121.382209,45.704698],[-121.385795,45.702089],[-121.395927,45.697019],[-121.415504,45.698999],[-121.424186,45.69882],[-121.433936,45.702555],[-121.450965,45.704725],[-121.459403,45.705084],[-121.466582,45.708445],[-121.468703,45.708315],[-121.479254,45.713835],[-121.474478,45.714868],[-121.486495,45.721506],[-121.497237,45.723676],[-121.497741,45.724867],[-121.508704,45.726789],[-121.518164,45.727243],[-121.525122,45.728861],[-121.530829,45.729219],[-121.541038,45.728399],[-121.548346,45.72722],[-121.556548,45.723383],[-121.564986,45.722608],[-121.582602,45.72024],[-121.602042,45.7204],[-121.609931,45.71726],[-121.616683,45.715864],[-121.623733,45.710298],[-121.635253,45.709688],[-121.649115,45.711318],[-121.654906,45.71113],[-121.659598,45.7083],[-121.66664,45.708353],[-121.670936,45.709669],[-121.677253,45.70928],[-121.68505,45.704958],[-121.688781,45.704313],[-121.70378,45.699148],[-121.716735,45.698324],[-121.723045,45.699324],[-121.732619,45.69708],[-121.739097,45.697256],[-121.742156,45.700865],[-121.746284,45.702246],[-121.754257,45.701872],[-121.758491,45.70273],[-121.76609,45.707247],[-121.771125,45.708258],[-121.780417,45.708067],[-121.789893,45.710573],[-121.788566,45.714445],[-121.794959,45.716284],[-121.801291,45.714224],[-121.809691,45.715986],[-121.817161,45.715284],[-121.818221,45.713392],[-121.827308,45.712721],[-121.833175,45.71129],[-121.837935,45.708204],[-121.843673,45.70577],[-121.852187,45.704206],[-121.86241,45.699506],[-121.873061,45.698614],[-121.877319,45.695772],[-121.878059,45.693216],[-121.886519,45.690126],[-121.891395,45.690119],[-121.897513,45.691656],[-121.898391,45.680654],[-121.904654,45.677503],[-121.907515,45.678289],[-121.909263,45.673311],[-121.907821,45.670088],[-121.904067,45.666567],[-121.902778,45.663584],[-121.906066,45.659136],[-121.910545,45.655019],[-121.920433,45.651815],[-121.930526,45.647554],[-121.936095,45.649149],[-121.940671,45.64577],[-121.94079,45.637857],[-121.931853,45.640455],[-121.931739,45.642488],[-121.906524,45.654131],[-121.900634,45.65933],[-121.896361,45.66836],[-121.887695,45.67502],[-121.876206,45.679868],[-121.864486,45.683329],[-121.859161,45.68371],[-121.858314,45.685953],[-121.854407,45.68749],[-121.850234,45.687219],[-121.847816,45.683695],[-121.844863,45.683863],[-121.842559,45.68767],[-121.844642,45.690591],[-121.838203,45.691809],[-121.830947,45.697],[-121.810432,45.698335],[-121.796698,45.696756],[-121.792152,45.69438],[-121.783477,45.692865],[-121.780105,45.691271],[-121.775946,45.693777],[-121.768645,45.694204],[-121.760246,45.691458],[-121.754371,45.691206],[-121.750815,45.692575],[-121.739547,45.692797],[-121.73268,45.691362],[-121.717795,45.690786],[-121.698928,45.688372],[-121.6949,45.688272],[-121.689788,45.690069],[-121.686476,45.693369],[-121.672256,45.697538],[-121.668143,45.700453],[-121.664321,45.699514],[-121.650489,45.69953],[-121.640922,45.700457],[-121.63005,45.700281],[-121.619933,45.704477],[-121.602584,45.705549],[-121.593406,45.707495],[-121.582305,45.70775],[-121.576613,45.710699],[-121.572036,45.711847],[-121.570342,45.710062],[-121.563117,45.710131],[-121.560439,45.711901],[-121.542311,45.714724],[-121.530212,45.715048],[-121.523307,45.713564],[-121.522216,45.716036],[-121.509559,45.716459],[-121.503242,45.711771],[-121.500991,45.713907],[-121.497268,45.711184],[-121.484626,45.707342],[-121.480933,45.705469],[-121.474036,45.705263],[-121.473647,45.702879],[-121.467788,45.699434],[-121.457061,45.696344],[-121.446235,45.695547],[-121.436629,45.689382],[-121.424208,45.686815],[-121.419265,45.686758],[-121.411727,45.688147],[-121.39849,45.686254],[-121.392363,45.687368],[-121.382392,45.694605],[-121.377555,45.697466],[-121.365866,45.701132],[-121.351028,45.69832],[-121.343833,45.699446],[-121.337516,45.69745],[-121.327163,45.697218],[-121.312278,45.695768],[-121.306548,45.694349],[-121.298925,45.688042],[-121.295594,45.686264],[-121.291346,45.686425],[-121.286155,45.685087],[-121.288601,45.680281],[-121.286187,45.677716],[-121.282207,45.679204],[-121.272874,45.678253],[-121.26339,45.676174],[-121.259798,45.674373],[-121.258992,45.671958],[-121.250431,45.669856],[-121.233757,45.668631],[-121.225294,45.66746],[-121.218055,45.665439],[-121.212205,45.65749],[-121.205539,45.651787],[-121.203694,45.647995],[-121.204329,45.644981],[-121.199028,45.637453],[-121.200436,45.634406],[-121.198823,45.63285],[-121.196525,45.626558],[-121.197997,45.623133],[-121.198203,45.616659],[-121.193991,45.611105],[-121.18534,45.605451],[-121.172851,45.600561],[-121.162932,45.601019],[-121.147933,45.602709],[-121.148002,45.604177],[-121.140922,45.606436],[-121.133711,45.606848],[-121.128523,45.609823],[-121.124518,45.613779],[-121.118056,45.616758],[-121.12094,45.619402],[-121.130378,45.61183],[-121.137931,45.615765],[-121.138152,45.615937]],[[-121.531798,45.719252],[-121.535613,45.716173],[-121.540892,45.718492],[-121.531798,45.719252]]]},"properties":{"OBJECTID":18,"fhdFtrID":23,"fhdRefID":53713,"fhdRevDt":"20190401","fhdONm":"Matthew Neilson","fhdOEnt":"USGS","fhdSpNm":"Ccat","fhdRun":"NA","fhdLifeHst":"FluvRes","fhdUseTy":"ResidentMultipleUses","fhdBasis":"UndocObsFish","fhdStNm":"Lake Bonneville","fhdGenus":"Ictalurus","fhdSp":"punctatus","fhdSubSp":null,"fhdOrig":"NonNative","fhdProd":"Natural","fhdComment":null,"fhdESH":"NA","fhdBasisD":null,"fhdNMF":"no","fhdBasisDt":null,"fhdBasisNm":null,"fhdBasisEnt":null,"fhdBasisPrj":null,"fhdBasisMethod":null,"fhdAccess":null,"fhdBarrierFtrID":null,"fhdEndExtent":null,"Shape__Area":160841417.4204375,"Shape__Length":330687.4749364082,"habitatType":"lake"},"id":45},
{"type":"Feature","geometry":{"type":"Polygon","coordinates":[[[-121.137931,45.615765],[-121.131225,45.612616],[-121.121306,45.619966],[-121.110541,45.623373],[-121.095206,45.636641],[-121.068747,45.647665],[-121.05255,45.649237],[-121.038141,45.648676],[-121.036582,45.648027],[-121.00122,45.647215],[-120.990119,45.647245],[-120.985228,45.645071],[-120.976432,45.644941],[-120.969131,45.645872],[-120.96379,45.649927],[-120.959258,45.651754],[-120.949835,45.65418],[-120.94078,45.652964],[-120.922827,45.637739],[-120.915476,45.635556],[-120.903609,45.63701],[-120.898429,45.638178],[-120.891807,45.641142],[-120.874602,45.65309],[-120.863684,45.659765],[-120.850951,45.666517],[-120.839545,45.670381],[-120.834037,45.67285],[-120.819945,45.676489],[-120.803489,45.678793],[-120.78118,45.684778],[-120.780949,45.686113],[-120.771628,45.687536],[-120.758513,45.691645],[-120.754989,45.694277],[-120.748855,45.693678],[-120.73532,45.698873],[-120.72515,45.703379],[-120.707312,45.706587],[-120.696746,45.710543],[-120.68921,45.712017],[-120.696214,45.718853],[-120.70066,45.718038],[-120.709724,45.713602],[-120.72515,45.709528],[-120.735556,45.705774],[-120.745345,45.70381],[-120.758017,45.699324],[-120.766791,45.698046],[-120.773971,45.694414],[-120.790671,45.689211],[-120.79608,45.689173],[-120.810401,45.686109],[-120.822562,45.682012],[-120.837165,45.678903],[-120.84085,45.680162],[-120.857634,45.675653],[-120.864287,45.670442],[-120.865912,45.666693],[-120.87406,45.668562],[-120.87715,45.667963],[-120.88468,45.663378],[-120.894919,45.663332],[-120.907111,45.657301],[-120.912917,45.656462],[-120.92781,45.656645],[-120.932372,45.658861],[-120.949317,45.660803],[-120.95613,45.659342],[-120.967017,45.655954],[-120.978942,45.652979],[-120.986175,45.652685],[-120.998831,45.657865],[-121.00611,45.659101],[-121.015525,45.657915],[-121.032538,45.66181],[-121.039672,45.662191],[-121.045409,45.661463],[-121.057273,45.657534],[-121.069304,45.656992],[-121.073829,45.656141],[-121.089934,45.651701],[-121.095145,45.646173],[-121.103286,45.64007],[-121.108459,45.633829],[-121.115951,45.62982],[-121.12445,45.623937],[-121.136077,45.618082],[-121.138152,45.615937],[-121.137931,45.615765]],[[-120.903564,45.656462],[-120.897887,45.658148],[-120.891952,45.662306],[-120.88703,45.6584],[-120.8842,45.658418],[-120.881163,45.660971],[-120.87889,45.658663],[-120.883025,45.656885],[-120.891929,45.648779],[-120.898223,45.645761],[-120.908164,45.643251],[-120.914061,45.642927],[-120.919273,45.644579],[-120.923545,45.647249],[-120.924354,45.650362],[-120.927123,45.65349],[-120.907607,45.653925],[-120.903564,45.656462]],[[-121.035605,45.654833],[-121.036979,45.652712],[-121.044959,45.654154],[-121.043624,45.655844],[-121.038795,45.656481],[-121.035605,45.654833]]]},"properties":{"OBJECTID":19,"fhdFtrID":24,"fhdRefID":53713,"fhdRevDt":"20190401","fhdONm":"Matthew Neilson","fhdOEnt":"USGS","fhdSpNm":"Ccat","fhdRun":"NA","fhdLifeHst":"FluvRes","fhdUseTy":"ResidentMultipleUses","fhdBasis":"UndocObsFish","fhdStNm":"Lake Celilo","fhdGenus":"Ictalurus","fhdSp":"punctatus","fhdSubSp":null,"fhdOrig":"NonNative","fhdProd":"Natural","fhdComment":null,"fhdESH":"NA","fhdBasisD":null,"fhdNMF":"no","fhdBasisDt":null,"fhdBasisNm":null,"fhdBasisEnt":null,"fhdBasisPrj":null,"fhdBasisMethod":null,"fhdAccess":null,"fhdBarrierFtrID":null,"fhdEndExtent":null,"Shape__Area":72483324.08042818,"Shape__Length":145339.02629757716,"habitatType":"lake"},"id":46},
{"type":"Feature","geometry":{"type":"Polygon","coordinates":[[[-119.310812,45.939106],[-119.31567,45.940203],[-119.321125,45.939297],[-119.327342,45.934783],[-119.332113,45.934799],[-119.337913,45.933141],[-119.348194,45.932595],[-119.35022,45.929485],[-119.361809,45.925937],[-119.370998,45.927491],[-119.361507,45.930358],[-119.364597,45.931547],[-119.367668,45.929511],[-119.380575,45.926857],[-119.389874,45.924448],[-119.394778,45.924175],[-119.409294,45.922156],[-119.417144,45.923254],[-119.434621,45.922532],[-119.448412,45.921166],[-119.472565,45.915891],[-119.484655,45.913528],[-119.488566,45.911075],[-119.500947,45.910696],[-119.506751,45.911935],[-119.520625,45.913488],[-119.523501,45.91265],[-119.535787,45.9159],[-119.540453,45.918923],[-119.558258,45.924623],[-119.551248,45.926212],[-119.546785,45.925872],[-119.540877,45.921259],[-119.538973,45.925668],[-119.532351,45.920802],[-119.528077,45.920422],[-119.528036,45.923384],[-119.535484,45.927022],[-119.537753,45.929929],[-119.528112,45.927217],[-119.533735,45.93431],[-119.546595,45.930714],[-119.550759,45.934378],[-119.554988,45.93457],[-119.556394,45.938881],[-119.562211,45.9374],[-119.57856,45.936719],[-119.589389,45.933629],[-119.599299,45.932661],[-119.606041,45.930855],[-119.609858,45.928396],[-119.614235,45.927769],[-119.62231,45.924634],[-119.627345,45.923747],[-119.630728,45.920261],[-119.637093,45.919452],[-119.644174,45.917289],[-119.645134,45.914958],[-119.65179,45.913019],[-119.658524,45.909808],[-119.658431,45.908453],[-119.672093,45.904047],[-119.678306,45.902655],[-119.685784,45.897747],[-119.696322,45.885276],[-119.706647,45.881974],[-119.715423,45.877267],[-119.745492,45.857516],[-119.751654,45.854215],[-119.759849,45.852371],[-119.770074,45.853488],[-119.774232,45.8552],[-119.772972,45.861698],[-119.778766,45.859089],[-119.781645,45.862161],[-119.784525,45.863028],[-119.792287,45.862513],[-119.798833,45.864395],[-119.812655,45.864982],[-119.818213,45.866287],[-119.827843,45.865106],[-119.833834,45.869273],[-119.842853,45.868519],[-119.849421,45.865929],[-119.856434,45.860991],[-119.861435,45.854759],[-119.862999,45.849818],[-119.865498,45.84572],[-119.870877,45.842389],[-119.879516,45.840296],[-119.885644,45.839625],[-119.889011,45.838283],[-119.894149,45.838142],[-119.904255,45.835447],[-119.916948,45.833892],[-119.923404,45.833871],[-119.928879,45.835429],[-119.936865,45.834579],[-119.941007,45.833345],[-119.948349,45.832752],[-119.959549,45.829844],[-119.9654,45.829947],[-119.976897,45.827706],[-119.991158,45.821542],[-120.005016,45.81792],[-120.014092,45.814119],[-120.020021,45.813134],[-120.022156,45.810761],[-120.029143,45.808954],[-120.032632,45.808977],[-120.044717,45.804176],[-120.049931,45.801584],[-120.064121,45.796995],[-120.06862,45.793711],[-120.073308,45.792729],[-120.091271,45.787626],[-120.101805,45.786889],[-120.11247,45.783907],[-120.121012,45.783848],[-120.130784,45.782008],[-120.134366,45.782114],[-120.143529,45.780654],[-120.150497,45.778803],[-120.15999,45.773717],[-120.167663,45.771339],[-120.17604,45.767266],[-120.177138,45.765654],[-120.185372,45.762166],[-120.185796,45.75795],[-120.190543,45.75319],[-120.197092,45.748359],[-120.200523,45.748545],[-120.204618,45.743248],[-120.209771,45.739979],[-120.214398,45.735827],[-120.220692,45.731526],[-120.224968,45.732249],[-120.230533,45.728946],[-120.242339,45.727143],[-120.252768,45.726879],[-120.263599,45.72542],[-120.272595,45.725424],[-120.277433,45.726254],[-120.290267,45.724426],[-120.309772,45.718577],[-120.314594,45.718912],[-120.32604,45.715314],[-120.340921,45.712696],[-120.341868,45.713568],[-120.349759,45.712798],[-120.364136,45.709684],[-120.374509,45.710118],[-120.384898,45.708122],[-120.38908,45.706309],[-120.39567,45.706937],[-120.40861,45.705175],[-120.41697,45.705331],[-120.432601,45.704182],[-120.46769,45.702309],[-120.476495,45.701462],[-120.48682,45.702911],[-120.494258,45.705085],[-120.503311,45.705766],[-120.524441,45.723282],[-120.535021,45.733629],[-120.54625,45.739357],[-120.555664,45.741821],[-120.564562,45.745353],[-120.58493,45.74969],[-120.59614,45.751297],[-120.607712,45.752072],[-120.622433,45.751807],[-120.639898,45.748277],[-120.649208,45.745363],[-120.658696,45.741615],[-120.67536,45.733501],[-120.679041,45.732202],[-120.685746,45.726822],[-120.692293,45.725187],[-120.699364,45.721606],[-120.696466,45.719302],[-120.688167,45.711059],[-120.682295,45.714174],[-120.672772,45.720678],[-120.658837,45.728501],[-120.646759,45.731711],[-120.64823,45.733763],[-120.641325,45.738307],[-120.633718,45.740415],[-120.627411,45.741053],[-120.616839,45.740807],[-120.607189,45.741612],[-120.594061,45.740584],[-120.57263,45.735799],[-120.56526,45.733063],[-120.557358,45.728938],[-120.551298,45.724714],[-120.540184,45.713508],[-120.532618,45.707237],[-120.523721,45.701678],[-120.510015,45.694587],[-120.501175,45.691642],[-120.484703,45.687858],[-120.463122,45.688698],[-120.441923,45.691102],[-120.419425,45.692016],[-120.408171,45.69317],[-120.388396,45.693251],[-120.36757,45.697699],[-120.353189,45.703529],[-120.341653,45.704141],[-120.334405,45.705097],[-120.32052,45.708229],[-120.303056,45.711404],[-120.283468,45.716582],[-120.2765,45.716711],[-120.266293,45.715726],[-120.251167,45.715946],[-120.245835,45.715187],[-120.241728,45.71736],[-120.234338,45.718356],[-120.217069,45.71966],[-120.209115,45.720791],[-120.209523,45.722853],[-120.202892,45.723232],[-120.199353,45.725607],[-120.187389,45.736339],[-120.179172,45.744755],[-120.169769,45.751823],[-120.169267,45.753715],[-120.163313,45.755929],[-120.156098,45.757188],[-120.146397,45.760848],[-120.142368,45.763501],[-120.137446,45.764996],[-120.137256,45.7668],[-120.121922,45.769191],[-120.105352,45.77121],[-120.103002,45.772401],[-120.09034,45.773222],[-120.079605,45.774743],[-120.060642,45.779618],[-120.049473,45.786175],[-120.045985,45.787069],[-120.034853,45.792599],[-120.028298,45.794708],[-120.024379,45.794789],[-120.012842,45.800975],[-120.004122,45.803784],[-119.99898,45.803981],[-119.98967,45.807495],[-119.97069,45.810852],[-119.968472,45.812059],[-119.958012,45.813427],[-119.953945,45.81912],[-119.937413,45.819719],[-119.928513,45.817887],[-119.915157,45.81969],[-119.9098,45.821274],[-119.907777,45.820571],[-119.895878,45.822394],[-119.890787,45.824487],[-119.886622,45.824732],[-119.884212,45.82654],[-119.871247,45.829634],[-119.861274,45.83379],[-119.853814,45.834704],[-119.849242,45.836109],[-119.831631,45.837874],[-119.823362,45.839614],[-119.799983,45.838255],[-119.788961,45.836658],[-119.784238,45.83715],[-119.779563,45.835433],[-119.771216,45.834789],[-119.75875,45.835453],[-119.753878,45.834908],[-119.727221,45.836521],[-119.717267,45.839184],[-119.717747,45.841548],[-119.710169,45.843798],[-119.707604,45.845959],[-119.701515,45.847847],[-119.691802,45.852827],[-119.680085,45.852619],[-119.673767,45.853414],[-119.67026,45.851187],[-119.665826,45.8518],[-119.66555,45.85497],[-119.652415,45.865601],[-119.647286,45.870842],[-119.629384,45.874858],[-119.619331,45.878411],[-119.614686,45.881616],[-119.607856,45.882825],[-119.608148,45.884624],[-119.613048,45.885367],[-119.612808,45.889261],[-119.605569,45.890487],[-119.606098,45.894068],[-119.60482,45.897885],[-119.602261,45.89935],[-119.598816,45.904457],[-119.599769,45.907429],[-119.596127,45.913551],[-119.590598,45.916064],[-119.586726,45.919311],[-119.576928,45.920772],[-119.568819,45.92001],[-119.559146,45.916698],[-119.536357,45.906796],[-119.512118,45.902214],[-119.49169,45.900758],[-119.483569,45.901907],[-119.474009,45.90173],[-119.468063,45.902971],[-119.456282,45.908551],[-119.445268,45.912221],[-119.433341,45.913483],[-119.420809,45.912281],[-119.414257,45.910788],[-119.408285,45.9123],[-119.396161,45.913333],[-119.387344,45.915375],[-119.384916,45.915073],[-119.369093,45.916791],[-119.364222,45.918154],[-119.352876,45.919113],[-119.350559,45.920819],[-119.341979,45.922708],[-119.336203,45.923258],[-119.326923,45.926002],[-119.328723,45.928196],[-119.323725,45.929535],[-119.314938,45.930385],[-119.313201,45.931959],[-119.303061,45.933248],[-119.297701,45.932271],[-119.299515,45.939824],[-119.310812,45.939106]],[[-119.804414,45.854662],[-119.808856,45.851339],[-119.813321,45.850269],[-119.816232,45.851306],[-119.834616,45.847267],[-119.85776,45.843223],[-119.855555,45.852519],[-119.848074,45.860396],[-119.841751,45.864171],[-119.837905,45.864495],[-119.829899,45.863455],[-119.813408,45.858056],[-119.807051,45.856883],[-119.804414,45.854662]],[[-119.614845,45.916916],[-119.617088,45.913131],[-119.622374,45.911708],[-119.621843,45.914735],[-119.614845,45.916916]],[[-119.611049,45.906866],[-119.613758,45.905269],[-119.616462,45.899432],[-119.620335,45.900445],[-119.615508,45.904336],[-119.611049,45.906866]]]},"properties":{"OBJECTID":20,"fhdFtrID":25,"fhdRefID":53713,"fhdRevDt":"20190401","fhdONm":"Matthew Neilson","fhdOEnt":"USGS","fhdSpNm":"Ccat","fhdRun":"NA","fhdLifeHst":"FluvRes","fhdUseTy":"ResidentMultipleUses","fhdBasis":"UndocObsFish","fhdStNm":"Lake Umatilla","fhdGenus":"Ictalurus","fhdSp":"punctatus","fhdSubSp":null,"fhdOrig":"NonNative","fhdProd":"Natural","fhdComment":null,"fhdESH":"NA","fhdBasisD":null,"fhdNMF":"no","fhdBasisDt":null,"fhdBasisNm":null,"fhdBasisEnt":null,"fhdBasisPrj":null,"fhdBasisMethod":null,"fhdAccess":null,"fhdBarrierFtrID":null,"fhdEndExtent":null,"Shape__Area":416891569.81139374,"Shape__Length":553547.0915356288,"habitatType":"lake"},"id":47},
{"type":"Feature","geometry":{"type":"Polygon","coordinates":[[[-122.782134,45.266371],[-122.784084,45.266563],[-122.784494,45.264534],[-122.783151,45.264808],[-122.782134,45.266371]]]},"properties":{"OBJECTID":21,"fhdFtrID":27,"fhdRefID":53718,"fhdRevDt":"20190409","fhdONm":"Kevin Stertz","fhdOEnt":"ODFW","fhdSpNm":"Ccat","fhdRun":"NA","fhdLifeHst":"Resident","fhdUseTy":"ResidentMultipleUses","fhdBasis":"DocObsFish","fhdStNm":"Wilsonville Pond","fhdGenus":"Ictalurus","fhdSp":"punctatus","fhdSubSp":null,"fhdOrig":"NonNative","fhdProd":"Natural","fhdComment":null,"fhdESH":"NA","fhdBasisD":null,"fhdNMF":"no","fhdBasisDt":"20190000","fhdBasisNm":null,"fhdBasisEnt":null,"fhdBasisPrj":null,"fhdBasisMethod":"Electrofisher","fhdAccess":null,"fhdBarrierFtrID":null,"fhdEndExtent":null,"Shape__Area":56311.84361882,"Shape__Length":1172.9189183346864,"habitatType":"lake"},"id":48},
{"type":"Feature","geometry":{"type":"Polygon","coordinates":[[[-122.851083,45.175188],[-122.853621,45.176005],[-122.855583,45.174594],[-122.853565,45.173535],[-122.851083,45.175188]]]},"properties":{"OBJECTID":22,"fhdFtrID":28,"fhdRefID":53718,"fhdRevDt":"20190409","fhdONm":"Kevin Stertz","fhdOEnt":"ODFW","fhdSpNm":"Ccat","fhdRun":"NA","fhdLifeHst":"Resident","fhdUseTy":"ResidentMultipleUses","fhdBasis":"DocObsFish","fhdStNm":"Woodburn Pond","fhdGenus":"Ictalurus","fhdSp":"punctatus","fhdSubSp":null,"fhdOrig":"NonNative","fhdProd":"Natural","fhdComment":null,"fhdESH":"NA","fhdBasisD":null,"fhdNMF":"no","fhdBasisDt":"20190000","fhdBasisNm":null,"fhdBasisEnt":null,"fhdBasisPrj":null,"fhdBasisMethod":"Electrofisher","fhdAccess":null,"fhdBarrierFtrID":null,"fhdEndExtent":null,"Shape__Area":113653.00350464,"Shape__Length":1546.607154605551,"habitatType":"lake"},"id":49},
{"type":"Feature","geometry":{"type":"Polygon","coordinates":[[[-122.605405,42.16171],[-122.613366,42.159],[-122.617417,42.159245],[-122.61441,42.154788],[-122.616916,42.151883],[-122.621113,42.150289],[-122.619678,42.145996],[-122.620863,42.143212],[-122.624228,42.144034],[-122.619374,42.136019],[-122.613857,42.137105],[-122.612814,42.133471],[-122.609694,42.133521],[-122.608619,42.136146],[-122.613116,42.141118],[-122.613067,42.14551],[-122.611416,42.146878],[-122.611943,42.150858],[-122.609791,42.154027],[-122.603305,42.154705],[-122.597096,42.147455],[-122.595065,42.142607],[-122.588682,42.139342],[-122.581266,42.141304],[-122.58993,42.142795],[-122.598066,42.154438],[-122.603913,42.158405],[-122.605405,42.16171]]]},"properties":{"OBJECTID":23,"fhdFtrID":29,"fhdRefID":53718,"fhdRevDt":"20190429","fhdONm":"Kevin Stertz","fhdOEnt":"ODFW","fhdSpNm":"Ccat","fhdRun":"NA","fhdLifeHst":"Resident","fhdUseTy":"ResidentMultipleUses","fhdBasis":"DocObsFish","fhdStNm":"Emigrant Reservoir","fhdGenus":"Ictalurus","fhdSp":"punctatus","fhdSubSp":null,"fhdOrig":"NonNative","fhdProd":"Natural","fhdComment":null,"fhdESH":"NA","fhdBasisD":null,"fhdNMF":"no","fhdBasisDt":"20190000","fhdBasisNm":null,"fhdBasisEnt":null,"fhdBasisPrj":null,"fhdBasisMethod":"Electrofisher","fhdAccess":null,"fhdBarrierFtrID":null,"fhdEndExtent":null,"Shape__Area":5746351.01259549,"Shape__Length":28754.584222983765,"habitatType":"lake"},"id":50}
]}
