{"type":"FeatureCollection","features":[
{"type":"Feature","geometry":{"type":"LineString","coordinates":[[-124.083015,46.250005],[-124.01926,46.255344],[-123.912143,46.189931],[-123.827056,46.195399],[-123.649194,46.259503],[-123.514469,46.267411],[-123.469573,46.217156],[-123.390127,46.150622],[-123.239275,46.137601],[-123.242439,46.16203],[-123.166871,46.189428],[-123.120139,46.18676],[-123.005041,46.13509],[-122.884718,46.064014],[-122.872774,46.005598],[-122.806207,45.94832],[-122.808186,45.901922],[-122.784647,45.868495],[-122.795149,45.810339],[-122.759695,45.734233],[-122.776235,45.688644],[-122.747638,45.646683],[-122.639221,45.60954],[-122.589854,45.602485],[-122.528619,45.569981],[-122.399111,45.572044]]},"properties":{"OBJECTID":1,"fhdFtrID":33012,"fhdRefID":53488,"fhdRevDt":"20121126","fhdONm":"Todd Alsbury","fhdOEnt":"ODFW","fhdSpNm":"Eulachon","fhdRun":"NA","fhdLifeHst":"Anadromous","fhdUseTy":"Rearing","fhdBasis":"DocObsFish","fhdStNm":"Columbia River","fhdGenus":"Thaleichthys","fhdSp":"pacificus","fhdSubSp":null,"fhdOrig":"NativeLocal","fhdProd":"Natural","fhdComment":"some mainstem possible, but not documented according to Todd Alsbury, ODFW District Fish Biologist","fhdESH":"NA","fhdBasisD":null,"fhdNMF":"yes","fhdBasisDt":null,"fhdBasisNm":null,"fhdBasisEnt":null,"fhdBasisPrj":null,"fhdBasisMethod":null,"Shape__Length":282884.20599280956,"fhdAccess":null,"fhdBarrierFtrID":null,"fhdEndExtent":null,"habitatType":"stream"},"id":1},
{"type":"Feature","geometry":{"type":"LineString","coordinates":[[-121.95733,45.639315],[-122.111359,45.583966],[-122.258121,45.548217],[-122.308185,45.544421],[-122.394571,45.571472],[-122.399111,45.572044]]},"properties":{"OBJECTID":2,"fhdFtrID":33013,"fhdRefID":53488,"fhdRevDt":"20121126","fhdONm":"Todd Alsbury","fhdOEnt":"ODFW","fhdSpNm":"Eulachon","fhdRun":"NA","fhdLifeHst":"Anadromous","fhdUseTy":"Historical","fhdBasis":"DocObsFish","fhdStNm":"Columbia River","fhdGenus":"Thaleichthys","fhdSp":"pacificus","fhdSubSp":null,"fhdOrig":"NativeLocal","fhdProd":"None","fhdComment":"occasional fish observed at Bonneville Dam","fhdESH":"NA","fhdBasisD":null,"fhdNMF":"yes","fhdBasisDt":null,"fhdBasisNm":null,"fhdBasisEnt":null,"fhdBasisPrj":null,"fhdBasisMethod":null,"Shape__Length":54669.282379899574,"fhdAccess":null,"fhdBarrierFtrID":null,"fhdEndExtent":null,"habitatType":"stream"},"id":2},
{"type":"Feature","geometry":{"type":"LineString","coordinates":[[-122.394571,45.571472],[-122.394881,45.563908]]},"properties":{"OBJECTID":3,"fhdFtrID":33014,"fhdRefID":53488,"fhdRevDt":"20121126","fhdONm":"Todd Alsbury","fhdOEnt":"ODFW","fhdSpNm":"Eulachon","fhdRun":"NA","fhdLifeHst":"Anadromous","fhdUseTy":"Rearing","fhdBasis":"DocObsFish","fhdStNm":"Sandy River","fhdGenus":"Thaleichthys","fhdSp":"pacificus","fhdSubSp":null,"fhdOrig":"NativeLocal","fhdProd":"Natural","fhdComment":"falls within Columbia mainstem","fhdESH":"NA","fhdBasisD":null,"fhdNMF":"yes","fhdBasisDt":null,"fhdBasisNm":null,"fhdBasisEnt":null,"fhdBasisPrj":null,"fhdBasisMethod":null,"Shape__Length":1445.627638724253,"fhdAccess":null,"fhdBarrierFtrID":null,"fhdEndExtent":null,"habitatType":"stream"},"id":3},
{"type":"Feature","geometry":{"type":"LineString","coordinates":[[-122.276378,45.494452],[-122.3602,45.515723],[-122.394881,45.563908]]},"properties":{"OBJECTID":4,"fhdFtrID":33015,"fhdRefID":53488,"fhdRevDt":"20121126","fhdONm":"Todd Alsbury","fhdOEnt":"ODFW","fhdSpNm":"Eulachon","fhdRun":"NA","fhdLifeHst":"Anadromous","fhdUseTy":"Spawning","fhdBasis":"DocObsFish","fhdStNm":"Sandy River","fhdGenus":"Thaleichthys","fhdSp":"pacificus","fhdSubSp":null,"fhdOrig":"NativeLocal","fhdProd":"Natural","fhdComment":"Only documented Oregon Columbia river tributary with current Eulachon habitat use","fhdESH":"NA","fhdBasisD":null,"fhdNMF":"yes","fhdBasisDt":null,"fhdBasisNm":null,"fhdBasisEnt":null,"fhdBasisPrj":null,"fhdBasisMethod":null,"Shape__Length":29437.374072836214,"fhdAccess":null,"fhdBarrierFtrID":null,"fhdEndExtent":null,"habitatType":"stream"},"id":4},
{"type":"Feature","geometry":{"type":"LineString","coordinates":[[-123.876509,43.655367],[-124.009765,43.698428],[-124.061176,43.694383],[-124.13891,43.735875],[-124.163727,43.699103],[-124.218429,43.668518]]},"properties":{"OBJECTID":5,"fhdFtrID":33016,"fhdRefID":600321,"fhdRevDt":"20121127","fhdONm":"John Johnson","fhdOEnt":"ODFW","fhdSpNm":"Eulachon","fhdRun":"NA","fhdLifeHst":"Anadromous","fhdUseTy":"Unknown","fhdBasis":"DocObsFish","fhdStNm":"Umpqua River","fhdGenus":"Thaleichthys","fhdSp":"pacificus","fhdSubSp":null,"fhdOrig":"NativeLocal","fhdProd":"Natural","fhdComment":null,"fhdESH":"NA","fhdBasisD":null,"fhdNMF":"yes","fhdBasisDt":null,"fhdBasisNm":null,"fhdBasisEnt":null,"fhdBasisPrj":null,"fhdBasisMethod":null,"Shape__Length":50357.77785137195,"fhdAccess":null,"fhdBarrierFtrID":null,"fhdEndExtent":null,"habitatType":"stream"},"id":5},
{"type":"Feature","geometry":{"type":"LineString","coordinates":[[-124.107424,44.223191],[-124.111886,44.226121]]},"properties":{"OBJECTID":6,"fhdFtrID":33017,"fhdRefID":53652,"fhdRevDt":"20180424","fhdONm":"Erik Suring","fhdOEnt":"ODFW","fhdSpNm":"Eulachon","fhdRun":"NA","fhdLifeHst":"Anadromous","fhdUseTy":"Unknown","fhdBasis":"DocObsFish","fhdStNm":"Tenmile Creek","fhdGenus":"Thaleichthys","fhdSp":"pacificus","fhdSubSp":null,"fhdOrig":"NativeLocal","fhdProd":"Natural","fhdComment":null,"fhdESH":"NA","fhdBasisD":null,"fhdNMF":"yes","fhdBasisDt":"20160229","fhdBasisNm":null,"fhdBasisEnt":"ODFW","fhdBasisPrj":"Lifecycle Monitoring","fhdBasisMethod":"Trap","Shape__Length":735.0341526246873,"fhdAccess":null,"fhdBarrierFtrID":null,"fhdEndExtent":null,"habitatType":"stream"},"id":6},
{"type":"Feature","geometry":{"type":"LineString","coordinates":[[-124.348937,43.35659],[-124.318373,43.353295],[-124.321685,43.282546]]},"properties":{"OBJECTID":7,"fhdFtrID":33018,"fhdRefID":53652,"fhdRevDt":"20180424","fhdONm":"Erik Suring","fhdOEnt":"ODFW","fhdSpNm":"Eulachon","fhdRun":"NA","fhdLifeHst":"Anadromous","fhdUseTy":"Unknown","fhdBasis":"DownstreamDocObsFish","fhdStNm":"Winchester Creek","fhdGenus":"Thaleichthys","fhdSp":"pacificus","fhdSubSp":null,"fhdOrig":"NativeLocal","fhdProd":"Natural","fhdComment":null,"fhdESH":"NA","fhdBasisD":null,"fhdNMF":"yes","fhdBasisDt":"20160209","fhdBasisNm":null,"fhdBasisEnt":"ODFW","fhdBasisPrj":"Life Cycle Monitoring","fhdBasisMethod":"Trap","Shape__Length":15626.661521701539,"fhdAccess":null,"fhdBarrierFtrID":null,"fhdEndExtent":null,"habitatType":"stream"},"id":7},
{"type":"Feature","geometry":{"type":"LineString","coordinates":[[-124.321685,43.282546],[-124.319785,43.282251]]},"properties":{"OBJECTID":8,"fhdFtrID":33019,"fhdRefID":53652,"fhdRevDt":"20180424","fhdONm":"Erik Suring","fhdOEnt":"ODFW","fhdSpNm":"Eulachon","fhdRun":"NA","fhdLifeHst":"Anadromous","fhdUseTy":"Unknown","fhdBasis":"DocObsFish","fhdStNm":"Winchester Creek","fhdGenus":"Thaleichthys","fhdSp":"pacificus","fhdSubSp":null,"fhdOrig":"NativeLocal","fhdProd":"Natural","fhdComment":null,"fhdESH":"NA","fhdBasisD":null,"fhdNMF":"yes","fhdBasisDt":"20160209","fhdBasisNm":null,"fhdBasisEnt":"ODFW","fhdBasisPrj":"Life Cycle Monitoring","fhdBasisMethod":"Trap","Shape__Length":217.21036799770752,"fhdAccess":null,"fhdBarrierFtrID":null,"fhdEndExtent":null,"habitatType":"stream"},"id":8}
]}
