{"type":"FeatureCollection","features":[
{"type":"Feature","geometry":{"type":"LineString","coordinates":[[-116.903721,44.838146],[-116.895753,44.855793],[-116.865773,44.870538],[-116.852299,44.889016],[-116.83531,44.939309],[-116.851847,44.960032],[-116.827253,44.9804],[-116.857628,44.983184],[-116.844335,45.002687],[-116.847634,45.023104],[-116.799102,45.057901],[-116.783119,45.078594],[-116.773135,45.10662],[-116.754129,45.114309],[-116.729575,45.141885],[-116.724855,45.173065],[-116.708022,45.20655],[-116.701032,45.243014]]},"properties":{"OBJECTID":1,"fhdFtrID":1,"fhdRefID":53713,"fhdRevDt":"20190401","fhdONm":"Matthew Neilson","fhdOEnt":"USGS","fhdSpNm":"Fcat","fhdRun":"NA","fhdLifeHst":"FluvRes","fhdUseTy":"Unknown","fhdBasis":"UndocObsFish","fhdStNm":"Snake River","fhdGenus":"Pylodictus","fhdSp":"olivaris","fhdSubSp":null,"fhdOrig":"NonNative","fhdProd":"Natural","fhdComment":null,"fhdESH":"NA","fhdBasisD":null,"fhdNMF":"no","fhdBasisDt":null,"fhdBasisNm":null,"fhdBasisEnt":null,"fhdBasisPrj":null,"fhdBasisMethod":null,"fhdAccess":null,"fhdBarrierFtrID":null,"fhdEndExtent":null,"Shape__Length":83391.00882743763,"habitatType":"stream"},"id":1},
{"type":"Feature","geometry":{"type":"LineString","coordinates":[[-117.027151,43.791693],[-117.01998,43.821143],[-117.03192,43.835173],[-116.99059,43.864001],[-116.976177,43.895406],[-116.979083,43.916145],[-116.959252,43.927054],[-116.968944,43.940649],[-116.960968,43.969617],[-116.934538,44.022532],[-116.944557,44.036339],[-116.973073,44.049092],[-116.977201,44.085935],[-116.933641,44.100026],[-116.911543,44.139375],[-116.895047,44.151966],[-116.8949,44.16994],[-116.926575,44.191977],[-116.96324,44.1943],[-116.97205,44.20066],[-116.972459,44.23796],[-116.995577,44.247565],[-117.031759,44.248659],[-117.057362,44.231615],[-117.086536,44.252142],[-117.09531,44.278087],[-117.120416,44.277698],[-117.148011,44.25574],[-117.172944,44.259372],[-117.219496,44.290784],[-117.224634,44.304068],[-117.203096,44.31327],[-117.189734,44.337817],[-117.2353,44.374271],[-117.243211,44.395443],[-117.226622,44.404984],[-117.21505,44.426312],[-117.220917,44.484946],[-117.199993,44.492146],[-117.184334,44.52131],[-117.149036,44.535694],[-117.145034,44.570012],[-117.125665,44.582796],[-117.116346,44.622471],[-117.098105,44.64021],[-117.095739,44.664828],[-117.081974,44.67314],[-117.079045,44.691826],[-117.064899,44.702251],[-117.058291,44.730414],[-117.037708,44.74804],[-116.986144,44.761548],[-116.970361,44.774602],[-116.935471,44.783247],[-116.930985,44.806397],[-116.903721,44.838146]]},"properties":{"OBJECTID":2,"fhdFtrID":2,"fhdRefID":53713,"fhdRevDt":"20190401","fhdONm":"Matthew Neilson","fhdOEnt":"USGS","fhdSpNm":"Fcat","fhdRun":"NA","fhdLifeHst":"FluvRes","fhdUseTy":"Unknown","fhdBasis":"DocObsFish","fhdStNm":"Snake River","fhdGenus":"Pylodictus","fhdSp":"olivaris","fhdSubSp":null,"fhdOrig":"NonNative","fhdProd":"Natural","fhdComment":null,"fhdESH":"NA","fhdBasisD":null,"fhdNMF":"no","fhdBasisDt":"20050000","fhdBasisNm":null,"fhdBasisEnt":"Idaho Power Company","fhdBasisPrj":" Flathead catfish collections ","fhdBasisMethod":null,"fhdAccess":null,"fhdBarrierFtrID":null,"fhdEndExtent":null,"Shape__Length":252355.34487700733,"habitatType":"stream"},"id":2},
{"type":"Feature","geometry":{"type":"LineString","coordinates":[[-117.230112,43.986856],[-117.213765,43.991555],[-117.184163,43.984032],[-117.13806,44.003827],[-117.089601,44.005811],[-117.074305,44.018742],[-117.042371,44.028685],[-117.008149,44.047645],[-116.974671,44.059001]]},"properties":{"OBJECTID":3,"fhdFtrID":3,"fhdRefID":53714,"fhdRevDt":"20190401","fhdONm":"H. Lavigne, et al.","fhdOEnt":"OSU","fhdSpNm":"Fcat","fhdRun":"NA","fhdLifeHst":"FluvRes","fhdUseTy":"Unknown","fhdBasis":"DocObsFish","fhdStNm":"Malheur River","fhdGenus":"Pylodictus","fhdSp":"olivaris","fhdSubSp":null,"fhdOrig":"NonNative","fhdProd":"Natural","fhdComment":null,"fhdESH":"NA","fhdBasisD":null,"fhdNMF":"no","fhdBasisDt":"20070000","fhdBasisNm":null,"fhdBasisEnt":null,"fhdBasisPrj":null,"fhdBasisMethod":"Electrofishing","fhdAccess":null,"fhdBarrierFtrID":null,"fhdEndExtent":null,"Shape__Length":45362.38856370998,"habitatType":"stream"},"id":3},
{"type":"Feature","geometry":{"type":"Polygon","coordinates":[[[-116.837628,44.968133],[-116.845592,44.96818],[-116.852068,44.964849],[-116.85394,44.961655],[-116.849957,44.95272],[-116.846719,44.950222],[-116.842704,44.944131],[-116.835297,44.936955],[-116.833737,44.932911],[-116.834506,44.929915],[-116.839642,44.924404],[-116.840047,44.920011],[-116.842946,44.916208],[-116.844918,44.908694],[-116.849151,44.903343],[-116.851011,44.899088],[-116.854194,44.887875],[-116.865413,44.874904],[-116.867851,44.870023],[-116.878221,44.866415],[-116.879752,44.8627],[-116.884872,44.858346],[-116.894041,44.855419],[-116.88932,44.854375],[-116.884102,44.856759],[-116.868336,44.868772],[-116.863507,44.87109],[-116.860666,44.877117],[-116.858651,44.877835],[-116.854778,44.882538],[-116.854888,44.884068],[-116.850518,44.889122],[-116.850508,44.893038],[-116.848156,44.896545],[-116.848414,44.899453],[-116.844108,44.904029],[-116.841191,44.909778],[-116.840341,44.914683],[-116.837675,44.916587],[-116.835831,44.923408],[-116.831661,44.927786],[-116.830743,44.934167],[-116.839868,44.947566],[-116.845472,44.951715],[-116.843983,44.953693],[-116.849386,44.957932],[-116.850139,44.96075],[-116.846948,44.96378],[-116.843091,44.964449],[-116.837628,44.968133]]]},"properties":{"OBJECTID":1,"fhdFtrID":1,"fhdRefID":53684,"fhdRevDt":"20190212","fhdONm":"Peter Robinson","fhdOEnt":"ODFW","fhdSpNm":"Fcat","fhdRun":"NA","fhdLifeHst":"Resident","fhdUseTy":"ResidentMultipleUses","fhdBasis":"UndocObsFish","fhdStNm":"Oxbow Reservoir","fhdGenus":"Pylodictus","fhdSp":"olivaris","fhdSubSp":null,"fhdOrig":"NonNative","fhdProd":"Natural","fhdComment":null,"fhdESH":"NA","fhdBasisD":null,"fhdNMF":"no","fhdBasisDt":null,"fhdBasisNm":null,"fhdBasisEnt":null,"fhdBasisPrj":null,"fhdBasisMethod":null,"fhdAccess":null,"fhdBarrierFtrID":null,"fhdEndExtent":null,"Shape__Area":8922295.49513655,"Shape__Length":57451.92246342264,"habitatType":"lake"},"id":4},
{"type":"Feature","geometry":{"type":"Polygon","coordinates":[[[-117.048689,44.743379],[-117.052256,44.741807],[-117.05529,44.737856],[-117.054829,44.73548],[-117.057716,44.732347],[-117.062051,44.730887],[-117.064291,44.724175],[-117.063329,44.723199],[-117.064468,44.717277],[-117.066523,44.712492],[-117.066653,44.707322],[-117.070916,44.702202],[-117.076017,44.699924],[-117.081541,44.695796],[-117.083909,44.691965],[-117.084499,44.68578],[-117.081113,44.68048],[-117.082889,44.676588],[-117.090832,44.671988],[-117.098742,44.665527],[-117.10096,44.65826],[-117.101646,44.649852],[-117.111625,44.631244],[-117.117555,44.627504],[-117.122221,44.62107],[-117.124519,44.613962],[-117.124883,44.609401],[-117.127078,44.605483],[-117.126391,44.601608],[-117.131007,44.594098],[-117.129994,44.585832],[-117.13062,44.581321],[-117.133279,44.579095],[-117.14109,44.576815],[-117.148134,44.5728],[-117.151384,44.568966],[-117.150873,44.562237],[-117.146901,44.557538],[-117.146428,44.554097],[-117.148058,44.548829],[-117.153373,44.542942],[-117.157127,44.539958],[-117.158986,44.53621],[-117.163691,44.533258],[-117.166338,44.533275],[-117.17062,44.529972],[-117.177134,44.526845],[-117.183671,44.525062],[-117.191495,44.51903],[-117.196519,44.516023],[-117.199472,44.511511],[-117.199707,44.501353],[-117.204429,44.493732],[-117.21057,44.491096],[-117.210515,44.488961],[-117.215307,44.488582],[-117.224498,44.486477],[-117.229578,44.482293],[-117.230179,44.475801],[-117.225558,44.467191],[-117.221693,44.463044],[-117.217135,44.449939],[-117.218504,44.445526],[-117.217448,44.43359],[-117.217567,44.426499],[-117.22117,44.419067],[-117.226335,44.41412],[-117.22751,44.407611],[-117.236929,44.400714],[-117.241873,44.39945],[-117.244977,44.395222],[-117.245271,44.390978],[-117.23864,44.378601],[-117.237106,44.374244],[-117.228193,44.365313],[-117.22474,44.364803],[-117.217234,44.359405],[-117.213569,44.357897],[-117.206033,44.352459],[-117.203859,44.349551],[-117.198314,44.346429],[-117.19416,44.340409],[-117.191024,44.337599],[-117.192094,44.330821],[-117.197217,44.327116],[-117.201641,44.318076],[-117.205737,44.312829],[-117.220235,44.308226],[-117.228607,44.30099],[-117.224769,44.298357],[-117.22346,44.295196],[-117.218053,44.287662],[-117.209494,44.282999],[-117.206443,44.275909],[-117.201217,44.271343],[-117.19474,44.26861],[-117.192066,44.265175],[-117.181175,44.260312],[-117.174073,44.258215],[-117.158778,44.256324],[-117.153983,44.255154],[-117.149471,44.252809],[-117.14366,44.25279],[-117.14013,44.256104],[-117.132453,44.260316],[-117.134851,44.263548],[-117.140538,44.260638],[-117.145129,44.25941],[-117.156936,44.258552],[-117.164649,44.260585],[-117.168513,44.260091],[-117.173324,44.263023],[-117.183848,44.268199],[-117.19089,44.271069],[-117.203244,44.280113],[-117.205124,44.283494],[-117.209931,44.28582],[-117.214121,44.29403],[-117.216162,44.295571],[-117.214874,44.302328],[-117.209702,44.306813],[-117.205453,44.308614],[-117.199783,44.315629],[-117.198148,44.320815],[-117.195213,44.325349],[-117.190236,44.329526],[-117.18846,44.336607],[-117.191342,44.340069],[-117.194982,44.347797],[-117.2007,44.349874],[-117.202927,44.353311],[-117.20924,44.358853],[-117.215009,44.36114],[-117.217336,44.364098],[-117.226168,44.36915],[-117.230257,44.372825],[-117.233856,44.378033],[-117.23346,44.379388],[-117.240318,44.389336],[-117.241372,44.39529],[-117.230643,44.399866],[-117.224652,44.403864],[-117.22183,44.408946],[-117.222154,44.41258],[-117.219744,44.416543],[-117.214723,44.420232],[-117.212804,44.428366],[-117.2143,44.433157],[-117.211905,44.438316],[-117.211915,44.444342],[-117.213083,44.451899],[-117.212256,44.4546],[-117.214825,44.458084],[-117.218326,44.471222],[-117.221763,44.475979],[-117.220103,44.482242],[-117.21647,44.483927],[-117.209333,44.484423],[-117.201583,44.488507],[-117.195581,44.494309],[-117.190083,44.503329],[-117.18891,44.510919],[-117.186486,44.514503],[-117.179652,44.520018],[-117.161869,44.523643],[-117.156644,44.525463],[-117.150611,44.529106],[-117.148,44.533693],[-117.142954,44.539382],[-117.139426,44.546065],[-117.13681,44.554049],[-117.137068,44.556738],[-117.143156,44.566197],[-117.135168,44.57043],[-117.129048,44.571975],[-117.122937,44.576809],[-117.120294,44.582683],[-117.122497,44.589613],[-117.122648,44.594678],[-117.120318,44.5998],[-117.12161,44.601764],[-117.118474,44.607594],[-117.118086,44.611627],[-117.115464,44.617457],[-117.111442,44.623347],[-117.106818,44.626175],[-117.102526,44.631412],[-117.099693,44.637132],[-117.096513,44.640382],[-117.095564,44.647121],[-117.093083,44.651386],[-117.092855,44.657285],[-117.094273,44.663119],[-117.089106,44.665266],[-117.082925,44.670211],[-117.077335,44.67306],[-117.074337,44.682462],[-117.075092,44.688235],[-117.068084,44.697054],[-117.062129,44.702125],[-117.058796,44.70826],[-117.059843,44.713172],[-117.056309,44.719543],[-117.05523,44.72631],[-117.047461,44.732247],[-117.045442,44.740061],[-117.027541,44.749139],[-117.024045,44.748671],[-117.016304,44.750685],[-117.010409,44.754151],[-117.006266,44.753671],[-116.997003,44.75417],[-116.990728,44.755841],[-116.984316,44.761288],[-116.973036,44.768371],[-116.969762,44.769014],[-116.967806,44.771759],[-116.956597,44.772628],[-116.945858,44.777074],[-116.940934,44.778139],[-116.930547,44.784779],[-116.930046,44.787023],[-116.924828,44.791193],[-116.924511,44.793696],[-116.918437,44.79398],[-116.917874,44.795879],[-116.925913,44.797806],[-116.924323,44.80381],[-116.916689,44.811288],[-116.913582,44.811886],[-116.913179,44.816506],[-116.909815,44.82106],[-116.907115,44.822223],[-116.904976,44.827008],[-116.902592,44.829553],[-116.899835,44.835199],[-116.904676,44.838131],[-116.909639,44.832897],[-116.915232,44.828454],[-116.91558,44.825792],[-116.918466,44.821353],[-116.924204,44.814807],[-116.928438,44.811394],[-116.9321,44.810132],[-116.936286,44.805995],[-116.937543,44.80122],[-116.937459,44.79401],[-116.936041,44.792028],[-116.940263,44.788895],[-116.943948,44.783034],[-116.948147,44.781283],[-116.953194,44.78064],[-116.960158,44.777429],[-116.965205,44.777379],[-116.967324,44.779282],[-116.983051,44.768708],[-116.984637,44.76851],[-116.992936,44.761998],[-116.996024,44.760734],[-117.01608,44.760025],[-117.017276,44.758171],[-117.023093,44.755347],[-117.031281,44.753797],[-117.039147,44.749592],[-117.043398,44.749291],[-117.047981,44.74687],[-117.047809,44.753164],[-117.043934,44.754255],[-117.045096,44.75836],[-117.047536,44.761308],[-117.051442,44.762373],[-117.052388,44.764744],[-117.057696,44.765918],[-117.062048,44.770303],[-117.07184,44.77005],[-117.07372,44.773381],[-117.078574,44.773524],[-117.08124,44.775395],[-117.092381,44.775766],[-117.095955,44.773899],[-117.095745,44.770431],[-117.101915,44.767948],[-117.108456,44.769054],[-117.115643,44.768129],[-117.118029,44.765714],[-117.118664,44.76073],[-117.122768,44.759614],[-117.125538,44.756715],[-117.130482,44.755287],[-117.13915,44.755592],[-117.142693,44.757442],[-117.14528,44.756467],[-117.151661,44.756548],[-117.157217,44.7552],[-117.161389,44.751647],[-117.157344,44.749553],[-117.157061,44.746814],[-117.152333,44.744936],[-117.148159,44.746548],[-117.138247,44.747444],[-117.136482,44.749337],[-117.131815,44.749279],[-117.127372,44.754156],[-117.122289,44.758138],[-117.119016,44.759271],[-117.115657,44.757549],[-117.111968,44.758001],[-117.110676,44.760882],[-117.114861,44.763394],[-117.115479,44.765397],[-117.107939,44.767611],[-117.102931,44.766592],[-117.096199,44.768268],[-117.093811,44.769827],[-117.092457,44.773905],[-117.084483,44.774291],[-117.082094,44.772047],[-117.077587,44.771016],[-117.075483,44.767476],[-117.071192,44.766083],[-117.063797,44.767461],[-117.053853,44.761917],[-117.049925,44.757944],[-117.051444,44.751007],[-117.055049,44.749737],[-117.05299,44.744367],[-117.048689,44.743379],[-117.047889,44.743589],[-117.048689,44.743379]]]},"properties":{"OBJECTID":2,"fhdFtrID":2,"fhdRefID":53713,"fhdRevDt":"20190212","fhdONm":"Matthew Neilson","fhdOEnt":"USGS","fhdSpNm":"Fcat","fhdRun":"NA","fhdLifeHst":"Resident","fhdUseTy":"ResidentMultipleUses","fhdBasis":"DocObsFish","fhdStNm":"Brownlee Reservoir","fhdGenus":"Pylodictus","fhdSp":"olivaris","fhdSubSp":null,"fhdOrig":"NonNative","fhdProd":"Natural","fhdComment":null,"fhdESH":"NA","fhdBasisD":null,"fhdNMF":"no","fhdBasisDt":"20150000","fhdBasisNm":null,"fhdBasisEnt":"Idaho Power Company","fhdBasisPrj":"Flathead catfish collections d","fhdBasisMethod":null,"fhdAccess":null,"fhdBarrierFtrID":null,"fhdEndExtent":null,"Shape__Area":110671994.722679,"Shape__Length":371968.3256212752,"habitatType":"lake"},"id":5},
{"type":"Feature","geometry":{"type":"Polygon","coordinates":[[[-116.701875,45.236909],[-116.700389,45.242403],[-116.702999,45.243297],[-116.706749,45.237817],[-116.705282,45.234058],[-116.706655,45.227379],[-116.710882,45.221827],[-116.711583,45.215194],[-116.709814,45.210951],[-116.709968,45.204311],[-116.715638,45.193619],[-116.717666,45.186338],[-116.721826,45.179636],[-116.726524,45.174467],[-116.726851,45.172399],[-116.725341,45.161835],[-116.728725,45.156556],[-116.730448,45.150976],[-116.731245,45.14272],[-116.732493,45.14085],[-116.745554,45.134235],[-116.746985,45.132522],[-116.746461,45.12774],[-116.753559,45.123023],[-116.755268,45.115055],[-116.759314,45.112198],[-116.767405,45.11022],[-116.775547,45.10696],[-116.780236,45.101232],[-116.784584,45.094352],[-116.785297,45.084265],[-116.786609,45.080008],[-116.78502,45.07846],[-116.791102,45.072049],[-116.79675,45.06478],[-116.797708,45.061286],[-116.8212,45.045006],[-116.826005,45.039425],[-116.842809,45.03143],[-116.844175,45.028286],[-116.849371,45.022797],[-116.849632,45.020435],[-116.846883,45.018081],[-116.845708,45.014351],[-116.848953,45.011915],[-116.846531,45.008125],[-116.845376,45.002036],[-116.852852,44.992643],[-116.856176,44.986222],[-116.858615,44.984408],[-116.858809,44.977019],[-116.85375,44.972117],[-116.8481,44.970874],[-116.843853,44.974939],[-116.838902,44.982263],[-116.840464,44.98354],[-116.845546,44.975361],[-116.849841,44.972385],[-116.853046,44.973103],[-116.857872,44.978334],[-116.856532,44.983405],[-116.851731,44.991463],[-116.844369,45.000356],[-116.843388,45.005459],[-116.845913,45.011691],[-116.843666,45.015845],[-116.846554,45.023173],[-116.842912,45.026373],[-116.841847,45.029213],[-116.823985,45.037644],[-116.816186,45.045822],[-116.807442,45.050415],[-116.796455,45.058499],[-116.794025,45.063958],[-116.791932,45.06517],[-116.786959,45.072224],[-116.782268,45.075597],[-116.78128,45.078634],[-116.782619,45.081341],[-116.78242,45.094007],[-116.776922,45.100198],[-116.774138,45.104613],[-116.765428,45.108669],[-116.753252,45.113273],[-116.750634,45.118783],[-116.745399,45.121653],[-116.740604,45.125974],[-116.740405,45.129702],[-116.736842,45.131556],[-116.733119,45.136774],[-116.728866,45.139904],[-116.726092,45.149239],[-116.72662,45.155042],[-116.723763,45.159108],[-116.722278,45.164702],[-116.723284,45.172031],[-116.720275,45.178483],[-116.715866,45.184205],[-116.712708,45.194925],[-116.70876,45.198754],[-116.706513,45.207782],[-116.708258,45.21641],[-116.702762,45.228063],[-116.701875,45.236909]]]},"properties":{"OBJECTID":3,"fhdFtrID":3,"fhdRefID":53684,"fhdRevDt":"20190212","fhdONm":"Peter Robinson","fhdOEnt":"ODFW","fhdSpNm":"Fcat","fhdRun":"NA","fhdLifeHst":"Resident","fhdUseTy":"ResidentMultipleUses","fhdBasis":"UndocObsFish","fhdStNm":"Hells Canyon Reservoir","fhdGenus":"Pylodictus","fhdSp":"olivaris","fhdSubSp":null,"fhdOrig":"NonNative","fhdProd":"Natural","fhdComment":null,"fhdESH":"NA","fhdBasisD":null,"fhdNMF":"no","fhdBasisDt":null,"fhdBasisNm":null,"fhdBasisEnt":null,"fhdBasisPrj":null,"fhdBasisMethod":null,"fhdAccess":null,"fhdBarrierFtrID":null,"fhdEndExtent":null,"Shape__Area":18695910.95635435,"Shape__Length":121775.12852254763,"habitatType":"lake"},"id":6}
]}
