{"type":"FeatureCollection","features":[
{"type":"Feature","geometry":{"type":"LineString","coordinates":[[-124.432168,42.419211],[-124.431027,42.420079],[-124.426975,42.423624],[-124.425051,42.424548],[-124.423216,42.425111],[-124.421143,42.425893],[-124.419016,42.42646],[-124.414028,42.427143],[-124.411839,42.427981],[-124.410594,42.428221],[-124.408817,42.429215],[-124.407951,42.429586],[-124.406353,42.429894],[-124.404035,42.429961],[-124.40295,42.430208],[-124.401598,42.430855],[-124.400132,42.431103],[-124.399123,42.431046],[-124.395778,42.431103],[-124.394426,42.431516],[-124.393648,42.431525],[-124.390904,42.432281],[-124.390485,42.433617],[-124.390404,42.434375],[-124.390866,42.434877],[-124.391369,42.435724],[-124.391492,42.437057],[-124.390476,42.437616],[-124.390051,42.438197],[-124.388507,42.43963],[-124.386833,42.440813],[-124.385006,42.441265],[-124.383105,42.44245],[-124.381046,42.442951],[-124.379602,42.443814],[-124.37887,42.445375],[-124.378423,42.447046],[-124.378169,42.447604],[-124.378232,42.450485],[-124.378627,42.451931],[-124.379364,42.453605],[-124.380851,42.455234],[-124.382747,42.456823],[-124.383285,42.457649],[-124.383358,42.458758],[-124.382896,42.460822],[-124.381416,42.462809],[-124.380488,42.463519],[-124.379051,42.464109],[-124.376864,42.464726],[-124.372335,42.465496],[-124.371031,42.465601],[-124.36982,42.465097],[-124.367743,42.46577],[-124.366545,42.466613],[-124.365421,42.467223],[-124.364385,42.468096],[-124.363587,42.468328],[-124.362487,42.468465],[-124.361657,42.468306],[-124.36093,42.467969],[-124.359392,42.467801],[-124.358285,42.467179],[-124.356238,42.466987],[-124.354243,42.466975],[-124.353072,42.466845],[-124.35175,42.466464],[-124.350579,42.466298],[-124.349887,42.465837],[-124.348865,42.465777],[-124.347798,42.46597],[-124.346839,42.46663],[-124.345458,42.468015],[-124.344986,42.468705],[-124.342069,42.471116],[-124.341506,42.472096],[-124.340407,42.473045],[-124.339879,42.473375],[-124.338908,42.473459],[-124.336523,42.47345],[-124.335311,42.473681],[-124.332391,42.473679],[-124.331568,42.473832],[-124.33042,42.474782],[-124.330284,42.475252],[-124.330316,42.476801],[-124.330719,42.477444],[-124.330768,42.479749],[-124.330641,42.480651],[-124.330263,42.481196],[-124.329254,42.481784],[-124.327464,42.482309],[-124.326501,42.482789],[-124.32509,42.482805],[-124.324305,42.48249],[-124.32223,42.481037],[-124.32173,42.480394],[-124.320845,42.479972],[-124.320482,42.480181],[-124.319223,42.480163],[-124.318788,42.479813],[-124.317687,42.480224],[-124.316467,42.480058],[-124.314179,42.480048],[-124.313358,42.480346],[-124.312351,42.481078],[-124.311833,42.481876],[-124.311511,42.482781],[-124.3108,42.483689],[-124.310624,42.484592],[-124.310297,42.48528],[-124.310602,42.485889],[-124.310691,42.487833],[-124.310551,42.488123],[-124.310633,42.489707],[-124.310444,42.492303],[-124.310431,42.494032]]},"properties":{"OBJECTID":1,"fhdFtrID":1,"fhdRefID":53057,"fhdRevDt":"20161228","fhdONm":"Todd Confer","fhdOEnt":"ODFW","fhdSpNm":"Green sturgeon","fhdRun":"NA","fhdLifeHst":"Anadromous","fhdUseTy":"Rearing","fhdBasis":"DocObsFish","fhdStNm":"Rogue River","fhdGenus":"Acipenser","fhdSp":"medirostris","fhdSubSp":null,"fhdOrig":"NativeLocal","fhdProd":"Natural","fhdComment":null,"fhdESH":"NA","fhdBasisD":null,"fhdNMF":"yes","fhdBasisDt":null,"fhdBasisNm":null,"fhdBasisEnt":"ODFW","fhdBasisPrj":null,"fhdBasisMethod":"Radio tracking","Shape__Length":22936.36215690659,"fhdAccess":null,"fhdBarrierFtrID":null,"fhdEndExtent":null,"habitatType":"stream"},"id":1},
{"type":"Feature","geometry":{"type":"LineString","coordinates":[[-124.310431,42.494032],[-124.309438,42.495412],[-124.308477,42.496036],[-124.307559,42.49637],[-124.306589,42.496525],[-124.305868,42.496966],[-124.304006,42.497545],[-124.302938,42.498227],[-124.302755,42.499451],[-124.302185,42.500106],[-124.301779,42.501659],[-124.300628,42.502537],[-124.299134,42.503274],[-124.298505,42.503461],[-124.297887,42.504189],[-124.296575,42.504276],[-124.295933,42.503815],[-124.295251,42.503822],[-124.294043,42.503559],[-124.293334,42.503522],[-124.291686,42.503],[-124.290389,42.502695],[-124.288894,42.50205],[-124.284796,42.501154],[-124.283118,42.501101],[-124.281981,42.501375],[-124.279677,42.501342],[-124.278746,42.501569],[-124.274688,42.501672],[-124.271972,42.501937],[-124.271384,42.502213],[-124.268836,42.50284],[-124.26763,42.503227],[-124.266379,42.503007],[-124.265304,42.502623],[-124.264525,42.501866],[-124.264304,42.501346],[-124.262938,42.500235],[-124.262732,42.499742],[-124.261245,42.498597],[-124.26052,42.498366],[-124.258864,42.498213],[-124.255553,42.498263],[-124.254363,42.498487],[-124.25212,42.499309],[-124.250922,42.499835],[-124.248534,42.500537],[-124.245864,42.500719],[-124.244834,42.500374],[-124.243636,42.499491],[-124.242682,42.49843],[-124.241965,42.497789],[-124.241576,42.497676],[-124.240726,42.497863],[-124.238463,42.499092],[-124.236945,42.499645],[-124.236151,42.500311],[-124.234061,42.501],[-124.232047,42.501296],[-124.231108,42.501234],[-124.230384,42.500877],[-124.229323,42.499844],[-124.228667,42.498329],[-124.228484,42.497128],[-124.228202,42.496551],[-124.227149,42.495661],[-124.226256,42.495266],[-124.224509,42.495037],[-124.221641,42.494788],[-124.220099,42.494449],[-124.217925,42.49372],[-124.215087,42.493345],[-124.212539,42.492408],[-124.211051,42.491104],[-124.208617,42.489288],[-124.207496,42.488836],[-124.204955,42.488674],[-124.203589,42.489103],[-124.202674,42.48963],[-124.201956,42.4898],[-124.200042,42.489793],[-124.199439,42.48965],[-124.198371,42.48891],[-124.196906,42.488096],[-124.195586,42.488002],[-124.194914,42.488144],[-124.194159,42.488584],[-124.193038,42.489636],[-124.192679,42.490221],[-124.192122,42.491649],[-124.192298,42.493494],[-124.19245,42.494186],[-124.193114,42.49616],[-124.19316,42.497213],[-124.192076,42.500309],[-124.191268,42.501511],[-124.189772,42.502647],[-124.187873,42.503766],[-124.185706,42.504027],[-124.18505,42.504173],[-124.183928,42.50464],[-124.182929,42.50542],[-124.180938,42.50662],[-124.179847,42.507172],[-124.177527,42.508069],[-124.175948,42.509045],[-124.174773,42.509926],[-124.174239,42.511741],[-124.174117,42.512625],[-124.17369,42.513413],[-124.171927,42.51426],[-124.171004,42.514418],[-124.169158,42.515112],[-124.168059,42.515911],[-124.167456,42.516841],[-124.167052,42.517772],[-124.166358,42.518563],[-124.165938,42.51972],[-124.165389,42.520428],[-124.165488,42.520702],[-124.164985,42.521603],[-124.164382,42.521996],[-124.163306,42.522376],[-124.162291,42.522904],[-124.161032,42.523899],[-124.160849,42.524419],[-124.160064,42.525214],[-124.157691,42.526639],[-124.156348,42.527526],[-124.156188,42.527892],[-124.155425,42.528585],[-124.154402,42.529198],[-124.15293,42.529429],[-124.152282,42.529764],[-124.151854,42.53026],[-124.151496,42.531402],[-124.150633,42.532532],[-124.149382,42.533369],[-124.148459,42.533743],[-124.147376,42.534582],[-124.146376,42.536438],[-124.145774,42.537178],[-124.144439,42.537939],[-124.143287,42.538122],[-124.142913,42.538806],[-124.141845,42.53987],[-124.139899,42.540502],[-124.138801,42.540711],[-124.137084,42.540723],[-124.136641,42.541646],[-124.136679,42.542569],[-124.136534,42.544263],[-124.13584,42.545252],[-124.135322,42.54627],[-124.134383,42.54754],[-124.133902,42.548423],[-124.132811,42.549267],[-124.131392,42.549785],[-124.130454,42.550439],[-124.128874,42.550936],[-124.126151,42.552219],[-124.125243,42.552908],[-124.124907,42.553352],[-124.123931,42.554164],[-124.123198,42.555251],[-124.123,42.555911],[-124.122367,42.556682],[-124.121558,42.557114],[-124.117736,42.558065],[-124.116523,42.558289],[-124.115126,42.558118],[-124.113982,42.558259],[-124.111937,42.558063],[-124.110434,42.558487],[-124.109755,42.559304],[-124.10826,42.560102],[-124.106932,42.559638],[-124.105635,42.558299],[-124.103164,42.557612],[-124.102477,42.55806],[-124.102332,42.558705],[-124.101928,42.559366],[-124.101439,42.559718],[-124.100142,42.560356],[-124.097342,42.561117],[-124.095847,42.560622],[-124.093825,42.560439],[-124.092627,42.560644],[-124.091475,42.56138],[-124.090453,42.561016],[-124.089652,42.560461],[-124.088881,42.559734],[-124.088385,42.558334],[-124.08805,42.557072],[-124.087432,42.556033],[-124.086424,42.554692],[-124.085807,42.554387],[-124.084075,42.554543],[-124.082038,42.555346],[-124.080405,42.556203],[-124.079497,42.556545],[-124.077658,42.557391],[-124.076529,42.557406],[-124.075179,42.557144],[-124.073409,42.556602],[-124.072837,42.556256],[-124.072013,42.555444],[-124.070952,42.554144],[-124.06935,42.552403],[-124.068099,42.551469],[-124.067771,42.551066],[-124.066786,42.550313],[-124.066344,42.550256],[-124.065551,42.550515],[-124.063918,42.551314],[-124.062445,42.552327],[-124.061202,42.553374],[-124.060584,42.554285],[-124.060302,42.555134],[-124.059981,42.556767],[-124.058736,42.559251],[-124.057952,42.560078],[-124.056785,42.560741],[-124.055732,42.561476],[-124.055281,42.562408],[-124.055327,42.563511],[-124.05506,42.565535],[-124.054847,42.566361],[-124.054343,42.567419],[-124.053542,42.568521],[-124.052054,42.570394],[-124.051787,42.571378],[-124.052047,42.572695],[-124.052642,42.573658],[-124.053458,42.574456],[-124.055617,42.576175],[-124.057616,42.577476],[-124.058196,42.577939],[-124.059607,42.579709],[-124.06024,42.580829],[-124.06037,42.582642],[-124.060965,42.58482],[-124.060942,42.587387],[-124.061209,42.588916],[-124.061408,42.591737],[-124.061728,42.593094],[-124.062293,42.594629],[-124.062751,42.597538],[-124.062743,42.598614],[-124.062354,42.601617],[-124.062545,42.603187],[-124.063147,42.605068],[-124.063918,42.606713],[-124.064116,42.609003],[-124.065001,42.60968],[-124.06568,42.610529],[-124.065741,42.611834],[-124.065299,42.612658],[-124.064566,42.613295],[-124.063277,42.614117],[-124.062262,42.615217],[-124.061622,42.61638],[-124.061293,42.617459],[-124.060752,42.618374],[-124.05992,42.619475],[-124.058066,42.620672],[-124.057677,42.62082],[-124.057051,42.621506],[-124.056426,42.622678],[-124.055098,42.623906],[-124.05419,42.624171],[-124.053275,42.625048],[-124.052275,42.626877],[-124.051864,42.628272],[-124.050681,42.630376],[-124.050147,42.630971],[-124.04901,42.631846],[-124.048766,42.632186],[-124.047881,42.632825],[-124.047202,42.633943],[-124.047179,42.634659],[-124.047614,42.635812],[-124.0474,42.637264],[-124.047576,42.637853],[-124.048293,42.639179],[-124.048613,42.640869],[-124.047797,42.642561],[-124.047911,42.643775],[-124.04708,42.644688],[-124.046271,42.645186],[-124.045348,42.645474],[-124.043059,42.64531],[-124.040725,42.644966],[-124.038848,42.644421],[-124.035308,42.642908],[-124.03456,42.642519],[-124.033324,42.641508],[-124.032019,42.641182],[-124.029998,42.641231],[-124.028518,42.641726],[-124.027304,42.642543],[-124.025191,42.64335],[-124.024329,42.644047],[-124.023581,42.646021],[-124.023207,42.646601],[-124.021682,42.648177],[-124.020079,42.649628],[-124.017493,42.650907],[-124.01512,42.650933],[-124.013793,42.651323],[-124.012626,42.652166],[-124.011534,42.652748],[-124.0101,42.653733],[-124.008696,42.654497],[-124.007163,42.655231],[-124.001548,42.657514],[-124.000075,42.657869],[-123.998664,42.658439],[-123.996291,42.659545],[-123.994674,42.660563],[-123.993537,42.661105],[-123.991904,42.662109],[-123.989974,42.663387],[-123.987143,42.664569],[-123.985557,42.664744],[-123.98413,42.66531],[-123.983481,42.665928],[-123.982772,42.667583],[-123.981566,42.668228],[-123.979277,42.668319],[-123.978057,42.668217],[-123.97766,42.668324],[-123.976683,42.669013],[-123.976516,42.669275],[-123.974326,42.67005],[-123.972594,42.670551],[-123.971114,42.670838],[-123.969962,42.671159],[-123.968665,42.671206],[-123.9672,42.671655],[-123.966483,42.672238],[-123.965125,42.674109],[-123.964759,42.67481],[-123.964499,42.675712],[-123.96324,42.677137],[-123.961806,42.677667],[-123.960936,42.677683],[-123.960204,42.677315],[-123.95883,42.675999],[-123.958533,42.674529],[-123.957801,42.673508],[-123.957465,42.672619],[-123.957099,42.672132],[-123.956267,42.671715],[-123.95497,42.671996],[-123.953726,42.672943],[-123.951957,42.674638],[-123.951392,42.675831],[-123.951186,42.676724],[-123.951239,42.677413],[-123.950682,42.678467],[-123.94995,42.678963],[-123.948127,42.679424],[-123.947341,42.679507],[-123.944243,42.679483],[-123.943557,42.679534],[-123.940848,42.679291],[-123.938758,42.679384],[-123.937362,42.679608],[-123.935576,42.68018],[-123.933791,42.680843],[-123.932441,42.681633],[-123.93193,42.682304],[-123.931792,42.682782],[-123.93064,42.684444],[-123.929503,42.685386],[-123.929343,42.686315],[-123.929663,42.687843],[-123.930571,42.688804],[-123.931655,42.689619],[-123.932654,42.690754],[-123.933898,42.691505],[-123.935095,42.691734],[-123.935874,42.691719],[-123.938422,42.691014],[-123.939574,42.690901],[-123.940673,42.691414],[-123.941237,42.691891],[-123.942397,42.693647],[-123.94242,42.694169],[-123.941954,42.695064],[-123.941199,42.695786],[-123.940513,42.696224],[-123.938605,42.697154],[-123.937346,42.697682],[-123.935782,42.698005],[-123.934127,42.698496],[-123.932578,42.699072],[-123.931266,42.699285],[-123.930709,42.699695],[-123.929351,42.700422],[-123.928809,42.700922],[-123.928473,42.701582],[-123.928199,42.702629],[-123.927039,42.7038],[-123.926345,42.704089],[-123.925246,42.703918],[-123.924399,42.703519],[-123.923148,42.703268],[-123.922026,42.702809],[-123.921103,42.702308],[-123.920348,42.702264],[-123.91928,42.702534],[-123.917685,42.703137],[-123.916449,42.703754],[-123.915984,42.703871],[-123.914763,42.703759],[-123.913695,42.703236],[-123.912932,42.702639],[-123.911864,42.701382],[-123.911666,42.700631],[-123.912047,42.699705],[-123.913115,42.698652],[-123.913093,42.6979],[-123.912162,42.697219],[-123.909911,42.696494],[-123.908805,42.69639],[-123.907264,42.69606],[-123.904456,42.695893],[-123.902365,42.696063],[-123.900992,42.69708],[-123.900286,42.697279],[-123.899313,42.698376],[-123.898938,42.698576],[-123.898127,42.699389],[-123.897852,42.70032],[-123.897457,42.701025],[-123.89681,42.70171],[-123.896082,42.702695],[-123.894431,42.703967],[-123.893736,42.704775],[-123.892974,42.705079],[-123.89168,42.706012],[-123.890757,42.707182],[-123.890105,42.709062],[-123.889954,42.710081],[-123.889677,42.711002],[-123.889098,42.712061],[-123.888354,42.71307],[-123.886992,42.714356],[-123.886207,42.715398],[-123.885115,42.71614],[-123.884185,42.715904],[-123.883753,42.715387],[-123.883234,42.715093],[-123.882146,42.714777],[-123.879438,42.715126],[-123.878142,42.715412],[-123.877058,42.71585],[-123.875505,42.716708],[-123.874919,42.716889],[-123.873766,42.717485],[-123.872569,42.717524],[-123.870675,42.717242],[-123.868872,42.717147],[-123.86812,42.71729],[-123.867084,42.717694],[-123.864259,42.718096],[-123.862783,42.718195],[-123.861957,42.718519],[-123.861114,42.71858],[-123.860471,42.718379],[-123.85863,42.718142],[-123.856909,42.717245],[-123.855971,42.716515],[-123.854758,42.715905],[-123.853701,42.71509],[-123.853002,42.714756],[-123.851842,42.714734],[-123.850667,42.714261],[-123.849045,42.713141],[-123.848136,42.712669],[-123.847385,42.712124],[-123.846694,42.711388],[-123.845744,42.710675],[-123.843034,42.709333],[-123.841823,42.709031],[-123.83982,42.708987],[-123.838899,42.709075],[-123.836781,42.709037],[-123.835651,42.70924],[-123.834373,42.709757],[-123.833479,42.710007],[-123.831487,42.710178],[-123.829813,42.709507],[-123.829398,42.709239],[-123.826895,42.708281],[-123.825697,42.70763],[-123.824456,42.706732],[-123.823944,42.706203],[-123.821707,42.705472],[-123.819966,42.705292],[-123.818008,42.704763],[-123.816226,42.704125],[-123.813544,42.702371],[-123.811616,42.701351],[-123.810935,42.700834],[-123.810098,42.700613],[-123.809415,42.700772],[-123.808651,42.700669],[-123.807385,42.700118],[-123.805757,42.699888],[-123.804798,42.700167],[-123.803362,42.70086],[-123.802505,42.701419],[-123.801706,42.702613],[-123.800831,42.703186],[-123.799488,42.703665],[-123.797822,42.704694],[-123.797412,42.705329],[-123.796551,42.70565],[-123.795212,42.706461],[-123.793646,42.706673],[-123.792838,42.707022],[-123.791524,42.7079],[-123.789991,42.708553],[-123.788518,42.708783],[-123.787066,42.708492],[-123.781945,42.70664],[-123.781167,42.706158],[-123.779543,42.70466],[-123.778135,42.703185],[-123.776627,42.702063],[-123.776084,42.701325],[-123.774954,42.700538],[-123.773701,42.699797],[-123.771077,42.696987],[-123.768133,42.695151],[-123.766998,42.694783],[-123.766479,42.69443],[-123.765187,42.692647],[-123.764116,42.691811],[-123.762167,42.690942],[-123.760445,42.690596],[-123.758542,42.690771],[-123.757287,42.690164],[-123.754207,42.689362],[-123.751488,42.688596],[-123.75,42.688075],[-123.748126,42.687531],[-123.74501,42.686085],[-123.743175,42.685599],[-123.741853,42.685027],[-123.740167,42.684459],[-123.738898,42.683763],[-123.73761,42.682615],[-123.73677,42.682349],[-123.734366,42.682227],[-123.733205,42.681859],[-123.73259,42.681516],[-123.732467,42.680785],[-123.733081,42.680406],[-123.733681,42.680294],[-123.734883,42.680713],[-123.735503,42.680647],[-123.736254,42.680189],[-123.736508,42.679686],[-123.736483,42.678004],[-123.735582,42.6754],[-123.735573,42.674769],[-123.735195,42.673673],[-123.735328,42.672629],[-123.734719,42.670943],[-123.733864,42.669294],[-123.733703,42.66827],[-123.733733,42.667538],[-123.733498,42.6663],[-123.734078,42.663344],[-123.734114,42.662804],[-123.733886,42.661955],[-123.732657,42.659989],[-123.732086,42.658722],[-123.731582,42.658044],[-123.730868,42.656482],[-123.730699,42.65552],[-123.730478,42.652944],[-123.729576,42.652203],[-123.728567,42.651878],[-123.726966,42.651802],[-123.725647,42.652032],[-123.724337,42.652446],[-123.721395,42.652843],[-123.718127,42.652836],[-123.716158,42.652133],[-123.715337,42.651516],[-123.714224,42.651126],[-123.71232,42.64983],[-123.711199,42.648663],[-123.710749,42.647995],[-123.708789,42.646848],[-123.7082,42.646609],[-123.706289,42.64621],[-123.704766,42.646219],[-123.702553,42.645878],[-123.700132,42.646016],[-123.699299,42.64584],[-123.696183,42.645586],[-123.694752,42.645622],[-123.690395,42.64546],[-123.687687,42.646124],[-123.686557,42.646646],[-123.684493,42.647977],[-123.682878,42.649107],[-123.681366,42.649855],[-123.680152,42.650284],[-123.67696,42.651966],[-123.676242,42.652726],[-123.676057,42.654573],[-123.674647,42.655544],[-123.672969,42.656067],[-123.672205,42.656104],[-123.670713,42.655663],[-123.670044,42.655209],[-123.6688,42.654962],[-123.668036,42.65494],[-123.666269,42.655226],[-123.665537,42.655576],[-123.663045,42.655941],[-123.662027,42.655947],[-123.661125,42.65636],[-123.66068,42.656922],[-123.657193,42.657756],[-123.6557,42.657983],[-123.653284,42.658159],[-123.651425,42.658382],[-123.649121,42.658452],[-123.647609,42.658597],[-123.646219,42.658608],[-123.645324,42.658753],[-123.643372,42.659348],[-123.641632,42.659144],[-123.639902,42.659178],[-123.63914,42.658987],[-123.635718,42.657394],[-123.634716,42.657125],[-123.633517,42.657037],[-123.630665,42.65653],[-123.629373,42.65602],[-123.62781,42.655294],[-123.624787,42.653984],[-123.622556,42.653498],[-123.621424,42.652979],[-123.620183,42.652184],[-123.619128,42.65163],[-123.618263,42.651001],[-123.616478,42.649863]]},"properties":{"OBJECTID":2,"fhdFtrID":1,"fhdRefID":53057,"fhdRevDt":"20161228","fhdONm":"Todd Confer","fhdOEnt":"ODFW","fhdSpNm":"Green sturgeon","fhdRun":"NA","fhdLifeHst":"Anadromous","fhdUseTy":"Spawning","fhdBasis":"DocObsFish","fhdStNm":"Rogue River","fhdGenus":"Acipenser","fhdSp":"medirostris","fhdSubSp":null,"fhdOrig":"NativeLocal","fhdProd":"Natural","fhdComment":null,"fhdESH":"NA","fhdBasisD":null,"fhdNMF":"yes","fhdBasisDt":null,"fhdBasisNm":null,"fhdBasisEnt":"ODFW","fhdBasisPrj":null,"fhdBasisMethod":"Radio tracking","Shape__Length":124024.24639238238,"fhdAccess":null,"fhdBarrierFtrID":null,"fhdEndExtent":null,"habitatType":"stream"},"id":2},
{"type":"Feature","geometry":{"type":"LineString","coordinates":[[-123.443643,43.267979],[-123.445541,43.268386],[-123.446536,43.268846],[-123.446796,43.269652],[-123.44677,43.270413],[-123.446345,43.273042],[-123.446318,43.274424],[-123.446401,43.275346],[-123.446749,43.27719],[-123.447501,43.278942],[-123.448367,43.280521],[-123.450548,43.283205],[-123.452424,43.284804],[-123.454443,43.286208],[-123.457207,43.28753],[-123.458958,43.288147],[-123.460403,43.288547],[-123.464597,43.289051],[-123.46561,43.289344],[-123.466813,43.289859],[-123.468027,43.290544],[-123.469326,43.291535],[-123.470381,43.292762],[-123.470675,43.293356],[-123.47095,43.294698],[-123.471008,43.297451],[-123.470712,43.298476],[-123.469762,43.299912],[-123.468845,43.30076],[-123.46591,43.302069],[-123.46471,43.302525],[-123.463554,43.302801],[-123.461041,43.303222],[-123.457628,43.30424],[-123.455977,43.305],[-123.455293,43.3055],[-123.45484,43.306661],[-123.45481,43.307225],[-123.45512,43.307893],[-123.456724,43.309433],[-123.457343,43.310536],[-123.457788,43.311629],[-123.45815,43.312871],[-123.459016,43.314388],[-123.459811,43.315024],[-123.460686,43.316233],[-123.461234,43.316781],[-123.461509,43.318416],[-123.460672,43.320123],[-123.460087,43.320837],[-123.458297,43.321806],[-123.457606,43.322584],[-123.455648,43.323893],[-123.452957,43.32496],[-123.4515,43.325591],[-123.449247,43.326194],[-123.447034,43.326695],[-123.446419,43.326755],[-123.443326,43.327462],[-123.441015,43.328366],[-123.440407,43.328817],[-123.439992,43.330261],[-123.44012,43.331392],[-123.441339,43.333034],[-123.442976,43.334122],[-123.443211,43.334643],[-123.444468,43.335791],[-123.445003,43.336743],[-123.445945,43.338049],[-123.447695,43.340035],[-123.449197,43.341527],[-123.450091,43.342313],[-123.451122,43.343609],[-123.452432,43.345014],[-123.45468,43.347233],[-123.456781,43.348725],[-123.457597,43.349806],[-123.458478,43.351581],[-123.460185,43.354226],[-123.461424,43.356517],[-123.461776,43.357315],[-123.463162,43.35958],[-123.465338,43.362203],[-123.466774,43.363816],[-123.469672,43.367291],[-123.4717,43.369428],[-123.474587,43.372103],[-123.476764,43.373916],[-123.478101,43.374851],[-123.47941,43.375321],[-123.480481,43.375481],[-123.484295,43.375492],[-123.486997,43.375318],[-123.488304,43.375286],[-123.489734,43.375444],[-123.492201,43.375869],[-123.495432,43.376525],[-123.496783,43.376465],[-123.500443,43.376044],[-123.501782,43.375824],[-123.502893,43.375759],[-123.508397,43.375304],[-123.509563,43.375106],[-123.511067,43.374648],[-123.512891,43.374508],[-123.513934,43.374822],[-123.51598,43.376243],[-123.517028,43.377266],[-123.519307,43.378908],[-123.52026,43.379381],[-123.522352,43.380592],[-123.524579,43.381708],[-123.525759,43.381984],[-123.528624,43.383737],[-123.53024,43.384474],[-123.531543,43.385164],[-123.533029,43.385615],[-123.534915,43.386023],[-123.53651,43.386596],[-123.537235,43.386711],[-123.538079,43.387123],[-123.538869,43.387799],[-123.540206,43.388513],[-123.542653,43.389484],[-123.543506,43.38999],[-123.54459,43.391546],[-123.544642,43.392323],[-123.54446,43.393223],[-123.543804,43.394415],[-123.542057,43.396474],[-123.540585,43.397503],[-123.538646,43.398274],[-123.535728,43.398642],[-123.533762,43.398652],[-123.530464,43.398585],[-123.527605,43.398788],[-123.525409,43.399236],[-123.52444,43.399676],[-123.523047,43.400727],[-123.522719,43.401414],[-123.522725,43.401998],[-123.523002,43.40273],[-123.523458,43.403329],[-123.524813,43.404141],[-123.527441,43.404865],[-123.528612,43.404916],[-123.531382,43.404848],[-123.532968,43.404977],[-123.535536,43.405288],[-123.537393,43.40582],[-123.540793,43.406477],[-123.542755,43.406767],[-123.546066,43.407076],[-123.548338,43.407551],[-123.553645,43.408801],[-123.555325,43.409429],[-123.55748,43.410094],[-123.558622,43.410365],[-123.560972,43.410623],[-123.562906,43.410533],[-123.568221,43.409675],[-123.569506,43.409527],[-123.572886,43.40881],[-123.574938,43.4085],[-123.578265,43.408376],[-123.581092,43.408335],[-123.583581,43.408571],[-123.58592,43.409045],[-123.587557,43.409657],[-123.588187,43.41011],[-123.589134,43.411535],[-123.589476,43.412384],[-123.589483,43.413203],[-123.588971,43.414363],[-123.588319,43.415348],[-123.587584,43.416054],[-123.586597,43.41678],[-123.585461,43.417403],[-123.584153,43.41793],[-123.582864,43.418292],[-123.579865,43.418768],[-123.57782,43.418859],[-123.574895,43.41909],[-123.572798,43.419074],[-123.571489,43.419215],[-123.570588,43.419438],[-123.568945,43.420065],[-123.568198,43.420481],[-123.567105,43.421398],[-123.566192,43.422839],[-123.566093,43.424257],[-123.566209,43.424885],[-123.566262,43.426378],[-123.566014,43.427479],[-123.565805,43.42909],[-123.565816,43.430362],[-123.566053,43.431869],[-123.567218,43.436631],[-123.567756,43.438309],[-123.568462,43.439919],[-123.568892,43.441242],[-123.570319,43.444581],[-123.570453,43.444656],[-123.572393,43.449117],[-123.57286,43.450639],[-123.573363,43.453125],[-123.573153,43.454943],[-123.572249,43.456544],[-123.571565,43.457237],[-123.570742,43.457496],[-123.569367,43.457693],[-123.567753,43.457647],[-123.565983,43.457467],[-123.56407,43.457476],[-123.561384,43.457184],[-123.559973,43.456664],[-123.558332,43.455875],[-123.557101,43.455102],[-123.556071,43.454197],[-123.553846,43.450818],[-123.553337,43.449346],[-123.553112,43.448289],[-123.552632,43.447481],[-123.550763,43.445315],[-123.548795,43.443846],[-123.547753,43.443269],[-123.546207,43.443084],[-123.544807,43.443118],[-123.543689,43.443393],[-123.542883,43.443798],[-123.541884,43.444671],[-123.540546,43.448295],[-123.540625,43.449164],[-123.540085,43.450859],[-123.540017,43.451574],[-123.540175,43.452759],[-123.539999,43.45349],[-123.540267,43.454652],[-123.540625,43.457346],[-123.540638,43.458618],[-123.540797,43.459635],[-123.541823,43.461451],[-123.54277,43.462911],[-123.543338,43.463461],[-123.543997,43.464777],[-123.544647,43.465761],[-123.545666,43.466685],[-123.547057,43.46766],[-123.549058,43.468693],[-123.55122,43.469562],[-123.553535,43.470625],[-123.555218,43.471593],[-123.555742,43.472158],[-123.556082,43.472931],[-123.556238,43.473806],[-123.555757,43.474999],[-123.554735,43.475594],[-123.552909,43.47598],[-123.551894,43.475793],[-123.550733,43.475293],[-123.550098,43.474895],[-123.547002,43.474016],[-123.545037,43.473776],[-123.542316,43.473814],[-123.541277,43.473684],[-123.539481,43.473259],[-123.535892,43.472055],[-123.531985,43.470056],[-123.529621,43.469662],[-123.529075,43.469666],[-123.526945,43.470112],[-123.524116,43.470872],[-123.520685,43.471486],[-123.519161,43.472502],[-123.518658,43.473035],[-123.518264,43.47463],[-123.51746,43.477008],[-123.516641,43.478685],[-123.515574,43.481044],[-123.514956,43.482778],[-123.514404,43.484073],[-123.513973,43.484725],[-123.513095,43.485504],[-123.511491,43.485979],[-123.508178,43.486183],[-123.506322,43.486002],[-123.503431,43.485426],[-123.502163,43.484768],[-123.501784,43.48383],[-123.501197,43.48308],[-123.500447,43.48254],[-123.49959,43.482148],[-123.496211,43.481292],[-123.49365,43.480701],[-123.493136,43.480182],[-123.490299,43.478895],[-123.488318,43.478373],[-123.485905,43.477501],[-123.484837,43.477559],[-123.482761,43.477243],[-123.481418,43.477255],[-123.48055,43.477563],[-123.479765,43.478061],[-123.479393,43.478584],[-123.479168,43.479366],[-123.479287,43.480315],[-123.479791,43.48142],[-123.480883,43.482672],[-123.481355,43.483787],[-123.481988,43.484269],[-123.483076,43.485589],[-123.484035,43.486419],[-123.486417,43.488882],[-123.487035,43.489599],[-123.487633,43.490806],[-123.488533,43.493993],[-123.489102,43.495322],[-123.489988,43.496437],[-123.491131,43.498157],[-123.491975,43.498968],[-123.493006,43.500634],[-123.494003,43.501532],[-123.495734,43.504203],[-123.496662,43.505231],[-123.4984,43.506507],[-123.499577,43.506947],[-123.50208,43.507682],[-123.503822,43.508292],[-123.507351,43.509652],[-123.508995,43.510363],[-123.513732,43.5121],[-123.516683,43.513051],[-123.519724,43.514348],[-123.520707,43.515029],[-123.521293,43.515583],[-123.523099,43.517972],[-123.524207,43.51902],[-123.526074,43.520255],[-123.527942,43.520691],[-123.529372,43.522355],[-123.530229,43.522998],[-123.533086,43.524218],[-123.534269,43.525002],[-123.535776,43.525395],[-123.53744,43.525473],[-123.539013,43.525178],[-123.54066,43.524975],[-123.54346,43.524994],[-123.54614,43.525819],[-123.548866,43.526821],[-123.554332,43.528508],[-123.559247,43.530105],[-123.561662,43.531035],[-123.563756,43.532153],[-123.566677,43.534383],[-123.567768,43.535515],[-123.573132,43.539391],[-123.575559,43.541429],[-123.576671,43.542843],[-123.576978,43.543601],[-123.576984,43.544349],[-123.576578,43.545381],[-123.575629,43.547034],[-123.574737,43.548104],[-123.573862,43.548943],[-123.570872,43.551011],[-123.568171,43.552434],[-123.566555,43.553208],[-123.56417,43.554023],[-123.562349,43.554474],[-123.558633,43.554819],[-123.556143,43.554776],[-123.552883,43.554537],[-123.55056,43.554318],[-123.547523,43.553788],[-123.546395,43.553414],[-123.544307,43.552379],[-123.540784,43.550037],[-123.539296,43.5487],[-123.538014,43.547205],[-123.537461,43.546409],[-123.536577,43.54409],[-123.53585,43.542423],[-123.53528,43.541312],[-123.534289,43.539846],[-123.532515,43.538329],[-123.531182,43.537371],[-123.529379,43.536462],[-123.526902,43.536006],[-123.519056,43.536015],[-123.51804,43.536049],[-123.515234,43.536303],[-123.513847,43.536338],[-123.512505,43.536477],[-123.509799,43.536978],[-123.507081,43.537804],[-123.505074,43.538571],[-123.50405,43.539158],[-123.503031,43.539987],[-123.501626,43.5416],[-123.501064,43.542471],[-123.500669,43.543589],[-123.500343,43.545107],[-123.500315,43.546264],[-123.500621,43.547521],[-123.500785,43.548776],[-123.501053,43.549902],[-123.502126,43.552174],[-123.502906,43.55313],[-123.503353,43.553433],[-123.503887,43.554342],[-123.504597,43.555032],[-123.505725,43.555754],[-123.506834,43.556205],[-123.508298,43.556638],[-123.509516,43.556822],[-123.510814,43.556595],[-123.51244,43.556183],[-123.514091,43.555644],[-123.515362,43.555421],[-123.51751,43.555193],[-123.518691,43.555187],[-123.520179,43.55562],[-123.521265,43.556427],[-123.522113,43.557612],[-123.522418,43.558429],[-123.522934,43.560467],[-123.523954,43.562627],[-123.524554,43.56356],[-123.525718,43.564941],[-123.527472,43.566306],[-123.528448,43.567182],[-123.530651,43.569619],[-123.53138,43.570504],[-123.532711,43.571927],[-123.534559,43.574266],[-123.535431,43.57618],[-123.535893,43.57762],[-123.536267,43.578256],[-123.536608,43.579352],[-123.536656,43.580154],[-123.536396,43.580786],[-123.535766,43.581775],[-123.535113,43.582287],[-123.534423,43.58245],[-123.532559,43.582488],[-123.530441,43.582443],[-123.528345,43.582081],[-123.526074,43.58178],[-123.522964,43.581043],[-123.521203,43.580455],[-123.520253,43.580046],[-123.518885,43.579093],[-123.518285,43.578447],[-123.517292,43.576188],[-123.515493,43.57459],[-123.513687,43.573565],[-123.512132,43.573076],[-123.510551,43.573058],[-123.508731,43.573812],[-123.505995,43.57478],[-123.503882,43.575756],[-123.502315,43.577157],[-123.502016,43.578509],[-123.502201,43.579192],[-123.501908,43.580159],[-123.501217,43.5814],[-123.501193,43.582767],[-123.501504,43.583652],[-123.502416,43.584796],[-123.505058,43.587019],[-123.506331,43.587932],[-123.507895,43.588564],[-123.508686,43.588731],[-123.511184,43.58896],[-123.512496,43.588927],[-123.513501,43.588728],[-123.516583,43.587645],[-123.518077,43.587258],[-123.519799,43.586949],[-123.523459,43.586476],[-123.524367,43.586551],[-123.526912,43.587196],[-123.528439,43.58834],[-123.529268,43.589867],[-123.529585,43.591317],[-123.530121,43.593098],[-123.530876,43.595235],[-123.531158,43.596376],[-123.531733,43.597467],[-123.532515,43.598585],[-123.533503,43.599407],[-123.53464,43.599841],[-123.536015,43.600192],[-123.537197,43.600186],[-123.539511,43.599544],[-123.540844,43.598436],[-123.543888,43.59638],[-123.544807,43.595485],[-123.546303,43.594466],[-123.547442,43.594054],[-123.548329,43.593354],[-123.550201,43.591066],[-123.550337,43.590654],[-123.551017,43.589996],[-123.551853,43.589821],[-123.553613,43.589186],[-123.555287,43.58839],[-123.555734,43.588006],[-123.556158,43.587219],[-123.557907,43.585945],[-123.55981,43.584734],[-123.562119,43.583387],[-123.563502,43.582476],[-123.567972,43.580405],[-123.570353,43.579447],[-123.574095,43.578268],[-123.576516,43.577846],[-123.57768,43.577923],[-123.578546,43.578137],[-123.581659,43.579734],[-123.582811,43.580198],[-123.583667,43.580666],[-123.587542,43.582157],[-123.589239,43.582765],[-123.592455,43.584287],[-123.594481,43.585159],[-123.596292,43.58613],[-123.600562,43.588647],[-123.603482,43.589933],[-123.606112,43.590924],[-123.607864,43.591482],[-123.609829,43.591982],[-123.613946,43.592807],[-123.615565,43.593221],[-123.616717,43.593785],[-123.617802,43.594562],[-123.619412,43.59609],[-123.620253,43.597632],[-123.620906,43.599968],[-123.620924,43.601351],[-123.620491,43.602901],[-123.619909,43.604649],[-123.619004,43.606786],[-123.618412,43.607748],[-123.617228,43.608844],[-123.616032,43.609563],[-123.615136,43.610333],[-123.613114,43.612714],[-123.611311,43.613887],[-123.608901,43.614813],[-123.607804,43.614875],[-123.606154,43.614584],[-123.604598,43.614141],[-123.602347,43.613833],[-123.598904,43.61349],[-123.596333,43.613184],[-123.593963,43.612977],[-123.587064,43.612285],[-123.584677,43.612325],[-123.582556,43.612696],[-123.581789,43.613119],[-123.580735,43.614033],[-123.577965,43.616154],[-123.576002,43.617899],[-123.575186,43.618702],[-123.574446,43.619743],[-123.573436,43.620827],[-123.571277,43.623742],[-123.569934,43.62507],[-123.568187,43.627296],[-123.566893,43.629482],[-123.566555,43.630389],[-123.566598,43.631033],[-123.566877,43.631786],[-123.567685,43.632726],[-123.56811,43.633482],[-123.568741,43.63363],[-123.569473,43.634199],[-123.570376,43.635586],[-123.57219,43.636779],[-123.573719,43.637636],[-123.576138,43.638458],[-123.577725,43.638833],[-123.579468,43.639095],[-123.58066,43.63917],[-123.58724,43.639973],[-123.588553,43.640075],[-123.591827,43.640112],[-123.594034,43.640182],[-123.595991,43.64039],[-123.597689,43.640844],[-123.598914,43.641266],[-123.60046,43.64198],[-123.601872,43.642496],[-123.605323,43.643983],[-123.606915,43.644482],[-123.609001,43.644998],[-123.612695,43.646113],[-123.615346,43.64707],[-123.621722,43.649557],[-123.622365,43.649747],[-123.624219,43.65004],[-123.626151,43.650167],[-123.629987,43.650115],[-123.632165,43.649999],[-123.634633,43.649684],[-123.635611,43.649493],[-123.637774,43.648739],[-123.639819,43.647832],[-123.640961,43.647155],[-123.64277,43.645739],[-123.645118,43.643598],[-123.647189,43.642407],[-123.648888,43.641909],[-123.650067,43.641903],[-123.650975,43.642122],[-123.652403,43.642995],[-123.652853,43.643153],[-123.654577,43.643251],[-123.656737,43.642642],[-123.657997,43.642149],[-123.660833,43.640611],[-123.662252,43.640152],[-123.662895,43.639739],[-123.663688,43.638855],[-123.665869,43.63741],[-123.667359,43.636565],[-123.668389,43.636184],[-123.669549,43.635932],[-123.671424,43.635864],[-123.672807,43.636104],[-123.674014,43.636798],[-123.674722,43.63767],[-123.67489,43.639125],[-123.674709,43.639879],[-123.674265,43.640821],[-123.673563,43.641804],[-123.67274,43.642633],[-123.671528,43.643581],[-123.670469,43.644526],[-123.666608,43.647349],[-123.663568,43.649809],[-123.66275,43.650611],[-123.660846,43.652966],[-123.659233,43.655298],[-123.658583,43.656342],[-123.656804,43.658557],[-123.655971,43.659693],[-123.6552,43.661],[-123.654105,43.663399],[-123.65378,43.664612],[-123.653681,43.665841],[-123.653698,43.667306],[-123.653609,43.669456],[-123.653631,43.671445],[-123.653721,43.672867],[-123.653759,43.676216],[-123.653975,43.678843],[-123.654173,43.679505],[-123.655114,43.680953],[-123.656476,43.681961],[-123.658057,43.682643],[-123.660198,43.682924],[-123.663334,43.682912],[-123.664822,43.682793],[-123.666735,43.682292],[-123.668214,43.681618],[-123.669614,43.68064],[-123.671183,43.679702],[-123.674019,43.678234],[-123.677118,43.676469],[-123.680071,43.675227],[-123.681603,43.674838],[-123.683813,43.674382],[-123.685562,43.673692],[-123.687561,43.67268],[-123.690897,43.670521],[-123.693317,43.668569],[-123.693857,43.667927],[-123.694975,43.667293],[-123.696301,43.666177],[-123.697672,43.665244],[-123.69987,43.663515],[-123.701338,43.662214],[-123.704116,43.66019],[-123.705325,43.659596],[-123.707517,43.658305],[-123.708459,43.657857],[-123.710577,43.657236],[-123.714361,43.657051],[-123.719012,43.65664],[-123.720534,43.656447],[-123.721671,43.656435],[-123.723262,43.656235],[-123.725615,43.656058],[-123.72901,43.65612],[-123.731511,43.656318],[-123.734732,43.656378],[-123.737703,43.65636],[-123.740944,43.656446],[-123.744903,43.656123],[-123.74696,43.656056],[-123.749339,43.656067],[-123.754232,43.655846],[-123.760537,43.656102],[-123.762094,43.656281],[-123.766835,43.656222],[-123.773695,43.655716],[-123.776333,43.655671],[-123.77881,43.655709],[-123.780808,43.655803],[-123.782526,43.656012],[-123.785279,43.656478],[-123.788547,43.657595],[-123.789639,43.658072],[-123.791554,43.659491],[-123.792213,43.660232],[-123.792789,43.661157],[-123.793177,43.66219],[-123.793378,43.663298],[-123.793552,43.665018],[-123.793501,43.666781],[-123.793332,43.668047],[-123.793346,43.669127],[-123.793632,43.6709],[-123.79444,43.672721],[-123.795581,43.673594],[-123.796213,43.673845],[-123.797794,43.674106],[-123.798788,43.674128],[-123.799838,43.673954],[-123.802426,43.672922],[-123.803234,43.672273],[-123.804883,43.671741],[-123.808103,43.670869],[-123.808681,43.6705],[-123.808984,43.669985],[-123.809629,43.667966],[-123.809575,43.66657],[-123.808568,43.665822],[-123.808318,43.665173],[-123.807796,43.664492],[-123.807863,43.663985],[-123.807477,43.662862],[-123.807258,43.660353],[-123.807646,43.658352],[-123.808188,43.657131],[-123.809108,43.655899],[-123.811536,43.653413],[-123.812542,43.652732],[-123.814693,43.652244],[-123.816403,43.652231],[-123.817418,43.652332],[-123.819934,43.653093],[-123.821787,43.653544],[-123.823516,43.653849],[-123.82682,43.654237],[-123.827836,43.654171],[-123.830462,43.653741],[-123.833824,43.65264],[-123.836306,43.651892],[-123.841246,43.649728],[-123.84411,43.648743],[-123.845241,43.648408],[-123.846874,43.648205],[-123.849967,43.648542],[-123.850603,43.648752],[-123.852148,43.649797],[-123.852807,43.650399],[-123.853751,43.651996],[-123.854786,43.655169],[-123.85574,43.656728],[-123.856353,43.657357],[-123.858217,43.658228],[-123.859222,43.658449],[-123.860794,43.658632],[-123.863017,43.658616],[-123.865272,43.658382],[-123.867456,43.657927],[-123.869161,43.657481],[-123.871402,43.656757],[-123.873758,43.656186],[-123.875633,43.655805],[-123.876509,43.655367],[-123.877629,43.655233],[-123.879018,43.654817],[-123.880488,43.654218],[-123.881511,43.653582],[-123.883616,43.652513],[-123.885172,43.652096],[-123.886733,43.651921],[-123.88701,43.651798],[-123.890575,43.651405],[-123.891298,43.651197],[-123.895199,43.650883],[-123.899439,43.650809],[-123.900503,43.651084],[-123.901284,43.651078],[-123.905604,43.652584],[-123.906615,43.653062],[-123.908023,43.653902],[-123.90909,43.654339],[-123.916592,43.659587],[-123.917384,43.66031],[-123.917727,43.660834],[-123.918933,43.661961],[-123.919266,43.662929],[-123.919662,43.66329],[-123.919725,43.663776],[-123.920238,43.664501],[-123.920819,43.665996],[-123.921903,43.667527],[-123.922526,43.668089],[-123.922723,43.668937],[-123.924269,43.670948],[-123.924878,43.671843],[-123.926953,43.674222],[-123.928038,43.675764],[-123.929295,43.678829],[-123.92998,43.679895],[-123.93196,43.681265],[-123.933007,43.681817],[-123.933806,43.682103],[-123.936852,43.682712],[-123.941001,43.684254],[-123.943914,43.685244],[-123.945513,43.685606],[-123.948003,43.686069],[-123.950888,43.686426],[-123.95529,43.687408],[-123.957759,43.688181],[-123.960228,43.689163],[-123.963053,43.689996],[-123.965998,43.691245],[-123.968556,43.691899],[-123.97208,43.692583],[-123.976244,43.693148],[-123.981777,43.693654],[-123.985048,43.693803],[-123.989242,43.693862],[-123.990372,43.693981],[-123.994016,43.69471],[-123.996604,43.695483],[-123.997674,43.695691],[-124.00053,43.696524],[-124.001898,43.696762],[-124.006032,43.697714],[-124.009765,43.698428],[-124.013959,43.699052],[-124.016249,43.699231],[-124.018599,43.699261],[-124.021305,43.699201],[-124.023373,43.699082],[-124.025752,43.698814],[-124.028637,43.698666],[-124.031284,43.698458],[-124.036398,43.697748],[-124.03869,43.697476],[-124.041129,43.697119],[-124.043999,43.696762],[-124.047926,43.696435],[-124.048833,43.696257],[-124.051926,43.695483],[-124.054335,43.695156],[-124.056536,43.69468],[-124.058142,43.694531],[-124.061176,43.694383],[-124.063169,43.69465],[-124.064612,43.695037],[-124.066961,43.69587],[-124.068954,43.696703],[-124.069965,43.697208],[-124.072642,43.698844],[-124.075438,43.700153],[-124.076747,43.700569],[-124.081074,43.701819],[-124.08396,43.702904],[-124.085923,43.703737],[-124.088897,43.705462],[-124.089551,43.705938],[-124.093626,43.707723],[-124.095842,43.708466],[-124.099709,43.709507],[-124.103456,43.710667],[-124.105806,43.711619],[-124.106494,43.712573],[-124.107612,43.71381],[-124.108707,43.715309],[-124.109111,43.716047],[-124.10923,43.716666],[-124.10904,43.717713],[-124.108493,43.719116],[-124.108302,43.720544],[-124.109281,43.720909],[-124.110601,43.722301],[-124.111815,43.723908],[-124.114206,43.727727],[-124.114813,43.728833],[-124.115455,43.730296],[-124.116312,43.732545],[-124.116669,43.733687],[-124.11724,43.736186],[-124.117847,43.737399],[-124.118668,43.73847],[-124.120666,43.740469],[-124.122879,43.742146],[-124.124878,43.743538],[-124.127162,43.74493],[-124.129804,43.745965],[-124.131445,43.746465],[-124.132802,43.74675],[-124.134551,43.746965],[-124.137656,43.747214],[-124.139191,43.747143],[-124.141582,43.746715],[-124.145044,43.745573],[-124.147471,43.744323],[-124.149898,43.74286],[-124.151897,43.741468],[-124.153325,43.739933],[-124.155323,43.735864],[-124.155966,43.733295],[-124.156537,43.729654],[-124.156965,43.726656],[-124.157108,43.721659],[-124.157046,43.715921],[-124.157617,43.713865],[-124.158188,43.71238],[-124.158416,43.711238],[-124.159559,43.708754],[-124.160358,43.707498],[-124.1619,43.704071],[-124.162471,43.702529],[-124.163099,43.700359],[-124.163727,43.699103],[-124.166097,43.697076],[-124.168267,43.695648],[-124.171351,43.693364],[-124.173007,43.692279],[-124.174663,43.691365],[-124.17769,43.689937],[-124.179974,43.688966],[-124.182601,43.687939],[-124.183572,43.68731],[-124.185,43.686568],[-124.186999,43.685768],[-124.18854,43.684855],[-124.18934,43.683941],[-124.190139,43.682742],[-124.190425,43.681428],[-124.190653,43.679829],[-124.190996,43.678744],[-124.191567,43.677945],[-124.193766,43.675746],[-124.194908,43.674718],[-124.196164,43.673462],[-124.199362,43.671749],[-124.203303,43.670264],[-124.205301,43.66975],[-124.2077,43.669236],[-124.208785,43.669179],[-124.214153,43.668608],[-124.218429,43.668518]]},"properties":{"OBJECTID":3,"fhdFtrID":2,"fhdRefID":53240,"fhdRevDt":"20170413","fhdONm":"Unknown","fhdOEnt":"ODFW","fhdSpNm":"Green sturgeon","fhdRun":"NA","fhdLifeHst":"Anadromous","fhdUseTy":"Unknown","fhdBasis":"DocObsFish","fhdStNm":"Umpqua River","fhdGenus":"Acipenser","fhdSp":"medirostris","fhdSubSp":null,"fhdOrig":"NativeLocal","fhdProd":"Natural","fhdComment":null,"fhdESH":"NA","fhdBasisD":null,"fhdNMF":"yes","fhdBasisDt":null,"fhdBasisNm":null,"fhdBasisEnt":null,"fhdBasisPrj":null,"fhdBasisMethod":null,"Shape__Length":247905.04835622854,"fhdAccess":null,"fhdBarrierFtrID":null,"fhdEndExtent":null,"habitatType":"stream"},"id":3},
{"type":"Feature","geometry":{"type":"LineString","coordinates":[[-123.970372,45.159361],[-123.969154,45.159624],[-123.968024,45.160123],[-123.967667,45.160456],[-123.967429,45.161384],[-123.966977,45.162039],[-123.965133,45.163538],[-123.96455,45.164097],[-123.963265,45.166155],[-123.961219,45.168202],[-123.960315,45.169296],[-123.959387,45.170248],[-123.958399,45.171688],[-123.956163,45.175376],[-123.955972,45.175875],[-123.956049,45.177847],[-123.956328,45.178881],[-123.956404,45.179766],[-123.956223,45.181556],[-123.956033,45.182574],[-123.955595,45.184068],[-123.955652,45.186086],[-123.9551,45.18739],[-123.954881,45.188266],[-123.9549,45.189503],[-123.955281,45.190788],[-123.955699,45.191702],[-123.95687,45.193415],[-123.957651,45.193986],[-123.958745,45.194433],[-123.96062,45.195052],[-123.962029,45.195661],[-123.963361,45.196365],[-123.964713,45.19745],[-123.965141,45.198288],[-123.965332,45.199126],[-123.965328,45.200465],[-123.964947,45.201572],[-123.964608,45.203094],[-123.964317,45.203719],[-123.962978,45.205063],[-123.961253,45.206444],[-123.960825,45.206872],[-123.959582,45.20868],[-123.959225,45.209073],[-123.956976,45.210959],[-123.955685,45.211494],[-123.953615,45.211934],[-123.951955,45.212],[-123.950355,45.211446],[-123.948737,45.210411],[-123.948057,45.209517],[-123.948003,45.208941],[-123.948305,45.206927]]},"properties":{"OBJECTID":4,"fhdFtrID":3,"fhdRefID":53644,"fhdRevDt":"20170413","fhdONm":"Unknown","fhdOEnt":"USFWS","fhdSpNm":"Green sturgeon","fhdRun":"NA","fhdLifeHst":"Anadromous","fhdUseTy":"Unknown","fhdBasis":"DocObsFish","fhdStNm":"Nestucca Bay","fhdGenus":"Acipenser","fhdSp":"medirostris","fhdSubSp":null,"fhdOrig":"NativeLocal","fhdProd":"Natural","fhdComment":"Reported by NESTUCCA BAY NATIONAL WILDLIFE REFUGE","fhdESH":"NA","fhdBasisD":null,"fhdNMF":"yes","fhdBasisDt":null,"fhdBasisNm":null,"fhdBasisEnt":null,"fhdBasisPrj":null,"fhdBasisMethod":null,"Shape__Length":11116.696852679013,"fhdAccess":null,"fhdBarrierFtrID":null,"fhdEndExtent":null,"habitatType":"stream"},"id":4},
{"type":"Feature","geometry":{"type":"LineString","coordinates":[[-123.922122,45.159735],[-123.924948,45.15925],[-123.926005,45.159279],[-123.929112,45.159812],[-123.930202,45.159869],[-123.932227,45.159671],[-123.933398,45.159671],[-123.935532,45.160257],[-123.937888,45.161384],[-123.939758,45.162527],[-123.941264,45.163664],[-123.94342,45.166048],[-123.944177,45.166719],[-123.944776,45.167647],[-123.944876,45.168504],[-123.944791,45.169575],[-123.945105,45.17183],[-123.945519,45.172701],[-123.946304,45.173643],[-123.946789,45.174957],[-123.947346,45.175999],[-123.947446,45.176656],[-123.947218,45.177869],[-123.947346,45.178797],[-123.947932,45.179811],[-123.948545,45.180125],[-123.95023,45.180025],[-123.950816,45.180125],[-123.951629,45.180553],[-123.952415,45.182324],[-123.953057,45.182524],[-123.953842,45.182252],[-123.95467,45.181738],[-123.955013,45.181253],[-123.955099,45.179297],[-123.955541,45.178355],[-123.956049,45.177847]]},"properties":{"OBJECTID":5,"fhdFtrID":4,"fhdRefID":53644,"fhdRevDt":"20170413","fhdONm":"Unknown","fhdOEnt":"USFWS","fhdSpNm":"Green sturgeon","fhdRun":"NA","fhdLifeHst":"Anadromous","fhdUseTy":"Unknown","fhdBasis":"DocObsFish","fhdStNm":"Nestucca Bay","fhdGenus":"Acipenser","fhdSp":"medirostris","fhdSubSp":null,"fhdOrig":"NativeLocal","fhdProd":"Natural","fhdComment":"Reported by NESTUCCA BAY NATIONAL WILDLIFE REFUGE","fhdESH":"NA","fhdBasisD":null,"fhdNMF":"yes","fhdBasisDt":null,"fhdBasisNm":null,"fhdBasisEnt":null,"fhdBasisPrj":null,"fhdBasisMethod":null,"Shape__Length":6815.47637686258,"fhdAccess":null,"fhdBarrierFtrID":null,"fhdEndExtent":null,"habitatType":"stream"},"id":5},
{"type":"Feature","geometry":{"type":"LineString","coordinates":[[-124.366802,43.157104],[-124.369553,43.154492],[-124.371865,43.151974],[-124.372869,43.150701],[-124.373869,43.149208],[-124.374454,43.148607],[-124.376239,43.147314],[-124.378385,43.146495],[-124.379917,43.146024],[-124.382054,43.145674],[-124.385194,43.145605],[-124.388205,43.145773],[-124.389557,43.146048],[-124.391893,43.146816],[-124.392846,43.147056],[-124.395902,43.147038],[-124.401115,43.146267],[-124.404558,43.145279],[-124.407745,43.143596],[-124.410257,43.141547],[-124.411249,43.140622],[-124.411748,43.13986],[-124.412268,43.138151],[-124.411901,43.13368],[-124.411492,43.129758],[-124.409597,43.125397],[-124.409576,43.123469],[-124.410327,43.12241],[-124.413069,43.121354],[-124.414071,43.12109],[-124.421927,43.122242],[-124.426877,43.123002],[-124.430682,43.123894]]},"properties":{"OBJECTID":6,"fhdFtrID":5,"fhdRefID":53644,"fhdRevDt":"20170413","fhdONm":"Unknown","fhdOEnt":"USFWS","fhdSpNm":"Green sturgeon","fhdRun":"NA","fhdLifeHst":"Anadromous","fhdUseTy":"Unknown","fhdBasis":"DocObsFish","fhdStNm":"Coquille River","fhdGenus":"Acipenser","fhdSp":"medirostris","fhdSubSp":null,"fhdOrig":"NativeLocal","fhdProd":"Natural","fhdComment":"Observed at BANDON MARSH NATIONAL WILDLIFE REFUGE","fhdESH":"NA","fhdBasisD":null,"fhdNMF":"yes","fhdBasisDt":null,"fhdBasisNm":null,"fhdBasisEnt":null,"fhdBasisPrj":null,"fhdBasisMethod":null,"Shape__Length":11374.692971019664,"fhdAccess":null,"fhdBarrierFtrID":null,"fhdEndExtent":null,"habitatType":"stream"},"id":6},
{"type":"Feature","geometry":{"type":"LineString","coordinates":[[-121.940695,45.644401],[-121.941617,45.644792],[-121.943245,45.644918],[-121.948681,45.644995],[-121.951732,45.644775],[-121.95504,45.64376],[-121.956002,45.642827],[-121.95733,45.639315],[-121.959019,45.637894],[-121.960935,45.635781],[-121.962326,45.634047],[-121.964101,45.632483],[-121.965735,45.631364],[-121.976906,45.626296],[-121.982572,45.624847],[-121.993601,45.620239],[-121.999213,45.618678],[-122.008651,45.617725],[-122.021202,45.615575],[-122.039647,45.610857],[-122.070674,45.597758],[-122.089905,45.591248],[-122.111359,45.583966],[-122.126211,45.582894],[-122.133502,45.582338],[-122.143035,45.581717],[-122.166119,45.575392],[-122.177692,45.568377],[-122.193331,45.564059],[-122.202975,45.561191],[-122.212683,45.558415],[-122.212954,45.558355],[-122.22707,45.556137],[-122.235282,45.553658],[-122.240935,45.552173],[-122.249056,45.550236],[-122.258121,45.548217],[-122.266853,45.546969],[-122.284731,45.545189],[-122.299869,45.54441],[-122.308185,45.544421],[-122.325672,45.548416],[-122.331355,45.550851],[-122.338495,45.555745],[-122.343783,45.559998],[-122.346248,45.564056],[-122.350567,45.567892],[-122.359304,45.571933],[-122.368215,45.572923],[-122.368502,45.57293],[-122.38462,45.572271],[-122.396725,45.571286],[-122.399111,45.572044],[-122.401344,45.571258],[-122.407946,45.569866],[-122.414969,45.568759],[-122.421946,45.567449],[-122.439803,45.564186],[-122.443475,45.564926],[-122.453544,45.567614],[-122.465116,45.573994],[-122.469563,45.576467],[-122.480217,45.582148],[-122.487453,45.58299],[-122.5241,45.586181],[-122.544766,45.595772],[-122.546736,45.59631],[-122.582402,45.601418],[-122.623711,45.607324],[-122.639221,45.60954],[-122.6626,45.616752],[-122.674687,45.620655],[-122.688481,45.625787],[-122.690264,45.62661],[-122.703529,45.633051],[-122.713902,45.637834],[-122.720567,45.639994],[-122.726435,45.641693],[-122.7349,45.643742],[-122.737475,45.644586],[-122.747638,45.646683],[-122.761062,45.65457],[-122.764862,45.658297],[-122.766448,45.661041],[-122.767706,45.663461],[-122.767815,45.664164],[-122.775693,45.679097],[-122.776142,45.686405],[-122.776235,45.688644],[-122.771104,45.701898],[-122.767933,45.710956],[-122.766402,45.715603],[-122.763842,45.722751],[-122.760763,45.731562],[-122.759695,45.734233],[-122.759196,45.740208],[-122.759545,45.743884],[-122.760307,45.750379],[-122.760424,45.759334],[-122.763207,45.768339],[-122.765586,45.773563],[-122.767723,45.777723],[-122.768467,45.779008],[-122.768654,45.77988],[-122.769869,45.781658],[-122.773661,45.785681],[-122.776224,45.78876],[-122.780276,45.793091],[-122.783035,45.796197],[-122.786077,45.800066],[-122.789142,45.8032],[-122.795149,45.810339],[-122.795121,45.825142],[-122.790628,45.8342],[-122.785466,45.844141],[-122.784484,45.846061],[-122.784495,45.847129],[-122.784791,45.849364],[-122.784938,45.851866],[-122.784948,45.855542],[-122.784785,45.857565],[-122.784743,45.866147],[-122.784586,45.867028],[-122.784647,45.868495],[-122.791767,45.877298],[-122.79499,45.881392],[-122.797679,45.884658],[-122.801573,45.889097],[-122.808186,45.901922],[-122.807936,45.906085],[-122.807583,45.908434],[-122.806562,45.918731],[-122.806113,45.92234],[-122.804741,45.929044],[-122.805087,45.932532],[-122.805563,45.939093],[-122.806207,45.94832],[-122.811213,45.956521],[-122.81263,45.958927],[-122.8142,45.961365],[-122.814677,45.961884],[-122.817976,45.964534],[-122.822236,45.968363],[-122.826323,45.971667],[-122.829628,45.974422],[-122.831056,45.975874],[-122.832469,45.976974],[-122.833892,45.978321],[-122.835776,45.979764],[-122.837341,45.980861],[-122.837996,45.981977],[-122.841131,45.98784],[-122.844581,45.993979],[-122.847711,45.999701],[-122.849827,46.003721],[-122.853131,46.00983],[-122.855144,46.013626],[-122.85548,46.014395],[-122.857522,46.01594],[-122.863508,46.020862],[-122.866446,46.023235],[-122.869334,46.025359],[-122.871374,46.027206],[-122.872681,46.028195],[-122.875167,46.029844],[-122.876729,46.031116],[-122.877866,46.03307],[-122.878339,46.035973],[-122.878901,46.038228],[-122.879509,46.03995],[-122.88051,46.044266],[-122.880886,46.047132],[-122.882345,46.05381],[-122.883032,46.056766],[-122.883492,46.05916],[-122.884182,46.06102],[-122.884718,46.064014],[-122.889464,46.071516],[-122.892909,46.075969],[-122.902414,46.083017],[-122.904614,46.084526],[-122.91272,46.08743],[-122.922432,46.091006],[-122.927132,46.092709],[-122.932139,46.09438],[-122.961884,46.105518],[-122.988977,46.119469],[-123.00124,46.131732],[-123.005041,46.13509],[-123.034471,46.144316],[-123.056928,46.156777],[-123.074266,46.161343],[-123.111557,46.181867],[-123.120139,46.18676],[-123.141502,46.187954],[-123.166871,46.189428],[-123.205387,46.176207],[-123.231714,46.167164],[-123.23241,46.166901],[-123.246048,46.160278],[-123.264736,46.151461],[-123.269381,46.150569],[-123.296571,46.145893],[-123.313644,46.14302],[-123.33078,46.144641],[-123.355914,46.147124],[-123.390127,46.150622],[-123.39964,46.157813],[-123.427959,46.180166],[-123.429188,46.19116],[-123.423778,46.21518],[-123.422659,46.219553],[-123.427707,46.230941],[-123.430709,46.23804],[-123.431419,46.239982],[-123.43913,46.245454],[-123.457002,46.257768],[-123.464662,46.263135],[-123.473085,46.264875],[-123.482867,46.266876],[-123.501263,46.27082],[-123.520056,46.265965],[-123.541013,46.260622],[-123.564663,46.258518],[-123.585915,46.25665],[-123.604581,46.257632],[-123.622916,46.25843],[-123.640201,46.259193],[-123.649194,46.259503],[-123.665797,46.255525],[-123.67286,46.257232],[-123.685135,46.260261],[-123.704554,46.262943],[-123.738686,46.271644],[-123.749572,46.271496],[-123.787927,46.264745],[-123.799865,46.258356],[-123.806913,46.252179],[-123.827822,46.246715],[-123.846117,46.241938],[-123.871886,46.235278],[-123.88914,46.236522],[-123.893188,46.236825],[-123.904881,46.237657],[-123.91508,46.238422],[-123.935248,46.243531],[-123.963478,46.249831],[-124.001274,46.253574],[-124.01926,46.255344],[-124.036025,46.258257],[-124.056589,46.258375],[-124.062354,46.256713],[-124.07999,46.254451],[-124.083015,46.250005]]},"properties":{"OBJECTID":7,"fhdFtrID":6,"fhdRefID":53240,"fhdRevDt":"20170413","fhdONm":"Unknown","fhdOEnt":"ODFW","fhdSpNm":"Green sturgeon","fhdRun":"NA","fhdLifeHst":"Anadromous","fhdUseTy":"Unknown","fhdBasis":"DocObsFish","fhdStNm":"Columbia River","fhdGenus":"Acipenser","fhdSp":"medirostris","fhdSubSp":null,"fhdOrig":"NativeLocal","fhdProd":"Natural","fhdComment":null,"fhdESH":"NA","fhdBasisD":null,"fhdNMF":"yes","fhdBasisDt":null,"fhdBasisNm":null,"fhdBasisEnt":null,"fhdBasisPrj":null,"fhdBasisMethod":null,"Shape__Length":330597.3282631917,"fhdAccess":null,"fhdBarrierFtrID":null,"fhdEndExtent":null,"habitatType":"stream"},"id":7},
{"type":"Feature","geometry":{"type":"LineString","coordinates":[[-124.348937,43.35659],[-124.336326,43.353357],[-124.335249,43.353126],[-124.333961,43.352574],[-124.328783,43.353279],[-124.326606,43.353707],[-124.323822,43.354528],[-124.322394,43.355206],[-124.320574,43.356991],[-124.320003,43.357848],[-124.319182,43.359525],[-124.31804,43.362095],[-124.316505,43.364272],[-124.314047,43.36625],[-124.312155,43.367347],[-124.311132,43.36838],[-124.305524,43.372612],[-124.303781,43.373868],[-124.301679,43.375505],[-124.30008,43.376599],[-124.299069,43.377578],[-124.298049,43.378128],[-124.296565,43.379408],[-124.292865,43.382192],[-124.292645,43.382671],[-124.290422,43.384842],[-124.287572,43.389578],[-124.28624,43.391494],[-124.284713,43.393913],[-124.284057,43.395322],[-124.282948,43.396793],[-124.282374,43.3977],[-124.281335,43.399655],[-124.280098,43.40122],[-124.279779,43.402375],[-124.278605,43.40524],[-124.278424,43.406443],[-124.277782,43.408552],[-124.277693,43.410854],[-124.277048,43.412813],[-124.276669,43.414368],[-124.276008,43.415577],[-124.274796,43.416691],[-124.274096,43.4177],[-124.272946,43.418513],[-124.271938,43.419525],[-124.269976,43.420898],[-124.268281,43.421917],[-124.266438,43.422438],[-124.262671,43.42283],[-124.259458,43.423516],[-124.256441,43.423699],[-124.254662,43.423969],[-124.252744,43.42414],[-124.251515,43.424504],[-124.250558,43.424664],[-124.246654,43.425157],[-124.245248,43.425124],[-124.241041,43.425969],[-124.239274,43.426168],[-124.237073,43.426545],[-124.235823,43.426585],[-124.23193,43.427278],[-124.230704,43.427372],[-124.227562,43.427872],[-124.225985,43.427694],[-124.224451,43.427277],[-124.219827,43.425862],[-124.218587,43.425224],[-124.216611,43.423211],[-124.216092,43.421454],[-124.216252,43.420151],[-124.216718,43.419224],[-124.216811,43.418301],[-124.217297,43.415638],[-124.217892,43.413787],[-124.218652,43.410878],[-124.219172,43.40713],[-124.219136,43.40534],[-124.21874,43.404151],[-124.217443,43.400667],[-124.216745,43.399237],[-124.216352,43.398156],[-124.21587,43.396372],[-124.216193,43.395799],[-124.216426,43.39444],[-124.217058,43.392562],[-124.21742,43.39207],[-124.217371,43.391474],[-124.218047,43.389948],[-124.218608,43.388261],[-124.218672,43.387745],[-124.219301,43.385759],[-124.219128,43.384513],[-124.218502,43.382974],[-124.217278,43.381252],[-124.215647,43.379669],[-124.215,43.378916],[-124.212779,43.37753],[-124.210373,43.375662],[-124.205748,43.375323],[-124.203799,43.375141],[-124.202409,43.375088],[-124.200544,43.374432],[-124.199062,43.374447],[-124.197019,43.374199],[-124.19035,43.374133],[-124.188035,43.374157],[-124.185767,43.374471],[-124.184586,43.374972],[-124.183671,43.375163],[-124.182303,43.374996],[-124.179151,43.374992],[-124.178475,43.374856],[-124.177767,43.374304],[-124.177011,43.372934],[-124.176058,43.370278],[-124.176004,43.369873],[-124.176146,43.366443],[-124.175852,43.365567],[-124.175839,43.364892],[-124.174218,43.363076],[-124.171967,43.361998],[-124.169793,43.361494],[-124.169067,43.361527],[-124.167212,43.360501],[-124.16617,43.360188],[-124.164537,43.359988],[-124.163254,43.360001],[-124.161924,43.360159],[-124.160501,43.360642],[-124.158498,43.361743],[-124.157427,43.362546]]},"properties":{"OBJECTID":8,"fhdFtrID":7,"fhdRefID":53597,"fhdRevDt":"20170418","fhdONm":"Ruth Farr","fhdOEnt":"ODFW","fhdSpNm":"Green sturgeon","fhdRun":"NA","fhdLifeHst":"Anadromous","fhdUseTy":"Unknown","fhdBasis":"UndocObsFish","fhdStNm":"Coos Bay","fhdGenus":"Acipenser","fhdSp":"medirostris","fhdSubSp":null,"fhdOrig":"NativeLocal","fhdProd":"Natural","fhdComment":null,"fhdESH":"NA","fhdBasisD":null,"fhdNMF":"yes","fhdBasisDt":null,"fhdBasisNm":null,"fhdBasisEnt":null,"fhdBasisPrj":null,"fhdBasisMethod":null,"Shape__Length":36884.31081713803,"fhdAccess":null,"fhdBarrierFtrID":null,"fhdEndExtent":null,"habitatType":"stream"},"id":8},
{"type":"Feature","geometry":{"type":"LineString","coordinates":[[-123.944338,45.656004],[-123.941447,45.656148],[-123.938568,45.656576],[-123.936236,45.657266],[-123.935142,45.657814],[-123.933952,45.658575],[-123.932382,45.659789],[-123.931573,45.660764],[-123.930954,45.662073],[-123.930787,45.663358],[-123.931073,45.665071],[-123.931073,45.665975],[-123.930811,45.666784],[-123.930264,45.667593],[-123.929455,45.668497],[-123.928551,45.670068],[-123.928337,45.670925],[-123.928241,45.672376],[-123.928741,45.675374],[-123.929312,45.677777],[-123.929479,45.678991],[-123.929669,45.681275],[-123.929764,45.685582],[-123.929479,45.687343],[-123.928765,45.68877],[-123.927742,45.689984],[-123.926528,45.690983],[-123.925457,45.691507],[-123.920913,45.693458],[-123.918176,45.694267],[-123.916273,45.694362],[-123.912608,45.69372],[-123.911228,45.693387],[-123.91011,45.692935],[-123.908301,45.69203],[-123.906445,45.691221],[-123.904827,45.690698],[-123.902757,45.690127],[-123.899055,45.689413],[-123.895471,45.688813],[-123.892987,45.688342],[-123.891531,45.688299],[-123.889118,45.688499],[-123.88702,45.688956],[-123.885164,45.689856],[-123.884193,45.690569],[-123.883208,45.691697],[-123.882836,45.692868],[-123.882579,45.694881]]},"properties":{"OBJECTID":9,"fhdFtrID":8,"fhdRefID":53240,"fhdRevDt":"20170419","fhdONm":"Unknown","fhdOEnt":"ODFW","fhdSpNm":"Green sturgeon","fhdRun":"NA","fhdLifeHst":"Anadromous","fhdUseTy":"Unknown","fhdBasis":"UndocObsFish","fhdStNm":"Nehalem Bay","fhdGenus":"Acipenser","fhdSp":"medirostris","fhdSubSp":null,"fhdOrig":"NativeLocal","fhdProd":"Natural","fhdComment":null,"fhdESH":"NA","fhdBasisD":null,"fhdNMF":"yes","fhdBasisDt":null,"fhdBasisNm":null,"fhdBasisEnt":null,"fhdBasisPrj":null,"fhdBasisMethod":null,"Shape__Length":12589.047437844603,"fhdAccess":null,"fhdBarrierFtrID":null,"fhdEndExtent":null,"habitatType":"stream"},"id":9},
{"type":"Feature","geometry":{"type":"LineString","coordinates":[[-123.888087,45.471036],[-123.889662,45.472069],[-123.891806,45.473093],[-123.892996,45.474416],[-123.894004,45.475044],[-123.895927,45.475425],[-123.89665,45.475663],[-123.898202,45.476957],[-123.899906,45.477843],[-123.900553,45.478518],[-123.901171,45.479403],[-123.90139,45.480041],[-123.901898,45.482636],[-123.903037,45.484824],[-123.903194,45.485666],[-123.90288,45.487765],[-123.902651,45.488579],[-123.901809,45.49022],[-123.900824,45.491819],[-123.900467,45.49259],[-123.900253,45.493875],[-123.900324,45.494361],[-123.90091,45.495103],[-123.901509,45.496117],[-123.902109,45.499285],[-123.90193,45.500088],[-123.90193,45.501308],[-123.902079,45.501962],[-123.903001,45.504044],[-123.903233,45.504734],[-123.903233,45.505733],[-123.90271,45.507494],[-123.902757,45.508446],[-123.90309,45.509541],[-123.903804,45.511063],[-123.904375,45.512634],[-123.904375,45.5133],[-123.904137,45.513919],[-123.903233,45.514871],[-123.902615,45.515299],[-123.901568,45.516393],[-123.900711,45.517773],[-123.900188,45.519582],[-123.900092,45.521914],[-123.900188,45.524388],[-123.900425,45.525626],[-123.901187,45.527958],[-123.901806,45.532431],[-123.901853,45.534953],[-123.902043,45.537095],[-123.902424,45.538951],[-123.9029,45.540759],[-123.904233,45.543424],[-123.90528,45.544423],[-123.906517,45.545328],[-123.908183,45.546089],[-123.909182,45.54666],[-123.910038,45.547469],[-123.911276,45.548944],[-123.912085,45.550039],[-123.913227,45.551229],[-123.914226,45.552085],[-123.915654,45.552847],[-123.918414,45.553513],[-123.919652,45.553751],[-123.922079,45.553989],[-123.925219,45.553989],[-123.927456,45.554132],[-123.928693,45.55437],[-123.930264,45.555179],[-123.931311,45.556083],[-123.932596,45.557653],[-123.934071,45.559033],[-123.935927,45.560223],[-123.938021,45.561698],[-123.941495,45.563269],[-123.943256,45.564173],[-123.947396,45.566981],[-123.948062,45.567314],[-123.950204,45.567695],[-123.954534,45.568123],[-123.958675,45.568456],[-123.963508,45.568746]]},"properties":{"OBJECTID":10,"fhdFtrID":9,"fhdRefID":53599,"fhdRevDt":"20170419","fhdONm":"Christine Mallette","fhdOEnt":"ODFW","fhdSpNm":"Green sturgeon","fhdRun":"NA","fhdLifeHst":"Anadromous","fhdUseTy":"Unknown","fhdBasis":"DocObsFish","fhdStNm":"Tillamook Bay","fhdGenus":"Acipenser","fhdSp":"medirostris","fhdSubSp":null,"fhdOrig":"NativeLocal","fhdProd":"Natural","fhdComment":null,"fhdESH":"NA","fhdBasisD":null,"fhdNMF":"yes","fhdBasisDt":null,"fhdBasisNm":null,"fhdBasisEnt":null,"fhdBasisPrj":null,"fhdBasisMethod":null,"Shape__Length":20776.19259083396,"fhdAccess":null,"fhdBarrierFtrID":null,"fhdEndExtent":null,"habitatType":"stream"},"id":10},
{"type":"Feature","geometry":{"type":"LineString","coordinates":[[-123.984392,44.573254],[-123.987105,44.573933],[-123.989895,44.575021],[-123.99243,44.576363],[-123.995748,44.577941],[-123.999059,44.579091],[-124.001413,44.579998],[-124.003502,44.580538],[-124.005843,44.580702],[-124.009569,44.580795],[-124.010839,44.580752],[-124.014332,44.58092],[-124.015519,44.581055],[-124.017647,44.581458],[-124.019136,44.582118],[-124.020173,44.582866],[-124.021767,44.584832],[-124.021976,44.586874],[-124.021228,44.588676],[-124.019697,44.590297],[-124.017385,44.591866],[-124.015544,44.593411],[-124.014918,44.59449],[-124.013747,44.596913],[-124.013017,44.598594],[-124.012537,44.600151],[-124.012452,44.604671],[-124.012507,44.605706],[-124.012705,44.60669],[-124.013617,44.609139],[-124.014138,44.609936],[-124.015211,44.611196],[-124.016133,44.612146],[-124.019648,44.615257],[-124.021139,44.616346],[-124.023903,44.618145],[-124.029351,44.620841],[-124.032841,44.622372],[-124.037345,44.624028],[-124.03924,44.624846],[-124.039552,44.625221],[-124.042411,44.626726],[-124.044582,44.627612],[-124.045771,44.62791],[-124.047943,44.628237],[-124.049013,44.628207],[-124.050233,44.627999],[-124.05199,44.627522],[-124.053611,44.626083],[-124.054717,44.624959],[-124.055897,44.623043],[-124.057633,44.621236],[-124.058722,44.620357],[-124.063132,44.617737],[-124.065182,44.616666],[-124.081752,44.610235]]},"properties":{"OBJECTID":11,"fhdFtrID":10,"fhdRefID":53240,"fhdRevDt":"20170419","fhdONm":"Unknown","fhdOEnt":"ODFW","fhdSpNm":"Green sturgeon","fhdRun":"NA","fhdLifeHst":"Anadromous","fhdUseTy":"Unknown","fhdBasis":"UndocObsFish","fhdStNm":"Yaquina Bay","fhdGenus":"Acipenser","fhdSp":"medirostris","fhdSubSp":null,"fhdOrig":"NativeLocal","fhdProd":"Natural","fhdComment":null,"fhdESH":"NA","fhdBasisD":null,"fhdNMF":"yes","fhdBasisDt":null,"fhdBasisNm":null,"fhdBasisEnt":null,"fhdBasisPrj":null,"fhdBasisMethod":null,"Shape__Length":18661.635181947604,"fhdAccess":null,"fhdBarrierFtrID":null,"fhdEndExtent":null,"habitatType":"stream"},"id":11},
{"type":"Feature","geometry":{"type":"LineString","coordinates":[[-124.07026,43.975061],[-124.073236,43.973462],[-124.076231,43.972151],[-124.078866,43.971397],[-124.080611,43.970975],[-124.081303,43.970167],[-124.081877,43.969842],[-124.083375,43.969558],[-124.086953,43.968709],[-124.090989,43.967856],[-124.095062,43.966732],[-124.09856,43.966154],[-124.101046,43.965045],[-124.104033,43.963931],[-124.107081,43.963902],[-124.110103,43.964687],[-124.113172,43.965742],[-124.116335,43.967341],[-124.122463,43.971139],[-124.124601,43.973903],[-124.12618,43.976826],[-124.126242,43.980146],[-124.125271,43.983039],[-124.123323,43.985735],[-124.121822,43.988104],[-124.121363,43.990341],[-124.121406,43.992632],[-124.121963,43.995585],[-124.123014,43.998136],[-124.123539,43.99985],[-124.124577,44.001231],[-124.126899,44.002791],[-124.127658,44.003651],[-124.128896,44.005578],[-124.130008,44.006929],[-124.130252,44.007752],[-124.130399,44.009485],[-124.130826,44.010843],[-124.131037,44.012946],[-124.132214,44.014668],[-124.133028,44.015361],[-124.133954,44.01593],[-124.135917,44.016901],[-124.138561,44.017576],[-124.146777,44.017987]]},"properties":{"OBJECTID":12,"fhdFtrID":11,"fhdRefID":53240,"fhdRevDt":"20170419","fhdONm":"Unknown","fhdOEnt":"ODFW","fhdSpNm":"Green sturgeon","fhdRun":"NA","fhdLifeHst":"Anadromous","fhdUseTy":"Unknown","fhdBasis":"UndocObsFish","fhdStNm":"Siuslaw River","fhdGenus":"Acipenser","fhdSp":"medirostris","fhdSubSp":null,"fhdOrig":"NativeLocal","fhdProd":"Natural","fhdComment":null,"fhdESH":"NA","fhdBasisD":null,"fhdNMF":"yes","fhdBasisDt":null,"fhdBasisNm":null,"fhdBasisEnt":null,"fhdBasisPrj":null,"fhdBasisMethod":null,"Shape__Length":15611.904772328424,"fhdAccess":null,"fhdBarrierFtrID":null,"fhdEndExtent":null,"habitatType":"stream"},"id":12},
{"type":"Feature","geometry":{"type":"LineString","coordinates":[[-123.997238,44.413593],[-123.998759,44.413833],[-124.000805,44.414261],[-124.005076,44.415474],[-124.0095,44.416215],[-124.012394,44.416748],[-124.014412,44.416977],[-124.016677,44.41711],[-124.021379,44.417262],[-124.023663,44.417395],[-124.02747,44.418005],[-124.030249,44.418538],[-124.031982,44.418975],[-124.034685,44.41987],[-124.036664,44.420936],[-124.037826,44.421774],[-124.040491,44.423982],[-124.041842,44.425314],[-124.042889,44.42659],[-124.044145,44.428398],[-124.045573,44.430016],[-124.046958,44.431353],[-124.049171,44.432829],[-124.050384,44.433328],[-124.051812,44.433614],[-124.053525,44.433638],[-124.055191,44.433923],[-124.056476,44.434589],[-124.058237,44.43566],[-124.058974,44.435993],[-124.060521,44.43635],[-124.061877,44.43635],[-124.0634,44.436207],[-124.064994,44.435922],[-124.066707,44.435351],[-124.068087,44.434756],[-124.073477,44.431984],[-124.074369,44.431413],[-124.075761,44.430199],[-124.076582,44.429307],[-124.07701,44.428486],[-124.077118,44.427344],[-124.076796,44.424846],[-124.076689,44.422883],[-124.076903,44.422133],[-124.077424,44.421641]]},"properties":{"OBJECTID":13,"fhdFtrID":12,"fhdRefID":53240,"fhdRevDt":"20170419","fhdONm":"Unknown","fhdOEnt":"ODFW","fhdSpNm":"Green sturgeon","fhdRun":"NA","fhdLifeHst":"Anadromous","fhdUseTy":"Unknown","fhdBasis":"UndocObsFish","fhdStNm":"Alsea Bay","fhdGenus":"Acipenser","fhdSp":"medirostris","fhdSubSp":null,"fhdOrig":"NativeLocal","fhdProd":"Natural","fhdComment":null,"fhdESH":"NA","fhdBasisD":null,"fhdNMF":"yes","fhdBasisDt":null,"fhdBasisNm":null,"fhdBasisEnt":null,"fhdBasisPrj":null,"fhdBasisMethod":null,"Shape__Length":11746.734039055773,"fhdAccess":null,"fhdBarrierFtrID":null,"fhdEndExtent":null,"habitatType":"stream"},"id":13},
{"type":"Feature","geometry":{"type":"LineString","coordinates":[[-124.210373,43.375662],[-124.209305,43.374823],[-124.208948,43.374082],[-124.209019,43.373167],[-124.209476,43.370768],[-124.209819,43.369626],[-124.210332,43.368541],[-124.210789,43.367856],[-124.211075,43.367113],[-124.211165,43.366384],[-124.210863,43.365068],[-124.210101,43.36383],[-124.207571,43.361884],[-124.204829,43.362031],[-124.202723,43.362352],[-124.201724,43.362602],[-124.20001,43.362887],[-124.198226,43.362816],[-124.196406,43.362352],[-124.195549,43.361709],[-124.195145,43.360847],[-124.194095,43.356574],[-124.193834,43.356193],[-124.193709,43.354825],[-124.193377,43.354059],[-124.193567,43.352376],[-124.193533,43.351589],[-124.194098,43.350119],[-124.194511,43.348434],[-124.194938,43.347453],[-124.19556,43.345087],[-124.196158,43.343345],[-124.197199,43.341463],[-124.197261,43.340866],[-124.196979,43.33973],[-124.195768,43.338603],[-124.193806,43.337105],[-124.193049,43.336354],[-124.192436,43.335438],[-124.191927,43.334385],[-124.191912,43.333629],[-124.192146,43.332978],[-124.192818,43.332035],[-124.193399,43.331452],[-124.194421,43.330757],[-124.195951,43.330273],[-124.198926,43.328131],[-124.199933,43.32753],[-124.201741,43.326611],[-124.203699,43.32587],[-124.204771,43.325174],[-124.204896,43.323984],[-124.204423,43.322548],[-124.203823,43.319637],[-124.203618,43.316722],[-124.203408,43.316076],[-124.203228,43.314457],[-124.202805,43.313056],[-124.202345,43.312197],[-124.202427,43.311403],[-124.204279,43.310231],[-124.206675,43.309198],[-124.208781,43.308419],[-124.209848,43.307507],[-124.21023,43.306891],[-124.210796,43.305588],[-124.210775,43.304544],[-124.210064,43.303507],[-124.209907,43.30304],[-124.208992,43.301645],[-124.208632,43.300893],[-124.208355,43.299383],[-124.208831,43.298586],[-124.210441,43.297564],[-124.212974,43.296056],[-124.214391,43.295429],[-124.215072,43.294917],[-124.215924,43.294063],[-124.216628,43.293121],[-124.216866,43.292457],[-124.216938,43.290354],[-124.217362,43.288911],[-124.217967,43.288038],[-124.2189,43.287152],[-124.220242,43.286543],[-124.221631,43.286524],[-124.223754,43.287038],[-124.225716,43.287204]]},"properties":{"OBJECTID":14,"fhdFtrID":13,"fhdRefID":53597,"fhdRevDt":"20170418","fhdONm":"Ruth Farr","fhdOEnt":"ODFW","fhdSpNm":"Green sturgeon","fhdRun":"NA","fhdLifeHst":"Anadromous","fhdUseTy":"Unknown","fhdBasis":"UndocObsFish","fhdStNm":"Isthmus Slough","fhdGenus":"Acipenser","fhdSp":"medirostris","fhdSubSp":null,"fhdOrig":"NativeLocal","fhdProd":"Natural","fhdComment":null,"fhdESH":"NA","fhdBasisD":null,"fhdNMF":"yes","fhdBasisDt":null,"fhdBasisNm":null,"fhdBasisEnt":null,"fhdBasisPrj":null,"fhdBasisMethod":null,"Shape__Length":17952.82949210857,"fhdAccess":null,"fhdBarrierFtrID":null,"fhdEndExtent":null,"habitatType":"stream"},"id":14}
]}
