{"type":"FeatureCollection","features":[
{"type":"Feature","geometry":{"type":"Polygon","coordinates":[[[-120.760972,43.000092],[-120.761904,42.99706],[-120.757651,42.995751],[-120.752837,42.996172],[-120.750369,42.994363],[-120.749063,42.996537],[-120.750634,42.998013],[-120.75608,42.997622],[-120.760972,43.000092]]]},"properties":{"OBJECTID":1,"fhdFtrID":1,"fhdRefID":53709,"fhdRevDt":"20190204","fhdONm":"Guy Chilton","fhdOEnt":"ODFW","fhdSpNm":"Bass hybrid","fhdRun":"NA","fhdLifeHst":"Resident","fhdUseTy":"ResidentMultipleUses","fhdBasis":"DocObsFish","fhdStNm":"Ana Reservoir","fhdGenus":"Morone","fhdSp":"saxatilis x chrysops","fhdSubSp":null,"fhdOrig":"NonNative","fhdProd":"Hatchery","fhdComment":null,"fhdESH":"NA","fhdBasisD":null,"fhdNMF":"no","fhdBasisDt":null,"fhdBasisNm":null,"fhdBasisEnt":null,"fhdBasisPrj":null,"fhdBasisMethod":null,"fhdAccess":null,"fhdBarrierFtrID":null,"fhdEndExtent":null,"Shape__Area":464331.3521415,"Shape__Length":5394.117015822029,"habitatType":"lake"},"id":1}
]}
