{"type":"FeatureCollection","features":[
{"type":"Feature","geometry":{"type":"LineString","coordinates":[[-118.059089,42.213889],[-118.056777,42.213582],[-118.051535,42.209036],[-118.046603,42.207591],[-118.047046,42.204775],[-118.043732,42.202469],[-118.03974,42.194623],[-118.034557,42.194452],[-118.027243,42.190706],[-118.020689,42.189177],[-118.015355,42.184542],[-118.009696,42.164337],[-118.006253,42.160652],[-118.002624,42.151174],[-118.002192,42.14777],[-118.006066,42.139329],[-118.005421,42.134514],[-118.001231,42.13361]]},"properties":{"OBJECTID":1,"fhdFtrID":16664,"fhdRefID":51849,"fhdRevDt":"19990000","fhdONm":"Wayne Bowers-Mary Hanson","fhdOEnt":"ODFW","fhdSpNm":"Lahontan cutthroat trout","fhdRun":"NA","fhdLifeHst":"Resident","fhdUseTy":"Unknown","fhdBasis":"UndocObsFish","fhdStNm":"Cottonwood Creek","fhdGenus":"Oncorhynchus","fhdSp":"clarkii","fhdSubSp":"henshawi","fhdOrig":"NativeLocal","fhdProd":"Natural","fhdComment":null,"fhdESH":"NA","fhdBasisD":null,"fhdNMF":"yes","fhdBasisDt":null,"fhdBasisNm":null,"fhdBasisEnt":null,"fhdBasisPrj":null,"fhdBasisMethod":null,"Shape__Length":16631.021526821405,"fhdAccess":null,"fhdBarrierFtrID":null,"fhdEndExtent":null,"habitatType":"stream"},"id":1},
{"type":"Feature","geometry":{"type":"LineString","coordinates":[[-118.102565,42.227014],[-118.101138,42.22461],[-118.102819,42.219125],[-118.102659,42.211324],[-118.101451,42.204748],[-118.096078,42.195143],[-118.09265,42.191356],[-118.087605,42.18175],[-118.091652,42.171362],[-118.094418,42.167881],[-118.094844,42.163039],[-118.089601,42.154312],[-118.086037,42.152666],[-118.076953,42.144031],[-118.071817,42.128479],[-118.067651,42.125158]]},"properties":{"OBJECTID":2,"fhdFtrID":16665,"fhdRefID":51849,"fhdRevDt":"19990000","fhdONm":"Wayne Bowers-Mary Hanson","fhdOEnt":"ODFW","fhdSpNm":"Lahontan cutthroat trout","fhdRun":"NA","fhdLifeHst":"Resident","fhdUseTy":"Unknown","fhdBasis":"UndocObsFish","fhdStNm":"Doolittle Creek","fhdGenus":"Oncorhynchus","fhdSp":"clarkii","fhdSubSp":"henshawi","fhdOrig":"NativeLocal","fhdProd":"Natural","fhdComment":null,"fhdESH":"NA","fhdBasisD":null,"fhdNMF":"yes","fhdBasisDt":null,"fhdBasisNm":null,"fhdBasisEnt":null,"fhdBasisPrj":null,"fhdBasisMethod":null,"Shape__Length":17756.402844193843,"fhdAccess":null,"fhdBarrierFtrID":null,"fhdEndExtent":null,"habitatType":"stream"},"id":2},
{"type":"Feature","geometry":{"type":"LineString","coordinates":[[-118.478657,42.711548],[-118.490465,42.707767],[-118.505892,42.7083],[-118.517881,42.711236],[-118.523492,42.714053]]},"properties":{"OBJECTID":3,"fhdFtrID":16666,"fhdRefID":51849,"fhdRevDt":"19990000","fhdONm":"Wayne Bowers-Mary Hanson","fhdOEnt":"ODFW","fhdSpNm":"Lahontan cutthroat trout","fhdRun":"NA","fhdLifeHst":"Resident","fhdUseTy":"Unknown","fhdBasis":"UndocObsFish","fhdStNm":"Little McCoy Creek","fhdGenus":"Oncorhynchus","fhdSp":"clarkii","fhdSubSp":"henshawi","fhdOrig":"NativeLocal","fhdProd":"Mixed","fhdComment":null,"fhdESH":"NA","fhdBasisD":null,"fhdNMF":"yes","fhdBasisDt":null,"fhdBasisNm":null,"fhdBasisEnt":null,"fhdBasisPrj":null,"fhdBasisMethod":null,"Shape__Length":5578.796022008836,"fhdAccess":null,"fhdBarrierFtrID":null,"fhdEndExtent":null,"habitatType":"stream"},"id":3},
{"type":"Feature","geometry":{"type":"LineString","coordinates":[[-118.525529,42.677756],[-118.532827,42.673627]]},"properties":{"OBJECTID":4,"fhdFtrID":16667,"fhdRefID":51849,"fhdRevDt":"19990000","fhdONm":"Wayne Bowers-Mary Hanson","fhdOEnt":"ODFW","fhdSpNm":"Lahontan cutthroat trout","fhdRun":"NA","fhdLifeHst":"Resident","fhdUseTy":"Unknown","fhdBasis":"UndocObsFish","fhdStNm":" ","fhdGenus":"Oncorhynchus","fhdSp":"clarkii","fhdSubSp":"henshawi","fhdOrig":"NativeLocal","fhdProd":"Natural","fhdComment":null,"fhdESH":"NA","fhdBasisD":null,"fhdNMF":"yes","fhdBasisDt":null,"fhdBasisNm":null,"fhdBasisEnt":null,"fhdBasisPrj":null,"fhdBasisMethod":null,"Shape__Length":1100.1404107056508,"fhdAccess":null,"fhdBarrierFtrID":null,"fhdEndExtent":null,"habitatType":"stream"},"id":4},
{"type":"Feature","geometry":{"type":"LineString","coordinates":[[-118.490658,42.68976],[-118.492466,42.689939],[-118.495808,42.691035],[-118.5003,42.695192],[-118.507285,42.698991],[-118.512903,42.700085],[-118.517459,42.698029],[-118.525889,42.699722],[-118.540772,42.699144],[-118.553328,42.697675]]},"properties":{"OBJECTID":5,"fhdFtrID":16668,"fhdRefID":51849,"fhdRevDt":"19990000","fhdONm":"Wayne Bowers-Mary Hanson","fhdOEnt":"ODFW","fhdSpNm":"Lahontan cutthroat trout","fhdRun":"NA","fhdLifeHst":"Resident","fhdUseTy":"Unknown","fhdBasis":"UndocObsFish","fhdStNm":"Mosquito Creek","fhdGenus":"Oncorhynchus","fhdSp":"clarkii","fhdSubSp":"henshawi","fhdOrig":"NativeLocal","fhdProd":"Natural","fhdComment":null,"fhdESH":"NA","fhdBasisD":null,"fhdNMF":"yes","fhdBasisDt":null,"fhdBasisNm":null,"fhdBasisEnt":null,"fhdBasisPrj":null,"fhdBasisMethod":null,"Shape__Length":7998.246627201198,"fhdAccess":null,"fhdBarrierFtrID":null,"fhdEndExtent":null,"habitatType":"stream"},"id":5},
{"type":"Feature","geometry":{"type":"LineString","coordinates":[[-118.175745,42.095832],[-118.182541,42.091287],[-118.1921,42.086039],[-118.19654,42.08472]]},"properties":{"OBJECTID":6,"fhdFtrID":16669,"fhdRefID":51849,"fhdRevDt":"19990000","fhdONm":"Wayne Bowers-Mary Hanson","fhdOEnt":"ODFW","fhdSpNm":"Lahontan cutthroat trout","fhdRun":"NA","fhdLifeHst":"Resident","fhdUseTy":"Unknown","fhdBasis":"UndocObsFish","fhdStNm":"Little Whitehorse Creek","fhdGenus":"Oncorhynchus","fhdSp":"clarkii","fhdSubSp":"henshawi","fhdOrig":"NativeLocal","fhdProd":"Natural","fhdComment":null,"fhdESH":"NA","fhdBasisD":null,"fhdNMF":"yes","fhdBasisDt":null,"fhdBasisNm":null,"fhdBasisEnt":null,"fhdBasisPrj":null,"fhdBasisMethod":null,"Shape__Length":2960.976883989339,"fhdAccess":null,"fhdBarrierFtrID":null,"fhdEndExtent":null,"habitatType":"stream"},"id":6},
{"type":"Feature","geometry":{"type":"LineString","coordinates":[[-118.271444,42.326325],[-118.270645,42.319948],[-118.273847,42.309854],[-118.273124,42.306033],[-118.275701,42.300682],[-118.272485,42.298183],[-118.269339,42.293043],[-118.269504,42.287795],[-118.266416,42.274861],[-118.262677,42.272477],[-118.260312,42.263412],[-118.254473,42.255203],[-118.252947,42.250947],[-118.248325,42.249242],[-118.246919,42.246389],[-118.236435,42.238192],[-118.232974,42.232935],[-118.234149,42.223652],[-118.229747,42.212735],[-118.217785,42.199855],[-118.213361,42.196639],[-118.213284,42.190282],[-118.221173,42.184423],[-118.221325,42.180025],[-118.22364,42.174996],[-118.22536,42.164088],[-118.226908,42.161414],[-118.226544,42.15671],[-118.223974,42.153175],[-118.219773,42.146869],[-118.219941,42.143718],[-118.217097,42.133672],[-118.218777,42.130131],[-118.217979,42.123924],[-118.222465,42.11313],[-118.23111,42.108862],[-118.235609,42.101669],[-118.232721,42.093781],[-118.234967,42.090931],[-118.243671,42.088841]]},"properties":{"OBJECTID":7,"fhdFtrID":16670,"fhdRefID":51849,"fhdRevDt":"19990000","fhdONm":"Wayne Bowers-Mary Hanson","fhdOEnt":"ODFW","fhdSpNm":"Lahontan cutthroat trout","fhdRun":"NA","fhdLifeHst":"Resident","fhdUseTy":"Unknown","fhdBasis":"UndocObsFish","fhdStNm":"Willow Creek","fhdGenus":"Oncorhynchus","fhdSp":"clarkii","fhdSubSp":"henshawi","fhdOrig":"NativeLocal","fhdProd":"Natural","fhdComment":null,"fhdESH":"NA","fhdBasisD":null,"fhdNMF":"yes","fhdBasisDt":null,"fhdBasisNm":null,"fhdBasisEnt":null,"fhdBasisPrj":null,"fhdBasisMethod":null,"Shape__Length":45030.91809606423,"fhdAccess":null,"fhdBarrierFtrID":null,"fhdEndExtent":null,"habitatType":"stream"},"id":7},
{"type":"Feature","geometry":{"type":"LineString","coordinates":[[-118.633644,41.9999],[-118.642793,42.007671],[-118.651374,42.009288],[-118.661347,42.009471],[-118.670392,42.01157],[-118.672497,42.015319],[-118.676523,42.017576],[-118.686718,42.032595],[-118.690348,42.034872],[-118.699237,42.045422],[-118.695395,42.056071]]},"properties":{"OBJECTID":8,"fhdFtrID":16671,"fhdRefID":51849,"fhdRevDt":"19990000","fhdONm":"Wayne Bowers-Mary Hanson","fhdOEnt":"ODFW","fhdSpNm":"Lahontan cutthroat trout","fhdRun":"NA","fhdLifeHst":"Resident","fhdUseTy":"Unknown","fhdBasis":"UndocObsFish","fhdStNm":"Denio Creek","fhdGenus":"Oncorhynchus","fhdSp":"clarkii","fhdSubSp":"henshawi","fhdOrig":"NativeLocal","fhdProd":"Mixed","fhdComment":null,"fhdESH":"NA","fhdBasisD":null,"fhdNMF":"yes","fhdBasisDt":null,"fhdBasisNm":null,"fhdBasisEnt":null,"fhdBasisPrj":null,"fhdBasisMethod":null,"Shape__Length":13340.22769788264,"fhdAccess":null,"fhdBarrierFtrID":null,"fhdEndExtent":null,"habitatType":"stream"},"id":8},
{"type":"Feature","geometry":{"type":"LineString","coordinates":[[-118.613406,42.048533],[-118.61814,42.04519],[-118.624497,42.045893],[-118.630348,42.049318],[-118.634773,42.050165],[-118.643759,42.049384],[-118.648877,42.050774],[-118.65149,42.053783],[-118.661823,42.053808],[-118.667037,42.057679],[-118.672398,42.064618],[-118.674703,42.07059],[-118.673597,42.074136],[-118.675099,42.077473],[-118.680714,42.079856],[-118.6861,42.080059],[-118.689394,42.092207],[-118.693647,42.094726]]},"properties":{"OBJECTID":9,"fhdFtrID":16672,"fhdRefID":51849,"fhdRevDt":"19990000","fhdONm":"Wayne Bowers-Mary Hanson","fhdOEnt":"ODFW","fhdSpNm":"Lahontan cutthroat trout","fhdRun":"NA","fhdLifeHst":"Resident","fhdUseTy":"Unknown","fhdBasis":"UndocObsFish","fhdStNm":"Van Horn Creek","fhdGenus":"Oncorhynchus","fhdSp":"clarkii","fhdSubSp":"henshawi","fhdOrig":"NativeLocal","fhdProd":"Mixed","fhdComment":null,"fhdESH":"NA","fhdBasisD":null,"fhdNMF":"yes","fhdBasisDt":null,"fhdBasisNm":null,"fhdBasisEnt":null,"fhdBasisPrj":null,"fhdBasisMethod":null,"Shape__Length":15081.756063645935,"fhdAccess":null,"fhdBarrierFtrID":null,"fhdEndExtent":null,"habitatType":"stream"},"id":9},
{"type":"Feature","geometry":{"type":"LineString","coordinates":[[-118.226702,42.316709],[-118.225887,42.313904],[-118.226939,42.306454],[-118.22559,42.300889],[-118.22075,42.29467],[-118.207511,42.284891],[-118.201892,42.283827],[-118.19679,42.280039],[-118.194749,42.274473],[-118.189397,42.270619],[-118.190003,42.26906],[-118.184726,42.265201],[-118.181918,42.256396],[-118.179095,42.250642],[-118.17649,42.248786],[-118.173484,42.242846],[-118.170803,42.240749],[-118.162064,42.237272],[-118.156464,42.237787],[-118.151375,42.235068],[-118.144889,42.234912],[-118.135306,42.237653],[-118.126,42.235705],[-118.11135,42.230139],[-118.107515,42.227506],[-118.102565,42.227014],[-118.09599,42.225028],[-118.084984,42.223939],[-118.082088,42.222342],[-118.074806,42.223583],[-118.065965,42.219774],[-118.059089,42.213889],[-118.055766,42.208816],[-118.056048,42.201982],[-118.055052,42.196168],[-118.057399,42.194768],[-118.057858,42.187335],[-118.060693,42.180912],[-118.059778,42.174369],[-118.056989,42.168033],[-118.041992,42.150612],[-118.036954,42.147142],[-118.02954,42.134793],[-118.02215,42.132951],[-118.017041,42.128514],[-118.010469,42.129312],[-118.006753,42.127389],[-117.999443,42.12076],[-117.996712,42.120312]]},"properties":{"OBJECTID":10,"fhdFtrID":16673,"fhdRefID":51849,"fhdRevDt":"20120530","fhdONm":"Wayne Bowers-Mary Hanson","fhdOEnt":"ODFW","fhdSpNm":"Lahontan cutthroat trout","fhdRun":"NA","fhdLifeHst":"Resident","fhdUseTy":"Unknown","fhdBasis":"DocObsFish","fhdStNm":"Whitehorse Creek","fhdGenus":"Oncorhynchus","fhdSp":"clarkii","fhdSubSp":"henshawi","fhdOrig":"NativeLocal","fhdProd":"Natural","fhdComment":null,"fhdESH":"NA","fhdBasisD":null,"fhdNMF":"yes","fhdBasisDt":null,"fhdBasisNm":null,"fhdBasisEnt":null,"fhdBasisPrj":null,"fhdBasisMethod":null,"Shape__Length":51346.25784437591,"fhdAccess":null,"fhdBarrierFtrID":null,"fhdEndExtent":null,"habitatType":"stream"},"id":10},
{"type":"Feature","geometry":{"type":"LineString","coordinates":[[-118.482932,42.668989],[-118.494511,42.671903],[-118.498077,42.674798],[-118.504977,42.67541],[-118.516543,42.677852],[-118.525529,42.677756],[-118.53326,42.679508]]},"properties":{"OBJECTID":11,"fhdFtrID":16674,"fhdRefID":51849,"fhdRevDt":"19990000","fhdONm":"Wayne Bowers-Mary Hanson","fhdOEnt":"ODFW","fhdSpNm":"Lahontan cutthroat trout","fhdRun":"NA","fhdLifeHst":"Resident","fhdUseTy":"Unknown","fhdBasis":"UndocObsFish","fhdStNm":"Willow Creek","fhdGenus":"Oncorhynchus","fhdSp":"clarkii","fhdSubSp":"henshawi","fhdOrig":"NativeLocal","fhdProd":"Natural","fhdComment":null,"fhdESH":"NA","fhdBasisD":null,"fhdNMF":"yes","fhdBasisDt":null,"fhdBasisNm":null,"fhdBasisEnt":null,"fhdBasisPrj":null,"fhdBasisMethod":null,"Shape__Length":6344.834366678682,"fhdAccess":null,"fhdBarrierFtrID":null,"fhdEndExtent":null,"habitatType":"stream"},"id":11},
{"type":"Feature","geometry":{"type":"LineString","coordinates":[[-118.565048,42.591553],[-118.571534,42.595137],[-118.575682,42.603375]]},"properties":{"OBJECTID":12,"fhdFtrID":16675,"fhdRefID":51849,"fhdRevDt":"19990000","fhdONm":"Wayne Bowers-Mary Hanson","fhdOEnt":"ODFW","fhdSpNm":"Lahontan cutthroat trout","fhdRun":"NA","fhdLifeHst":"Resident","fhdUseTy":"Unknown","fhdBasis":"UndocObsFish","fhdStNm":" ","fhdGenus":"Oncorhynchus","fhdSp":"clarkii","fhdSubSp":"henshawi","fhdOrig":"NativeLocal","fhdProd":"Natural","fhdComment":null,"fhdESH":"NA","fhdBasisD":null,"fhdNMF":"yes","fhdBasisDt":null,"fhdBasisNm":null,"fhdBasisEnt":null,"fhdBasisPrj":null,"fhdBasisMethod":null,"Shape__Length":2507.535245461365,"fhdAccess":null,"fhdBarrierFtrID":null,"fhdEndExtent":null,"habitatType":"stream"},"id":12},
{"type":"Feature","geometry":{"type":"LineString","coordinates":[[-118.144889,42.234912],[-118.141207,42.233634]]},"properties":{"OBJECTID":13,"fhdFtrID":16676,"fhdRefID":51849,"fhdRevDt":"19990000","fhdONm":"Wayne Bowers-Mary Hanson","fhdOEnt":"ODFW","fhdSpNm":"Lahontan cutthroat trout","fhdRun":"NA","fhdLifeHst":"Resident","fhdUseTy":"Unknown","fhdBasis":"UndocObsFish","fhdStNm":"Fifteenmile Creek","fhdGenus":"Oncorhynchus","fhdSp":"clarkii","fhdSubSp":"henshawi","fhdOrig":"NativeLocal","fhdProd":"Natural","fhdComment":null,"fhdESH":"NA","fhdBasisD":null,"fhdNMF":"yes","fhdBasisDt":null,"fhdBasisNm":null,"fhdBasisEnt":null,"fhdBasisPrj":null,"fhdBasisMethod":null,"Shape__Length":529.0251500610666,"fhdAccess":null,"fhdBarrierFtrID":null,"fhdEndExtent":null,"habitatType":"stream"},"id":13},
{"type":"Feature","geometry":{"type":"LineString","coordinates":[[-118.1412,42.000377],[-118.143444,42.001301],[-118.160811,42.009173],[-118.165689,42.013961],[-118.189335,42.015627],[-118.197712,42.015644],[-118.21136,42.012062],[-118.215398,42.005848]]},"properties":{"OBJECTID":14,"fhdFtrID":16677,"fhdRefID":51849,"fhdRevDt":"20240215","fhdONm":"Wayne Bowers-Mary Hanson","fhdOEnt":"ODFW","fhdSpNm":"Lahontan cutthroat trout","fhdRun":"NA","fhdLifeHst":"Resident","fhdUseTy":"Unknown","fhdBasis":"UndocObsFish","fhdStNm":"Sage Creek","fhdGenus":"Oncorhynchus","fhdSp":"clarkii","fhdSubSp":"henshawi","fhdOrig":"NativeLocal","fhdProd":"Natural","fhdComment":"Habitat use changed in 2024 (ODFW; RefID 53863)","fhdESH":"NA","fhdBasisD":null,"fhdNMF":"yes","fhdBasisDt":null,"fhdBasisNm":null,"fhdBasisEnt":null,"fhdBasisPrj":null,"fhdBasisMethod":null,"Shape__Length":10498.013127588678,"fhdAccess":null,"fhdBarrierFtrID":null,"fhdEndExtent":null,"habitatType":"stream"},"id":14},
{"type":"Feature","geometry":{"type":"LineString","coordinates":[[-117.970662,42.092763],[-117.964515,42.09798]]},"properties":{"OBJECTID":15,"fhdFtrID":16678,"fhdRefID":51849,"fhdRevDt":"19990000","fhdONm":"Wayne Bowers-Mary Hanson","fhdOEnt":"ODFW","fhdSpNm":"Lahontan cutthroat trout","fhdRun":"NA","fhdLifeHst":"Resident","fhdUseTy":"Unknown","fhdBasis":"UndocObsFish","fhdStNm":"Indian Creek","fhdGenus":"Oncorhynchus","fhdSp":"clarkii","fhdSubSp":"henshawi","fhdOrig":"NativeLocal","fhdProd":"Natural","fhdComment":null,"fhdESH":"NA","fhdBasisD":null,"fhdNMF":"yes","fhdBasisDt":null,"fhdBasisNm":null,"fhdBasisEnt":null,"fhdBasisPrj":null,"fhdBasisMethod":null,"Shape__Length":1196.8183304900867,"fhdAccess":null,"fhdBarrierFtrID":null,"fhdEndExtent":null,"habitatType":"stream"},"id":15},
{"type":"Feature","geometry":{"type":"LineString","coordinates":[[-117.956531,42.036378],[-117.960936,42.040885],[-117.965908,42.042871],[-117.977909,42.058767],[-117.970927,42.063726],[-117.97042,42.06584],[-117.974582,42.077044],[-117.974297,42.081452],[-117.970662,42.092763]]},"properties":{"OBJECTID":16,"fhdFtrID":16678,"fhdRefID":51849,"fhdRevDt":"20240215","fhdONm":"Wayne Bowers-Mary Hanson","fhdOEnt":"ODFW","fhdSpNm":"Lahontan cutthroat trout","fhdRun":"NA","fhdLifeHst":"Resident","fhdUseTy":"Unknown","fhdBasis":"UndocObsFish","fhdStNm":"Indian Creek","fhdGenus":"Oncorhynchus","fhdSp":"clarkii","fhdSubSp":"henshawi","fhdOrig":"NativeLocal","fhdProd":"Natural","fhdComment":"Habitat use changed in 2024 (ODFW; RefID 53863)","fhdESH":"NA","fhdBasisD":null,"fhdNMF":"yes","fhdBasisDt":null,"fhdBasisNm":null,"fhdBasisEnt":null,"fhdBasisPrj":null,"fhdBasisMethod":null,"Shape__Length":10128.106501694785,"fhdAccess":null,"fhdBarrierFtrID":null,"fhdEndExtent":null,"habitatType":"stream"},"id":16},
{"type":"Feature","geometry":{"type":"LineString","coordinates":[[-118.077729,42.284044],[-118.072337,42.272632],[-118.067466,42.268158]]},"properties":{"OBJECTID":17,"fhdFtrID":16679,"fhdRefID":51849,"fhdRevDt":"19990000","fhdONm":"Wayne Bowers-Mary Hanson","fhdOEnt":"ODFW","fhdSpNm":"Lahontan cutthroat trout","fhdRun":"NA","fhdLifeHst":"Resident","fhdUseTy":"Unknown","fhdBasis":"UndocObsFish","fhdStNm":null,"fhdGenus":"Oncorhynchus","fhdSp":"clarkii","fhdSubSp":"henshawi","fhdOrig":"NativeLocal","fhdProd":"Natural","fhdComment":null,"fhdESH":"NA","fhdBasisD":null,"fhdNMF":"yes","fhdBasisDt":null,"fhdBasisNm":null,"fhdBasisEnt":null,"fhdBasisPrj":null,"fhdBasisMethod":null,"Shape__Length":2871.305303890885,"fhdAccess":null,"fhdBarrierFtrID":null,"fhdEndExtent":null,"habitatType":"stream"},"id":17},
{"type":"Feature","geometry":{"type":"LineString","coordinates":[[-118.067466,42.268158],[-118.062809,42.265934]]},"properties":{"OBJECTID":18,"fhdFtrID":16679,"fhdRefID":51849,"fhdRevDt":"19990000","fhdONm":"Wayne Bowers-Mary Hanson","fhdOEnt":"ODFW","fhdSpNm":"Lahontan cutthroat trout","fhdRun":"NA","fhdLifeHst":"Resident","fhdUseTy":"Unknown","fhdBasis":"UndocObsFish","fhdStNm":"Antelope Creek","fhdGenus":"Oncorhynchus","fhdSp":"clarkii","fhdSubSp":"henshawi","fhdOrig":"NativeLocal","fhdProd":"Natural","fhdComment":null,"fhdESH":"NA","fhdBasisD":null,"fhdNMF":"yes","fhdBasisDt":null,"fhdBasisNm":null,"fhdBasisEnt":null,"fhdBasisPrj":null,"fhdBasisMethod":null,"Shape__Length":635.3909725672039,"fhdAccess":null,"fhdBarrierFtrID":null,"fhdEndExtent":null,"habitatType":"stream"},"id":18},
{"type":"Feature","geometry":{"type":"LineString","coordinates":[[-118.143444,42.001301],[-118.148825,42.00094],[-118.157543,41.997973],[-118.160297,41.995773],[-118.169842,41.996461],[-118.173374,41.998844],[-118.178571,41.999397],[-118.18816,41.998411],[-118.192612,41.996067],[-118.195912,41.996331]]},"properties":{"OBJECTID":19,"fhdFtrID":16680,"fhdRefID":51849,"fhdRevDt":"20240215","fhdONm":"Wayne Bowers-Mary Hanson","fhdOEnt":"ODFW","fhdSpNm":"Lahontan cutthroat trout","fhdRun":"NA","fhdLifeHst":"Resident","fhdUseTy":"Unknown","fhdBasis":"UndocObsFish","fhdStNm":" ","fhdGenus":"Oncorhynchus","fhdSp":"clarkii","fhdSubSp":"henshawi","fhdOrig":"NativeLocal","fhdProd":"Natural","fhdComment":"Habitat use changed in 2024 (ODFW; RefID 53863)","fhdESH":"NA","fhdBasisD":null,"fhdNMF":"yes","fhdBasisDt":null,"fhdBasisNm":null,"fhdBasisEnt":null,"fhdBasisPrj":null,"fhdBasisMethod":null,"Shape__Length":6777.635731172851,"fhdAccess":null,"fhdBarrierFtrID":null,"fhdEndExtent":null,"habitatType":"stream"},"id":19},
{"type":"Feature","geometry":{"type":"LineString","coordinates":[[-118.172204,42.109358],[-118.181125,42.107047],[-118.187001,42.104605],[-118.200379,42.097012],[-118.203533,42.094289],[-118.20642,42.087503],[-118.212691,42.085278],[-118.219782,42.086078],[-118.227497,42.084742],[-118.234067,42.080469],[-118.239472,42.075537],[-118.244591,42.073311],[-118.248366,42.067765],[-118.255393,42.066211]]},"properties":{"OBJECTID":20,"fhdFtrID":16681,"fhdRefID":51849,"fhdRevDt":"19990000","fhdONm":"Wayne Bowers-Mary Hanson","fhdOEnt":"ODFW","fhdSpNm":"Lahontan cutthroat trout","fhdRun":"NA","fhdLifeHst":"Resident","fhdUseTy":"Unknown","fhdBasis":"UndocObsFish","fhdStNm":"Little Whitehorse Creek","fhdGenus":"Oncorhynchus","fhdSp":"clarkii","fhdSubSp":"henshawi","fhdOrig":"NativeLocal","fhdProd":"Natural","fhdComment":null,"fhdESH":"NA","fhdBasisD":null,"fhdNMF":"yes","fhdBasisDt":null,"fhdBasisNm":null,"fhdBasisEnt":null,"fhdBasisPrj":null,"fhdBasisMethod":null,"Shape__Length":12567.675483347144,"fhdAccess":null,"fhdBarrierFtrID":null,"fhdEndExtent":null,"habitatType":"stream"},"id":20},
{"type":"Feature","geometry":{"type":"LineString","coordinates":[[-118.179095,42.250642],[-118.177828,42.244263],[-118.18204,42.240053],[-118.190993,42.228739],[-118.190572,42.221487],[-118.194434,42.215075],[-118.194736,42.211622],[-118.198738,42.207774],[-118.198094,42.20235],[-118.194586,42.196043],[-118.192357,42.195022],[-118.19415,42.188171],[-118.190917,42.185651],[-118.192149,42.181616],[-118.188311,42.178504],[-118.189359,42.173206],[-118.185964,42.169045],[-118.178741,42.157572],[-118.179561,42.150748],[-118.177533,42.144254],[-118.175822,42.143419],[-118.175455,42.13564],[-118.173945,42.128026],[-118.17409,42.121249],[-118.171193,42.113365],[-118.172204,42.109358]]},"properties":{"OBJECTID":21,"fhdFtrID":16682,"fhdRefID":51849,"fhdRevDt":"19990000","fhdONm":"Wayne Bowers-Mary Hanson","fhdOEnt":"ODFW","fhdSpNm":"Lahontan cutthroat trout","fhdRun":"NA","fhdLifeHst":"Resident","fhdUseTy":"Unknown","fhdBasis":"UndocObsFish","fhdStNm":"Little Whitehorse Creek","fhdGenus":"Oncorhynchus","fhdSp":"clarkii","fhdSubSp":"henshawi","fhdOrig":"NativeLocal","fhdProd":"Natural","fhdComment":null,"fhdESH":"NA","fhdBasisD":null,"fhdNMF":"yes","fhdBasisDt":null,"fhdBasisNm":null,"fhdBasisEnt":null,"fhdBasisPrj":null,"fhdBasisMethod":null,"Shape__Length":25219.933683239244,"fhdAccess":null,"fhdBarrierFtrID":null,"fhdEndExtent":null,"habitatType":"stream"},"id":21},
{"type":"Feature","geometry":{"type":"LineString","coordinates":[[-118.531503,42.599853],[-118.551007,42.605171],[-118.556326,42.608087]]},"properties":{"OBJECTID":22,"fhdFtrID":16683,"fhdRefID":51849,"fhdRevDt":"19990000","fhdONm":"Wayne Bowers-Mary Hanson","fhdOEnt":"ODFW","fhdSpNm":"Lahontan cutthroat trout","fhdRun":"NA","fhdLifeHst":"Resident","fhdUseTy":"Unknown","fhdBasis":"UndocObsFish","fhdStNm":"Little Alvord Creek","fhdGenus":"Oncorhynchus","fhdSp":"clarkii","fhdSubSp":"henshawi","fhdOrig":"NativeLocal","fhdProd":"Natural","fhdComment":null,"fhdESH":"NA","fhdBasisD":null,"fhdNMF":"yes","fhdBasisDt":null,"fhdBasisNm":null,"fhdBasisEnt":null,"fhdBasisPrj":null,"fhdBasisMethod":null,"Shape__Length":3325.4815989093763,"fhdAccess":null,"fhdBarrierFtrID":null,"fhdEndExtent":null,"habitatType":"stream"},"id":22},
{"type":"Feature","geometry":{"type":"LineString","coordinates":[[-118.527329,42.572108],[-118.533193,42.577883],[-118.53808,42.578675],[-118.552777,42.583589],[-118.560717,42.59045],[-118.565048,42.591553],[-118.578739,42.59224]]},"properties":{"OBJECTID":23,"fhdFtrID":16684,"fhdRefID":51849,"fhdRevDt":"19990000","fhdONm":"Wayne Bowers-Mary Hanson","fhdOEnt":"ODFW","fhdSpNm":"Lahontan cutthroat trout","fhdRun":"NA","fhdLifeHst":"Resident","fhdUseTy":"Unknown","fhdBasis":"UndocObsFish","fhdStNm":"Pike Creek","fhdGenus":"Oncorhynchus","fhdSp":"clarkii","fhdSubSp":"henshawi","fhdOrig":"NativeLocal","fhdProd":"Mixed","fhdComment":null,"fhdESH":"NA","fhdBasisD":null,"fhdNMF":"yes","fhdBasisDt":null,"fhdBasisNm":null,"fhdBasisEnt":null,"fhdBasisPrj":null,"fhdBasisMethod":null,"Shape__Length":7528.841552297146,"fhdAccess":null,"fhdBarrierFtrID":null,"fhdEndExtent":null,"habitatType":"stream"},"id":23},
{"type":"Feature","geometry":{"type":"LineString","coordinates":[[-118.223974,42.153175],[-118.229473,42.14495],[-118.239244,42.141043],[-118.241931,42.134762],[-118.248225,42.130235],[-118.254805,42.127861],[-118.256066,42.123492]]},"properties":{"OBJECTID":24,"fhdFtrID":16685,"fhdRefID":51849,"fhdRevDt":"19990000","fhdONm":"Wayne Bowers-Mary Hanson","fhdOEnt":"ODFW","fhdSpNm":"Lahontan cutthroat trout","fhdRun":"NA","fhdLifeHst":"Resident","fhdUseTy":"Unknown","fhdBasis":"UndocObsFish","fhdStNm":" ","fhdGenus":"Oncorhynchus","fhdSp":"clarkii","fhdSubSp":"henshawi","fhdOrig":"NativeLocal","fhdProd":"Natural","fhdComment":null,"fhdESH":"NA","fhdBasisD":null,"fhdNMF":"yes","fhdBasisDt":null,"fhdBasisNm":null,"fhdBasisEnt":null,"fhdBasisPrj":null,"fhdBasisMethod":null,"Shape__Length":6214.947315032744,"fhdAccess":null,"fhdBarrierFtrID":null,"fhdEndExtent":null,"habitatType":"stream"},"id":24},
{"type":"Feature","geometry":{"type":"LineString","coordinates":[[-118.498608,42.650662],[-118.512448,42.653688],[-118.522249,42.651953],[-118.525957,42.656466],[-118.531817,42.657636],[-118.549359,42.658381],[-118.55426,42.662056]]},"properties":{"OBJECTID":25,"fhdFtrID":16686,"fhdRefID":51849,"fhdRevDt":"19990000","fhdONm":"Wayne Bowers-Mary Hanson","fhdOEnt":"ODFW","fhdSpNm":"Lahontan cutthroat trout","fhdRun":"NA","fhdLifeHst":"Resident","fhdUseTy":"Unknown","fhdBasis":"UndocObsFish","fhdStNm":"Cottonwood Creek","fhdGenus":"Oncorhynchus","fhdSp":"clarkii","fhdSubSp":"henshawi","fhdOrig":"NativeLocal","fhdProd":"Mixed","fhdComment":null,"fhdESH":"NA","fhdBasisD":null,"fhdNMF":"yes","fhdBasisDt":null,"fhdBasisNm":null,"fhdBasisEnt":null,"fhdBasisPrj":null,"fhdBasisMethod":null,"Shape__Length":7742.796710725192,"fhdAccess":null,"fhdBarrierFtrID":null,"fhdEndExtent":null,"habitatType":"stream"},"id":25},
{"type":"Feature","geometry":{"type":"LineString","coordinates":[[-118.239244,42.141043],[-118.255973,42.133175],[-118.263701,42.132818]]},"properties":{"OBJECTID":26,"fhdFtrID":16687,"fhdRefID":51849,"fhdRevDt":"19990000","fhdONm":"Wayne Bowers-Mary Hanson","fhdOEnt":"ODFW","fhdSpNm":"Lahontan cutthroat trout","fhdRun":"NA","fhdLifeHst":"Resident","fhdUseTy":"Unknown","fhdBasis":"UndocObsFish","fhdStNm":" ","fhdGenus":"Oncorhynchus","fhdSp":"clarkii","fhdSubSp":"henshawi","fhdOrig":"NativeLocal","fhdProd":"Natural","fhdComment":null,"fhdESH":"NA","fhdBasisD":null,"fhdNMF":"yes","fhdBasisDt":null,"fhdBasisNm":null,"fhdBasisEnt":null,"fhdBasisPrj":null,"fhdBasisMethod":null,"Shape__Length":3186.06247514467,"fhdAccess":null,"fhdBarrierFtrID":null,"fhdEndExtent":null,"habitatType":"stream"},"id":26},
{"type":"Feature","geometry":{"type":"LineString","coordinates":[[-118.492466,42.689939],[-118.50616,42.690275],[-118.511897,42.692457],[-118.518171,42.690954],[-118.526644,42.691824],[-118.528399,42.693828]]},"properties":{"OBJECTID":27,"fhdFtrID":16688,"fhdRefID":51849,"fhdRevDt":"19990000","fhdONm":"Wayne Bowers-Mary Hanson","fhdOEnt":"ODFW","fhdSpNm":"Lahontan cutthroat trout","fhdRun":"NA","fhdLifeHst":"Resident","fhdUseTy":"Unknown","fhdBasis":"UndocObsFish","fhdStNm":"Buena Vista Creek","fhdGenus":"Oncorhynchus","fhdSp":"clarkii","fhdSubSp":"henshawi","fhdOrig":"NativeLocal","fhdProd":"Natural","fhdComment":null,"fhdESH":"NA","fhdBasisD":null,"fhdNMF":"yes","fhdBasisDt":null,"fhdBasisNm":null,"fhdBasisEnt":null,"fhdBasisPrj":null,"fhdBasisMethod":null,"Shape__Length":4507.087299822382,"fhdAccess":null,"fhdBarrierFtrID":null,"fhdEndExtent":null,"habitatType":"stream"},"id":27},
{"type":"Feature","geometry":{"type":"LineString","coordinates":[[-118.122198,41.991773],[-118.124335,41.994848],[-118.133954,41.999167],[-118.1412,42.000377]]},"properties":{"OBJECTID":28,"fhdFtrID":16689,"fhdRefID":51849,"fhdRevDt":"20240215","fhdONm":"Wayne Bowers-Mary Hanson","fhdOEnt":"ODFW","fhdSpNm":"Lahontan cutthroat trout","fhdRun":"NA","fhdLifeHst":"Resident","fhdUseTy":"Unknown","fhdBasis":"UndocObsFish","fhdStNm":"Sage Creek","fhdGenus":"Oncorhynchus","fhdSp":"clarkii","fhdSubSp":"henshawi","fhdOrig":"NativeLocal","fhdProd":"Natural","fhdComment":"Habitat use changed in 2024 (ODFW; RefID 53863)","fhdESH":"NA","fhdBasisD":null,"fhdNMF":"yes","fhdBasisDt":null,"fhdBasisNm":null,"fhdBasisEnt":null,"fhdBasisPrj":null,"fhdBasisMethod":null,"Shape__Length":3089.1930653347727,"fhdAccess":null,"fhdBarrierFtrID":null,"fhdEndExtent":null,"habitatType":"stream"},"id":28},
{"type":"Feature","geometry":{"type":"LineString","coordinates":[[-118.132578,42.317769],[-118.125302,42.311082],[-118.121498,42.308877],[-118.111817,42.300367],[-118.093861,42.297842],[-118.083825,42.294814],[-118.080689,42.291922],[-118.077729,42.284044]]},"properties":{"OBJECTID":29,"fhdFtrID":16690,"fhdRefID":53577,"fhdRevDt":"20170925","fhdONm":"Eric Hiebenthal","fhdOEnt":"BLM","fhdSpNm":"Lahontan cutthroat trout","fhdRun":"NA","fhdLifeHst":"FluvRes","fhdUseTy":"ResidentMultipleUses","fhdBasis":"UndocObsFish","fhdStNm":null,"fhdGenus":"Oncorhynchus","fhdSp":"clarkii","fhdSubSp":"henshawi","fhdOrig":"NativeLocal","fhdProd":"Natural","fhdComment":null,"fhdESH":"NA","fhdBasisD":null,"fhdNMF":"yes","fhdBasisDt":"20030000","fhdBasisNm":null,"fhdBasisEnt":null,"fhdBasisPrj":null,"fhdBasisMethod":null,"Shape__Length":9082.162467833316,"fhdAccess":null,"fhdBarrierFtrID":null,"fhdEndExtent":null,"habitatType":"stream"},"id":29},
{"type":"Feature","geometry":{"type":"LineString","coordinates":[[-118.489436,42.613536],[-118.511411,42.623191],[-118.516213,42.623907],[-118.523214,42.629076],[-118.527723,42.636482],[-118.534366,42.637589]]},"properties":{"OBJECTID":30,"fhdFtrID":16691,"fhdRefID":51849,"fhdRevDt":"20120530","fhdONm":"Shannon Hurn","fhdOEnt":"ODFW","fhdSpNm":"Lahontan cutthroat trout","fhdRun":"NA","fhdLifeHst":"Resident","fhdUseTy":"Unknown","fhdBasis":"UndocObsFish","fhdStNm":null,"fhdGenus":"Oncorhynchus","fhdSp":"clarkii","fhdSubSp":"henshawi","fhdOrig":"NativeLocal","fhdProd":"Mixed","fhdComment":null,"fhdESH":"NA","fhdBasisD":null,"fhdNMF":"yes","fhdBasisDt":null,"fhdBasisNm":null,"fhdBasisEnt":null,"fhdBasisPrj":null,"fhdBasisMethod":null,"Shape__Length":6899.715696874338,"fhdAccess":null,"fhdBarrierFtrID":null,"fhdEndExtent":null,"habitatType":"stream"},"id":30},
{"type":"Feature","geometry":{"type":"LineString","coordinates":[[-118.235582,42.322344],[-118.226702,42.316709]]},"properties":{"OBJECTID":31,"fhdFtrID":16692,"fhdRefID":51849,"fhdRevDt":"20120530","fhdONm":"Ray Perkins","fhdOEnt":"ODFW","fhdSpNm":"Lahontan cutthroat trout","fhdRun":"NA","fhdLifeHst":"Resident","fhdUseTy":"Unknown","fhdBasis":"DocObsFish","fhdStNm":null,"fhdGenus":"Oncorhynchus","fhdSp":"clarkii","fhdSubSp":"henshawi","fhdOrig":"NativeLocal","fhdProd":"Natural","fhdComment":null,"fhdESH":"NA","fhdBasisD":null,"fhdNMF":"yes","fhdBasisDt":null,"fhdBasisNm":null,"fhdBasisEnt":null,"fhdBasisPrj":null,"fhdBasisMethod":null,"Shape__Length":1342.8374229429253,"fhdAccess":null,"fhdBarrierFtrID":null,"fhdEndExtent":null,"habitatType":"stream"},"id":31},
{"type":"Feature","geometry":{"type":"LineString","coordinates":[[-117.992286,42.218334],[-117.993512,42.214243],[-117.990871,42.209572],[-117.989314,42.201832],[-117.990663,42.198884],[-117.986979,42.189174],[-117.986895,42.185457],[-117.983554,42.179777],[-117.979823,42.173542],[-117.980682,42.166542],[-117.977255,42.162041],[-117.975065,42.15176],[-117.969085,42.14463]]},"properties":{"OBJECTID":32,"fhdFtrID":16693,"fhdRefID":53577,"fhdRevDt":"20170925","fhdONm":"Eric Hiebenthal","fhdOEnt":"BLM","fhdSpNm":"Lahontan cutthroat trout","fhdRun":"NA","fhdLifeHst":"FluvRes","fhdUseTy":"ResidentMultipleUses","fhdBasis":"UndocObsFish","fhdStNm":"Oregon Canyon Creek","fhdGenus":"Oncorhynchus","fhdSp":"clarkii","fhdSubSp":"henshawi","fhdOrig":"NativeLocal","fhdProd":"Natural","fhdComment":null,"fhdESH":"NA","fhdBasisD":null,"fhdNMF":"yes","fhdBasisDt":"20030000","fhdBasisNm":null,"fhdBasisEnt":null,"fhdBasisPrj":null,"fhdBasisMethod":null,"Shape__Length":12358.54533635238,"fhdAccess":null,"fhdBarrierFtrID":null,"fhdEndExtent":null,"habitatType":"stream"},"id":32},
{"type":"Feature","geometry":{"type":"LineString","coordinates":[[-117.983554,42.179777],[-117.979848,42.179053],[-117.967467,42.171113],[-117.964639,42.167397],[-117.957295,42.163303]]},"properties":{"OBJECTID":33,"fhdFtrID":16694,"fhdRefID":53577,"fhdRevDt":"20170925","fhdONm":"Eric Hiebenthal","fhdOEnt":"BLM","fhdSpNm":"Lahontan cutthroat trout","fhdRun":"NA","fhdLifeHst":"FluvRes","fhdUseTy":"ResidentMultipleUses","fhdBasis":"UndocObsFish","fhdStNm":"East Fork Oregon Canyon Creek","fhdGenus":"Oncorhynchus","fhdSp":"clarkii","fhdSubSp":"henshawi","fhdOrig":"NativeLocal","fhdProd":"Natural","fhdComment":null,"fhdESH":"NA","fhdBasisD":null,"fhdNMF":"yes","fhdBasisDt":"20030000","fhdBasisNm":null,"fhdBasisEnt":null,"fhdBasisPrj":null,"fhdBasisMethod":null,"Shape__Length":4155.345195998902,"fhdAccess":null,"fhdBarrierFtrID":null,"fhdEndExtent":null,"habitatType":"stream"},"id":33},
{"type":"Feature","geometry":{"type":"LineString","coordinates":[[-118.124652,42.027015],[-118.128115,42.030906],[-118.137307,42.036114],[-118.146607,42.038221],[-118.151586,42.037899],[-118.158345,42.041068],[-118.160646,42.049035],[-118.164512,42.052434],[-118.167227,42.062332],[-118.169465,42.066203]]},"properties":{"OBJECTID":34,"fhdFtrID":16695,"fhdRefID":53577,"fhdRevDt":"20240215","fhdONm":"Eric Hiebenthal","fhdOEnt":"BLM","fhdSpNm":"Lahontan cutthroat trout","fhdRun":"NA","fhdLifeHst":"FluvRes","fhdUseTy":"Unknown","fhdBasis":"UndocObsFish","fhdStNm":"McDermitt Creek","fhdGenus":"Oncorhynchus","fhdSp":"clarkii","fhdSubSp":"henshawi","fhdOrig":"NativeLocal","fhdProd":"Natural","fhdComment":"Habitat use changed in 2024 (ODFW; RefID 53863)","fhdESH":"NA","fhdBasisD":null,"fhdNMF":"yes","fhdBasisDt":"20030000","fhdBasisNm":null,"fhdBasisEnt":null,"fhdBasisPrj":null,"fhdBasisMethod":null,"Shape__Length":9099.196258976664,"fhdAccess":null,"fhdBarrierFtrID":null,"fhdEndExtent":null,"habitatType":"stream"},"id":34},
{"type":"Feature","geometry":{"type":"LineString","coordinates":[[-118.205021,42.064128],[-118.21337,42.067805]]},"properties":{"OBJECTID":35,"fhdFtrID":16696,"fhdRefID":53577,"fhdRevDt":"20240215","fhdONm":"Eric Hiebenthal","fhdOEnt":"BLM","fhdSpNm":"Lahontan cutthroat trout","fhdRun":"NA","fhdLifeHst":"FluvRes","fhdUseTy":"Unknown","fhdBasis":"UndocObsFish","fhdStNm":null,"fhdGenus":"Oncorhynchus","fhdSp":"clarkii","fhdSubSp":"henshawi","fhdOrig":"NativeLocal","fhdProd":"Natural","fhdComment":"Non-native Rainbow Trout and Brook Trout occur within this same area and compete for resources and hybridization has been documented","fhdESH":"NA","fhdBasisD":null,"fhdNMF":"yes","fhdBasisDt":"20030000","fhdBasisNm":null,"fhdBasisEnt":null,"fhdBasisPrj":null,"fhdBasisMethod":null,"Shape__Length":1160.362912521241,"fhdAccess":null,"fhdBarrierFtrID":null,"fhdEndExtent":null,"habitatType":"stream"},"id":35},
{"type":"Feature","geometry":{"type":"LineString","coordinates":[[-118.169465,42.066203],[-118.179205,42.067115],[-118.190109,42.059435],[-118.193473,42.056141]]},"properties":{"OBJECTID":36,"fhdFtrID":16697,"fhdRefID":53577,"fhdRevDt":"20240215","fhdONm":"Eric Hiebenthal","fhdOEnt":"BLM","fhdSpNm":"Lahontan cutthroat trout","fhdRun":"NA","fhdLifeHst":"FluvRes","fhdUseTy":"Unknown","fhdBasis":"UndocObsFish","fhdStNm":"McDermitt Creek","fhdGenus":"Oncorhynchus","fhdSp":"clarkii","fhdSubSp":"henshawi","fhdOrig":"NativeLocal","fhdProd":"Natural","fhdComment":null,"fhdESH":"NA","fhdBasisD":null,"fhdNMF":"yes","fhdBasisDt":"20030000","fhdBasisNm":null,"fhdBasisEnt":null,"fhdBasisPrj":null,"fhdBasisMethod":null,"Shape__Length":3529.905652447265,"fhdAccess":null,"fhdBarrierFtrID":null,"fhdEndExtent":null,"habitatType":"stream"},"id":36},
{"type":"Feature","geometry":{"type":"LineString","coordinates":[[-117.909954,41.98991],[-117.912511,41.992731],[-117.925994,41.998336],[-117.93154,42.001567],[-117.938937,42.004395],[-117.946482,42.002632],[-117.952643,42.003988],[-117.960246,42.003839],[-117.963697,42.001186],[-117.970273,42.006351],[-117.978603,42.001687],[-117.982459,41.998396],[-117.982818,41.995256],[-117.988007,41.995967],[-117.991785,41.998903],[-117.995882,41.995799],[-118.001394,41.995397],[-118.002336,42.000746],[-118.005908,42.001375]]},"properties":{"OBJECTID":37,"fhdFtrID":16698,"fhdRefID":53863,"fhdRevDt":"20240215","fhdONm":"Dave Banks","fhdOEnt":"ODFW","fhdSpNm":"Lahontan cutthroat trout","fhdRun":"NA","fhdLifeHst":"FluvRes","fhdUseTy":"Unknown","fhdBasis":"DocObsFish","fhdStNm":"McDermitt Creek","fhdGenus":"Oncorhynchus","fhdSp":"clarkii","fhdSubSp":"henshawi","fhdOrig":"NativeLocal","fhdProd":"Natural","fhdComment":"Life history from BLM (RefID 53577)","fhdESH":"NA","fhdBasisD":null,"fhdNMF":"yes","fhdBasisDt":"20030000","fhdBasisNm":null,"fhdBasisEnt":null,"fhdBasisPrj":null,"fhdBasisMethod":null,"Shape__Length":16549.793533159725,"fhdAccess":null,"fhdBarrierFtrID":null,"fhdEndExtent":null,"habitatType":"stream"},"id":37},
{"type":"Feature","geometry":{"type":"LineString","coordinates":[[-117.956,42.035577],[-117.956531,42.036378]]},"properties":{"OBJECTID":38,"fhdFtrID":16699,"fhdRefID":53577,"fhdRevDt":"20240215","fhdONm":"Eric Hiebenthal","fhdOEnt":"BLM","fhdSpNm":"Lahontan cutthroat trout","fhdRun":"NA","fhdLifeHst":"FluvRes","fhdUseTy":"Unknown","fhdBasis":"UndocObsFish","fhdStNm":"Indian Creek","fhdGenus":"Oncorhynchus","fhdSp":"clarkii","fhdSubSp":"henshawi","fhdOrig":"NativeLocal","fhdProd":"Natural","fhdComment":"Habitat use changed in 2024 (ODFW; RefID 53863)","fhdESH":"NA","fhdBasisD":null,"fhdNMF":"yes","fhdBasisDt":"20030000","fhdBasisNm":null,"fhdBasisEnt":null,"fhdBasisPrj":null,"fhdBasisMethod":null,"Shape__Length":146.59181614399589,"fhdAccess":null,"fhdBarrierFtrID":null,"fhdEndExtent":null,"habitatType":"stream"},"id":38},
{"type":"Feature","geometry":{"type":"LineString","coordinates":[[-117.934968,42.020228],[-117.928643,42.026365],[-117.925372,42.033447],[-117.925769,42.036006]]},"properties":{"OBJECTID":39,"fhdFtrID":16700,"fhdRefID":53577,"fhdRevDt":"20240215","fhdONm":"Eric Hiebenthal","fhdOEnt":"BLM","fhdSpNm":"Lahontan cutthroat trout","fhdRun":"NA","fhdLifeHst":"FluvRes","fhdUseTy":"Unknown","fhdBasis":"DocObsFish","fhdStNm":"Cottonwood Creek","fhdGenus":"Oncorhynchus","fhdSp":"clarkii","fhdSubSp":"henshawi","fhdOrig":"NativeLocal","fhdProd":"Natural","fhdComment":"Basis change in 2024 (ODFW; RefID 53862)","fhdESH":"NA","fhdBasisD":null,"fhdNMF":"yes","fhdBasisDt":"20030000","fhdBasisNm":null,"fhdBasisEnt":null,"fhdBasisPrj":null,"fhdBasisMethod":null,"Shape__Length":2782.3703454887786,"fhdAccess":null,"fhdBarrierFtrID":null,"fhdEndExtent":null,"habitatType":"stream"},"id":39},
{"type":"Feature","geometry":{"type":"LineString","coordinates":[[-117.925769,42.036006],[-117.926482,42.044372],[-117.923616,42.049368],[-117.919379,42.052804],[-117.912474,42.060236],[-117.912192,42.063618]]},"properties":{"OBJECTID":40,"fhdFtrID":16701,"fhdRefID":53863,"fhdRevDt":"20240215","fhdONm":"Dave Banks","fhdOEnt":"ODFW","fhdSpNm":"Lahontan cutthroat trout","fhdRun":"NA","fhdLifeHst":"Unknown","fhdUseTy":"Unknown","fhdBasis":"DocObsFish","fhdStNm":"Cottonwood Creek","fhdGenus":"Oncorhynchus","fhdSp":"clarkii","fhdSubSp":"henshawi","fhdOrig":"NativeLocal","fhdProd":"Natural","fhdComment":null,"fhdESH":"NA","fhdBasisD":null,"fhdNMF":"yes","fhdBasisDt":null,"fhdBasisNm":null,"fhdBasisEnt":null,"fhdBasisPrj":null,"fhdBasisMethod":null,"Shape__Length":4761.754795244217,"fhdAccess":null,"fhdBarrierFtrID":null,"fhdEndExtent":null,"habitatType":"stream"},"id":40},
{"type":"Feature","geometry":{"type":"LineString","coordinates":[[-117.93154,42.001567],[-117.930855,42.004274],[-117.935433,42.009215],[-117.933702,42.015216],[-117.934968,42.020228]]},"properties":{"OBJECTID":41,"fhdFtrID":16702,"fhdRefID":53577,"fhdRevDt":"20240215","fhdONm":"Eric Hiebenthal","fhdOEnt":"BLM","fhdSpNm":"Lahontan cutthroat trout","fhdRun":"NA","fhdLifeHst":"FluvRes","fhdUseTy":"Unknown","fhdBasis":"UndocObsFish","fhdStNm":"Cottonwood Creek","fhdGenus":"Oncorhynchus","fhdSp":"clarkii","fhdSubSp":"henshawi","fhdOrig":"NativeLocal","fhdProd":"Natural","fhdComment":"Habitat use changed in 2024 (ODFW; RefID 53863)","fhdESH":"NA","fhdBasisD":null,"fhdNMF":"yes","fhdBasisDt":"20030000","fhdBasisNm":null,"fhdBasisEnt":null,"fhdBasisPrj":null,"fhdBasisMethod":null,"Shape__Length":3337.0440594631473,"fhdAccess":null,"fhdBarrierFtrID":null,"fhdEndExtent":null,"habitatType":"stream"},"id":41},
{"type":"Feature","geometry":{"type":"LineString","coordinates":[[-117.934968,42.020228],[-117.937,42.026931],[-117.942162,42.031966],[-117.956,42.035577]]},"properties":{"OBJECTID":42,"fhdFtrID":16703,"fhdRefID":53577,"fhdRevDt":"20240215","fhdONm":"Eric Hiebenthal","fhdOEnt":"BLM","fhdSpNm":"Lahontan cutthroat trout","fhdRun":"NA","fhdLifeHst":"FluvRes","fhdUseTy":"Unknown","fhdBasis":"UndocObsFish","fhdStNm":"Indian Creek","fhdGenus":"Oncorhynchus","fhdSp":"clarkii","fhdSubSp":"henshawi","fhdOrig":"NativeLocal","fhdProd":"Natural","fhdComment":"Habitat use changed in 2024 (ODFW; RefID 53863)","fhdESH":"NA","fhdBasisD":null,"fhdNMF":"yes","fhdBasisDt":"20030000","fhdBasisNm":null,"fhdBasisEnt":null,"fhdBasisPrj":null,"fhdBasisMethod":null,"Shape__Length":3959.3617521779843,"fhdAccess":null,"fhdBarrierFtrID":null,"fhdEndExtent":null,"habitatType":"stream"},"id":42},
{"type":"Feature","geometry":{"type":"LineString","coordinates":[[-118.189335,42.015627],[-118.202727,42.022434],[-118.205473,42.021978]]},"properties":{"OBJECTID":43,"fhdFtrID":16704,"fhdRefID":53863,"fhdRevDt":"20240215","fhdONm":"Dave Banks","fhdOEnt":"ODFW","fhdSpNm":"Lahontan cutthroat trout","fhdRun":"NA","fhdLifeHst":"Unknown","fhdUseTy":"Unknown","fhdBasis":"DocObsFish","fhdStNm":null,"fhdGenus":"Oncorhynchus","fhdSp":"clarkii","fhdSubSp":"henshawi","fhdOrig":"NativeLocal","fhdProd":"Natural","fhdComment":"Documented presence from sampling and genetic testing in 2021","fhdESH":"NA","fhdBasisD":null,"fhdNMF":"yes","fhdBasisDt":null,"fhdBasisNm":null,"fhdBasisEnt":null,"fhdBasisPrj":null,"fhdBasisMethod":null,"Shape__Length":2245.4963140648456,"fhdAccess":null,"fhdBarrierFtrID":null,"fhdEndExtent":null,"habitatType":"stream"},"id":43},
{"type":"Feature","geometry":{"type":"LineString","coordinates":[[-118.005908,42.001375],[-118.008777,42.000228],[-118.013608,42.005138],[-118.025312,42.004429],[-118.036043,42.006519],[-118.042477,42.006191],[-118.04635,42.003172],[-118.053349,42.00304],[-118.055861,42.000613],[-118.068843,42.000308],[-118.081739,42.004616],[-118.085154,42.004193],[-118.093621,42.008287],[-118.096456,42.011261],[-118.106197,42.013679],[-118.115388,42.018353],[-118.124652,42.027015]]},"properties":{"OBJECTID":44,"fhdFtrID":16705,"fhdRefID":53863,"fhdRevDt":"20240215","fhdONm":"Dave Banks","fhdOEnt":"ODFW","fhdSpNm":"Lahontan cutthroat trout","fhdRun":"NA","fhdLifeHst":"Unknown","fhdUseTy":"Unknown","fhdBasis":"DocObsFish","fhdStNm":"McDermitt Creek","fhdGenus":"Oncorhynchus","fhdSp":"clarkii","fhdSubSp":"henshawi","fhdOrig":"NativeLocal","fhdProd":"Natural","fhdComment":null,"fhdESH":"NA","fhdBasisD":null,"fhdNMF":"yes","fhdBasisDt":null,"fhdBasisNm":null,"fhdBasisEnt":null,"fhdBasisPrj":null,"fhdBasisMethod":null,"Shape__Length":19264.944603988926,"fhdAccess":null,"fhdBarrierFtrID":null,"fhdEndExtent":null,"habitatType":"stream"},"id":44},
{"type":"Feature","geometry":{"type":"LineString","coordinates":[[-118.169465,42.066203],[-118.172758,42.070584],[-118.184156,42.073022],[-118.189852,42.071551],[-118.198022,42.066934],[-118.205021,42.064128]]},"properties":{"OBJECTID":45,"fhdFtrID":16706,"fhdRefID":53863,"fhdRevDt":"20240215","fhdONm":"Dave Banks","fhdOEnt":"ODFW","fhdSpNm":"Lahontan cutthroat trout","fhdRun":"NA","fhdLifeHst":"FluvRes","fhdUseTy":"Unknown","fhdBasis":"DocObsFish","fhdStNm":"North Fork McDermitt Creek","fhdGenus":"Oncorhynchus","fhdSp":"clarkii","fhdSubSp":"henshawi","fhdOrig":"NativeLocal","fhdProd":"Natural","fhdComment":"Life history from BLM (RefID 53577)","fhdESH":"NA","fhdBasisD":null,"fhdNMF":"yes","fhdBasisDt":"20030000","fhdBasisNm":null,"fhdBasisEnt":null,"fhdBasisPrj":null,"fhdBasisMethod":null,"Shape__Length":4964.5661652152285,"fhdAccess":null,"fhdBarrierFtrID":null,"fhdEndExtent":null,"habitatType":"stream"},"id":45},
{"type":"Feature","geometry":{"type":"LineString","coordinates":[[-118.205021,42.064128],[-118.208173,42.060373],[-118.215689,42.057704]]},"properties":{"OBJECTID":46,"fhdFtrID":16707,"fhdRefID":53863,"fhdRevDt":"20240215","fhdONm":"Dave Banks","fhdOEnt":"ODFW","fhdSpNm":"Lahontan cutthroat trout","fhdRun":"NA","fhdLifeHst":"Unknown","fhdUseTy":"Unknown","fhdBasis":"DocObsFish","fhdStNm":"North Fork McDermitt Creek","fhdGenus":"Oncorhynchus","fhdSp":"clarkii","fhdSubSp":"henshawi","fhdOrig":"NativeLocal","fhdProd":"Natural","fhdComment":"Non-native Rainbow Trout and Brook Trout occur within this same area and compete for resources and hybridization has been documented.","fhdESH":"NA","fhdBasisD":null,"fhdNMF":"yes","fhdBasisDt":null,"fhdBasisNm":null,"fhdBasisEnt":null,"fhdBasisPrj":null,"fhdBasisMethod":null,"Shape__Length":1722.7472845820978,"fhdAccess":null,"fhdBarrierFtrID":null,"fhdEndExtent":null,"habitatType":"stream"},"id":46},
{"type":"Feature","geometry":{"type":"LineString","coordinates":[[-118.21337,42.067805],[-118.218535,42.068336]]},"properties":{"OBJECTID":47,"fhdFtrID":16708,"fhdRefID":53863,"fhdRevDt":"20240215","fhdONm":"Dave Banks","fhdOEnt":"ODFW","fhdSpNm":"Lahontan cutthroat trout","fhdRun":"NA","fhdLifeHst":"Unknown","fhdUseTy":"Unknown","fhdBasis":"DocObsHabitat","fhdStNm":null,"fhdGenus":"Oncorhynchus","fhdSp":"clarkii","fhdSubSp":"henshawi","fhdOrig":"NativeLocal","fhdProd":"Natural","fhdComment":"Non-native Rainbow Trout and Brook Trout occur within this same area and compete for resources and hybridization has been documented.","fhdESH":"NA","fhdBasisD":null,"fhdNMF":"yes","fhdBasisDt":null,"fhdBasisNm":null,"fhdBasisEnt":null,"fhdBasisPrj":null,"fhdBasisMethod":null,"Shape__Length":633.7725976924286,"fhdAccess":null,"fhdBarrierFtrID":null,"fhdEndExtent":null,"habitatType":"stream"},"id":47},
{"type":"Feature","geometry":{"type":"LineString","coordinates":[[-117.831029,41.966516],[-117.851014,41.973281],[-117.853856,41.975909],[-117.86313,41.980495],[-117.877158,41.981979],[-117.883286,41.984216],[-117.888115,41.982116],[-117.894301,41.985165],[-117.903109,41.985339],[-117.909954,41.98991]]},"properties":{"OBJECTID":48,"fhdFtrID":16709,"fhdRefID":53863,"fhdRevDt":"20240215","fhdONm":"Dave Banks","fhdOEnt":"ODFW","fhdSpNm":"Lahontan cutthroat trout","fhdRun":"NA","fhdLifeHst":"Unknown","fhdUseTy":"Unknown","fhdBasis":"DocObsFish","fhdStNm":"McDermitt Creek","fhdGenus":"Oncorhynchus","fhdSp":"clarkii","fhdSubSp":"henshawi","fhdOrig":"NativeLocal","fhdProd":"Natural","fhdComment":null,"fhdESH":"NA","fhdBasisD":null,"fhdNMF":"yes","fhdBasisDt":null,"fhdBasisNm":null,"fhdBasisEnt":null,"fhdBasisPrj":null,"fhdBasisMethod":null,"Shape__Length":12308.086375973648,"fhdAccess":null,"fhdBarrierFtrID":null,"fhdEndExtent":null,"habitatType":"stream"},"id":48},
{"type":"Feature","geometry":{"type":"LineString","coordinates":[[-118.193473,42.056141],[-118.202983,42.047121],[-118.209884,42.046099],[-118.215112,42.042162],[-118.215612,42.039966]]},"properties":{"OBJECTID":49,"fhdFtrID":16710,"fhdRefID":53863,"fhdRevDt":"20240215","fhdONm":"Dave Banks","fhdOEnt":"ODFW","fhdSpNm":"Lahontan cutthroat trout","fhdRun":"NA","fhdLifeHst":"Unknown","fhdUseTy":"Unknown","fhdBasis":"DocObsFish","fhdStNm":"McDermitt Creek","fhdGenus":"Oncorhynchus","fhdSp":"clarkii","fhdSubSp":"henshawi","fhdOrig":"NativeLocal","fhdProd":"Natural","fhdComment":"Non-native Rainbow Trout and Brook Trout occur within this same area and compete for resources and hybridization has been documented.","fhdESH":"NA","fhdBasisD":null,"fhdNMF":"yes","fhdBasisDt":null,"fhdBasisNm":null,"fhdBasisEnt":null,"fhdBasisPrj":null,"fhdBasisMethod":null,"Shape__Length":3852.1152700101925,"fhdAccess":null,"fhdBarrierFtrID":null,"fhdEndExtent":null,"habitatType":"stream"},"id":49}
]}
