{"type":"FeatureCollection","features":[
{"type":"Feature","geometry":{"type":"Polygon","coordinates":[[[-122.272298,42.477592],[-122.269818,42.473195],[-122.256573,42.464847],[-122.253354,42.458891],[-122.244793,42.454877],[-122.242115,42.464154],[-122.24989,42.471526],[-122.251149,42.474781],[-122.25855,42.473163],[-122.272298,42.477592]]]},"properties":{"OBJECTID":1,"fhdFtrID":1,"fhdRefID":53684,"fhdRevDt":"20190201","fhdONm":"Peter Robinson","fhdOEnt":"ODFW","fhdSpNm":"Lake trout","fhdRun":"NA","fhdLifeHst":"Resident","fhdUseTy":"ResidentMultipleUses","fhdBasis":"UndocObsFish","fhdStNm":"Fourmile Lake","fhdGenus":"Salvelinus","fhdSp":"namaycush","fhdSubSp":null,"fhdOrig":"NonNative","fhdProd":"Natural","fhdComment":null,"fhdESH":"NA","fhdBasisD":null,"fhdNMF":"no","fhdBasisDt":null,"fhdBasisNm":null,"fhdBasisEnt":null,"fhdBasisPrj":null,"fhdBasisMethod":null,"fhdAccess":null,"fhdBarrierFtrID":null,"fhdEndExtent":null,"Shape__Area":4655995.78571052,"Shape__Length":14130.32058838847,"habitatType":"lake"},"id":1},
{"type":"Feature","geometry":{"type":"Polygon","coordinates":[[[-117.220937,45.334635],[-117.223807,45.329958],[-117.219279,45.325164],[-117.216834,45.318728],[-117.214369,45.299961],[-117.215263,45.286943],[-117.204819,45.282758],[-117.202395,45.28734],[-117.199141,45.301294],[-117.199406,45.307576],[-117.202246,45.321159],[-117.205722,45.328061],[-117.21219,45.333851],[-117.220937,45.334635]]]},"properties":{"OBJECTID":2,"fhdFtrID":2,"fhdRefID":53684,"fhdRevDt":"20190212","fhdONm":"Peter Robinson","fhdOEnt":"ODFW","fhdSpNm":"Lake trout","fhdRun":"NA","fhdLifeHst":"Resident","fhdUseTy":"ResidentMultipleUses","fhdBasis":"UndocObsFish","fhdStNm":"Wallowa Lake","fhdGenus":"Salvelinus","fhdSp":"namaycush","fhdSubSp":null,"fhdOrig":"NonNative","fhdProd":"Natural","fhdComment":null,"fhdESH":"NA","fhdBasisD":null,"fhdNMF":"no","fhdBasisDt":null,"fhdBasisNm":null,"fhdBasisEnt":null,"fhdBasisPrj":null,"fhdBasisMethod":null,"fhdAccess":null,"fhdBarrierFtrID":null,"fhdEndExtent":null,"Shape__Area":13026246.255897526,"Shape__Length":20522.804523005947,"habitatType":"lake"},"id":2},
{"type":"Feature","geometry":{"type":"Polygon","coordinates":[[[-121.966223,43.497386],[-121.97164,43.501275],[-121.974356,43.49817],[-121.984267,43.495801],[-121.997191,43.49027],[-122.011687,43.480185],[-122.021742,43.47445],[-122.029273,43.474456],[-122.031173,43.462343],[-122.027411,43.46056],[-122.016005,43.463078],[-122.004676,43.461846],[-121.999877,43.462416],[-121.996154,43.459939],[-121.989112,43.462758],[-121.981291,43.463103],[-121.974867,43.465188],[-121.966285,43.47004],[-121.961173,43.476018],[-121.958625,43.481316],[-121.957702,43.487575],[-121.963431,43.49248],[-121.966223,43.497386]]]},"properties":{"OBJECTID":3,"fhdFtrID":3,"fhdRefID":53684,"fhdRevDt":"20190219","fhdONm":"Peter Robinson","fhdOEnt":"ODFW","fhdSpNm":"Lake trout","fhdRun":"NA","fhdLifeHst":"Resident","fhdUseTy":"ResidentMultipleUses","fhdBasis":"UndocObsFish","fhdStNm":"Crescent Lake","fhdGenus":"Salvelinus","fhdSp":"namaycush","fhdSubSp":null,"fhdOrig":"NonNative","fhdProd":"Unknown","fhdComment":null,"fhdESH":"NA","fhdBasisD":null,"fhdNMF":"no","fhdBasisDt":null,"fhdBasisNm":null,"fhdBasisEnt":null,"fhdBasisPrj":null,"fhdBasisMethod":null,"fhdAccess":null,"fhdBarrierFtrID":null,"fhdEndExtent":null,"Shape__Area":29399567.435429417,"Shape__Length":26299.80645850623,"habitatType":"lake"},"id":3},
{"type":"Feature","geometry":{"type":"Polygon","coordinates":[[[-122.110472,43.466193],[-122.115508,43.464314],[-122.123236,43.465103],[-122.124037,43.457392],[-122.128448,43.457147],[-122.129347,43.462439],[-122.133307,43.462046],[-122.131652,43.457441],[-122.135108,43.450642],[-122.133177,43.447458],[-122.126311,43.446433],[-122.117843,43.451573],[-122.113646,43.451441],[-122.110587,43.461646],[-122.110472,43.466193]]]},"properties":{"OBJECTID":4,"fhdFtrID":4,"fhdRefID":53684,"fhdRevDt":"20190219","fhdONm":"Peter Robinson","fhdOEnt":"ODFW","fhdSpNm":"Lake trout","fhdRun":"NA","fhdLifeHst":"Resident","fhdUseTy":"ResidentMultipleUses","fhdBasis":"UndocObsFish","fhdStNm":"Summit Lake","fhdGenus":"Salvelinus","fhdSp":"namaycush","fhdSubSp":null,"fhdOrig":"NonNative","fhdProd":"Unknown","fhdComment":null,"fhdESH":"NA","fhdBasisD":null,"fhdNMF":"no","fhdBasisDt":null,"fhdBasisNm":null,"fhdBasisEnt":null,"fhdBasisPrj":null,"fhdBasisMethod":null,"fhdAccess":null,"fhdBarrierFtrID":null,"fhdEndExtent":null,"Shape__Area":5315652.83150999,"Shape__Length":18875.32100304885,"habitatType":"lake"},"id":4},
{"type":"Feature","geometry":{"type":"Polygon","coordinates":[[[-121.862807,43.847229],[-121.865271,43.842833],[-121.875411,43.840439],[-121.883048,43.844026],[-121.888777,43.841813],[-121.889502,43.837651],[-121.885207,43.834773],[-121.879241,43.834327],[-121.859381,43.835679],[-121.849997,43.834478],[-121.843131,43.828952],[-121.833342,43.829581],[-121.836501,43.840382],[-121.839751,43.840235],[-121.844291,43.843847],[-121.850546,43.84328],[-121.862807,43.847229]]]},"properties":{"OBJECTID":5,"fhdFtrID":5,"fhdRefID":53684,"fhdRevDt":"20190219","fhdONm":"Peter Robinson","fhdOEnt":"ODFW","fhdSpNm":"Lake trout","fhdRun":"NA","fhdLifeHst":"Resident","fhdUseTy":"ResidentMultipleUses","fhdBasis":"UndocObsFish","fhdStNm":"Cultus Lake","fhdGenus":"Salvelinus","fhdSp":"namaycush","fhdSubSp":null,"fhdOrig":"NonNative","fhdProd":"Unknown","fhdComment":null,"fhdESH":"NA","fhdBasisD":null,"fhdNMF":"no","fhdBasisDt":null,"fhdBasisNm":null,"fhdBasisEnt":null,"fhdBasisPrj":null,"fhdBasisMethod":null,"fhdAccess":null,"fhdBarrierFtrID":null,"fhdEndExtent":null,"Shape__Area":8917734.398936005,"Shape__Length":17979.624583804674,"habitatType":"lake"},"id":5},
{"type":"Feature","geometry":{"type":"Polygon","coordinates":[[[-122.032751,43.591449],[-122.046676,43.59072],[-122.050651,43.585557],[-122.044035,43.58516],[-122.039671,43.583215],[-122.038435,43.578378],[-122.026366,43.575034],[-122.020003,43.575619],[-122.012267,43.569106],[-122.010611,43.564752],[-122.005057,43.565685],[-121.997176,43.559925],[-121.98889,43.557511],[-121.988043,43.555262],[-121.981864,43.551902],[-121.974288,43.54961],[-121.963865,43.550219],[-121.959731,43.5567],[-121.965705,43.560635],[-121.965682,43.563516],[-121.976233,43.574713],[-121.985778,43.57912],[-122.001166,43.584316],[-122.012092,43.585456],[-122.01927,43.589056],[-122.029944,43.591966],[-122.032751,43.591449]]]},"properties":{"OBJECTID":6,"fhdFtrID":6,"fhdRefID":53684,"fhdRevDt":"20190219","fhdONm":"Peter Robinson","fhdOEnt":"ODFW","fhdSpNm":"Lake trout","fhdRun":"NA","fhdLifeHst":"Resident","fhdUseTy":"ResidentMultipleUses","fhdBasis":"UndocObsFish","fhdStNm":"Odell Lake","fhdGenus":"Salvelinus","fhdSp":"namaycush","fhdSubSp":null,"fhdOrig":"NonNative","fhdProd":"Unknown","fhdComment":null,"fhdESH":"NA","fhdBasisD":null,"fhdNMF":"no","fhdBasisDt":null,"fhdBasisNm":null,"fhdBasisEnt":null,"fhdBasisPrj":null,"fhdBasisMethod":null,"fhdAccess":null,"fhdBarrierFtrID":null,"fhdEndExtent":null,"Shape__Area":26346383.808915883,"Shape__Length":28655.845665939087,"habitatType":"lake"},"id":6}
]}
