{"type":"FeatureCollection","features":[
{"type":"Feature","geometry":{"type":"LineString","coordinates":[[-117.211617,45.274663],[-117.210793,45.269571]]},"properties":{"OBJECTID":1,"fhdFtrID":19510,"fhdRefID":51397,"fhdRevDt":"20020319","fhdONm":"Brad Smith - Bill Knox","fhdOEnt":"ODFW","fhdSpNm":"Sockeye salmon","fhdRun":"NA","fhdLifeHst":"Anadromous","fhdUseTy":"Historical","fhdBasis":"ConcurProfOpinion","fhdStNm":"East Fork Wallowa River","fhdGenus":"Oncorhynchus","fhdSp":"nerka","fhdSubSp":null,"fhdOrig":"NativeLocal","fhdProd":"None","fhdComment":null,"fhdESH":"NA","fhdBasisD":null,"fhdNMF":"yes","fhdBasisDt":null,"fhdBasisNm":null,"fhdBasisEnt":null,"fhdBasisPrj":null,"fhdBasisMethod":null,"Shape__Length":907.7854969150169,"fhdAccess":null,"fhdBarrierFtrID":null,"fhdEndExtent":null,"habitatType":"stream"},"id":1},
{"type":"Feature","geometry":{"type":"LineString","coordinates":[[-117.211617,45.274663],[-117.216476,45.269117]]},"properties":{"OBJECTID":2,"fhdFtrID":19511,"fhdRefID":51397,"fhdRevDt":"20020319","fhdONm":"Brad Smith - Bill Knox","fhdOEnt":"ODFW","fhdSpNm":"Sockeye salmon","fhdRun":"NA","fhdLifeHst":"Anadromous","fhdUseTy":"Historical","fhdBasis":"ConcurProfOpinion","fhdStNm":"West Fork Wallowa River","fhdGenus":"Oncorhynchus","fhdSp":"nerka","fhdSubSp":null,"fhdOrig":"NativeLocal","fhdProd":"None","fhdComment":null,"fhdESH":"NA","fhdBasisD":null,"fhdNMF":"yes","fhdBasisDt":null,"fhdBasisNm":null,"fhdBasisEnt":null,"fhdBasisPrj":null,"fhdBasisMethod":null,"Shape__Length":1189.7915177404836,"fhdAccess":null,"fhdBarrierFtrID":null,"fhdEndExtent":null,"habitatType":"stream"},"id":2},
{"type":"Feature","geometry":{"type":"LineString","coordinates":[[-117.211617,45.274663],[-117.205098,45.284963],[-117.208708,45.316889],[-117.217088,45.331208],[-117.234532,45.338604],[-117.245097,45.35235],[-117.251308,45.376346],[-117.253091,45.402676],[-117.269009,45.413993],[-117.302181,45.419326],[-117.314784,45.430768],[-117.338361,45.440967],[-117.380989,45.451093],[-117.388249,45.477312],[-117.42194,45.50496],[-117.437763,45.541972],[-117.47878,45.554268],[-117.489127,45.5526],[-117.523261,45.569244],[-117.533013,45.580797],[-117.568631,45.594168],[-117.584884,45.594284],[-117.6127,45.606632],[-117.655235,45.618462],[-117.661939,45.62949],[-117.683194,45.626683],[-117.707773,45.616777],[-117.73302,45.629494],[-117.72725,45.639675],[-117.753712,45.654063],[-117.763028,45.67537],[-117.778124,45.690097],[-117.787613,45.708699],[-117.785221,45.725647]]},"properties":{"OBJECTID":3,"fhdFtrID":19512,"fhdRefID":51397,"fhdRevDt":"20020319","fhdONm":"Brad Smith - Bill Knox","fhdOEnt":"ODFW","fhdSpNm":"Sockeye salmon","fhdRun":"NA","fhdLifeHst":"Anadromous","fhdUseTy":"Historical","fhdBasis":"ConcurProfOpinion","fhdStNm":"Wallowa River","fhdGenus":"Oncorhynchus","fhdSp":"nerka","fhdSubSp":null,"fhdOrig":"NativeLocal","fhdProd":"None","fhdComment":null,"fhdESH":"NA","fhdBasisD":null,"fhdNMF":"yes","fhdBasisDt":null,"fhdBasisNm":null,"fhdBasisEnt":null,"fhdBasisPrj":null,"fhdBasisMethod":null,"Shape__Length":128907.06165922192,"fhdAccess":null,"fhdBarrierFtrID":null,"fhdEndExtent":null,"habitatType":"stream"},"id":3},
{"type":"Feature","geometry":{"type":"LineString","coordinates":[[-117.366246,45.999021],[-117.377436,46.001678],[-117.3952,45.975259],[-117.419277,45.962612],[-117.438016,45.945028],[-117.46336,45.906366],[-117.47319,45.897928],[-117.541917,45.894221],[-117.564418,45.882873],[-117.585309,45.880603],[-117.597358,45.865748],[-117.621613,45.859674],[-117.637993,45.862896],[-117.660307,45.877234],[-117.675758,45.880726],[-117.742344,45.845392],[-117.753364,45.819825],[-117.740632,45.799869],[-117.755826,45.782862],[-117.760647,45.758064],[-117.780167,45.746465],[-117.785221,45.725647]]},"properties":{"OBJECTID":4,"fhdFtrID":19513,"fhdRefID":51397,"fhdRevDt":"20020319","fhdONm":"Brad Smith - Bill Knox","fhdOEnt":"ODFW","fhdSpNm":"Sockeye salmon","fhdRun":"NA","fhdLifeHst":"Anadromous","fhdUseTy":"Historical","fhdBasis":"ConcurProfOpinion","fhdStNm":"Grande Ronde River","fhdGenus":"Oncorhynchus","fhdSp":"nerka","fhdSubSp":null,"fhdOrig":"NativeLocal","fhdProd":"None","fhdComment":null,"fhdESH":"NA","fhdBasisD":null,"fhdNMF":"yes","fhdBasisDt":null,"fhdBasisNm":null,"fhdBasisEnt":null,"fhdBasisPrj":null,"fhdBasisMethod":null,"Shape__Length":104142.79734624253,"fhdAccess":null,"fhdBarrierFtrID":null,"fhdEndExtent":null,"habitatType":"stream"},"id":4},
{"type":"Feature","geometry":{"type":"LineString","coordinates":[[-121.643646,44.460221],[-121.63846,44.472894]]},"properties":{"OBJECTID":5,"fhdFtrID":19514,"fhdRefID":53576,"fhdRevDt":"20160517","fhdONm":"Mike Gauvin","fhdOEnt":"ODFW","fhdSpNm":"Sockeye salmon","fhdRun":"NA","fhdLifeHst":"Anadromous","fhdUseTy":"Spawning","fhdBasis":"UndocObsFish","fhdStNm":"Metolius River","fhdGenus":"Oncorhynchus","fhdSp":"nerka","fhdSubSp":null,"fhdOrig":"NativeLocal","fhdProd":"Natural","fhdComment":"Sockeye passed upstream of Pelton Dam beginning in 2011","fhdESH":"yes","fhdBasisD":null,"fhdNMF":"yes","fhdBasisDt":"20140000","fhdBasisNm":"Mike Gauvin","fhdBasisEnt":"ODFW","fhdBasisPrj":null,"fhdBasisMethod":null,"Shape__Length":2209.731168595083,"fhdAccess":null,"fhdBarrierFtrID":null,"fhdEndExtent":null,"habitatType":"stream"},"id":5},
{"type":"Feature","geometry":{"type":"LineString","coordinates":[[-121.63846,44.472894],[-121.64782,44.493109],[-121.633921,44.498606],[-121.630907,44.529305],[-121.621498,44.553895],[-121.619051,44.583642],[-121.596898,44.619688],[-121.613924,44.648767],[-121.573477,44.671815],[-121.556269,44.675375],[-121.523581,44.657055],[-121.502591,44.636261],[-121.470508,44.618656]]},"properties":{"OBJECTID":6,"fhdFtrID":19515,"fhdRefID":53576,"fhdRevDt":"20160517","fhdONm":"Mike Gauvin","fhdOEnt":"ODFW","fhdSpNm":"Sockeye salmon","fhdRun":"NA","fhdLifeHst":"Anadromous","fhdUseTy":"Spawning","fhdBasis":"DownstreamDocObsFish","fhdStNm":"Metolius River","fhdGenus":"Oncorhynchus","fhdSp":"nerka","fhdSubSp":null,"fhdOrig":"NativeLocal","fhdProd":"Natural","fhdComment":"Sockeye passed upstream of Pelton Dam beginning in 2011","fhdESH":"yes","fhdBasisD":null,"fhdNMF":"yes","fhdBasisDt":"20140000","fhdBasisNm":"Mike Gauvin","fhdBasisEnt":"ODFW","fhdBasisPrj":null,"fhdBasisMethod":null,"Shape__Length":57591.45782872639,"fhdAccess":null,"fhdBarrierFtrID":null,"fhdEndExtent":null,"habitatType":"stream"},"id":6},
{"type":"Feature","geometry":{"type":"LineString","coordinates":[[-121.277437,44.603219],[-121.290916,44.593101],[-121.316823,44.584035],[-121.342315,44.588885],[-121.366693,44.585669],[-121.372085,44.591785],[-121.446955,44.592826],[-121.455548,44.609265],[-121.470508,44.618656]]},"properties":{"OBJECTID":7,"fhdFtrID":19516,"fhdRefID":53576,"fhdRevDt":"20160517","fhdONm":"Mike Gauvin","fhdOEnt":"ODFW","fhdSpNm":"Sockeye salmon","fhdRun":"NA","fhdLifeHst":"Anadromous","fhdUseTy":"Rearing","fhdBasis":"DownstreamDocObsFish","fhdStNm":"Lake Billy Chinook","fhdGenus":"Oncorhynchus","fhdSp":"nerka","fhdSubSp":null,"fhdOrig":"NativeLocal","fhdProd":"Natural","fhdComment":"Sockeye passed upstream of Pelton Dam beginning in 2011","fhdESH":"yes","fhdBasisD":null,"fhdNMF":"yes","fhdBasisDt":"20140000","fhdBasisNm":"Mike Gauvin","fhdBasisEnt":"ODFW","fhdBasisPrj":null,"fhdBasisMethod":null,"Shape__Length":29839.049282845903,"fhdAccess":null,"fhdBarrierFtrID":null,"fhdEndExtent":null,"habitatType":"stream"},"id":7},
{"type":"Feature","geometry":{"type":"LineString","coordinates":[[-121.246786,44.72766],[-121.247644,44.724351]]},"properties":{"OBJECTID":8,"fhdFtrID":19517,"fhdRefID":50038,"fhdRevDt":"20160517","fhdONm":null,"fhdOEnt":"PGE","fhdSpNm":"Sockeye salmon","fhdRun":"NA","fhdLifeHst":"Anadromous","fhdUseTy":"Migration","fhdBasis":"DocObsFish","fhdStNm":"Deschutes River","fhdGenus":"Oncorhynchus","fhdSp":"nerka","fhdSubSp":null,"fhdOrig":"NativeLocal","fhdProd":"Natural","fhdComment":"Sockeye passed upstream of Pelton Dam beginning in 2011","fhdESH":"no","fhdBasisD":null,"fhdNMF":"yes","fhdBasisDt":"20150000","fhdBasisNm":null,"fhdBasisEnt":null,"fhdBasisPrj":null,"fhdBasisMethod":"Dam count","Shape__Length":550.3245750503138,"fhdAccess":null,"fhdBarrierFtrID":null,"fhdEndExtent":null,"habitatType":"stream"},"id":8},
{"type":"Feature","geometry":{"type":"LineString","coordinates":[[-120.914808,45.635556],[-120.90488,45.614987],[-120.910074,45.603051],[-120.895154,45.589047],[-120.909304,45.559117],[-120.898924,45.544768],[-120.884658,45.538788],[-120.882671,45.52757],[-120.863672,45.528784],[-120.82561,45.512538],[-120.838999,45.50191],[-120.836639,45.468299],[-120.858888,45.460455],[-120.865369,45.440243],[-120.850968,45.433462],[-120.866607,45.412818],[-120.865877,45.392657],[-120.878948,45.392631],[-120.897209,45.375632],[-120.90185,45.361],[-120.919326,45.360753],[-120.922917,45.347424],[-120.945842,45.325587],[-120.956985,45.30953],[-120.989827,45.31062],[-121.01665,45.30639],[-121.03059,45.286133],[-121.021843,45.264893],[-121.035428,45.261457],[-121.050819,45.236145],[-121.078981,45.227278],[-121.073266,45.216569],[-121.08163,45.205313],[-121.084104,45.182806],[-121.073546,45.175472],[-121.125076,45.146769],[-121.122085,45.133271],[-121.129881,45.121193],[-121.130994,45.091748],[-121.120581,45.077966],[-121.121842,45.048767],[-121.093815,45.031208],[-121.08078,45.036094],[-121.065435,45.030299],[-121.052523,45.008738],[-121.063445,44.976361],[-121.085649,44.972252],[-121.075947,44.950647],[-121.083721,44.930739],[-121.083622,44.913542],[-121.048216,44.878626],[-121.078882,44.853472],[-121.077768,44.842831],[-121.087765,44.820601],[-121.120376,44.797917],[-121.146185,44.792685],[-121.163278,44.794258],[-121.193603,44.786712],[-121.209353,44.767159],[-121.228042,44.763413],[-121.225909,44.748835],[-121.245555,44.738309],[-121.246786,44.72766]]},"properties":{"OBJECTID":9,"fhdFtrID":19518,"fhdRefID":50038,"fhdRevDt":"20160517","fhdONm":null,"fhdOEnt":"PGE","fhdSpNm":"Sockeye salmon","fhdRun":"NA","fhdLifeHst":"Anadromous","fhdUseTy":"Migration","fhdBasis":"DownstreamDocObsFish","fhdStNm":"Deschutes River","fhdGenus":"Oncorhynchus","fhdSp":"nerka","fhdSubSp":null,"fhdOrig":"NativeLocal","fhdProd":"Natural","fhdComment":"Sockeye passed upstream of Pelton Dam beginning in 2011","fhdESH":"no","fhdBasisD":null,"fhdNMF":"yes","fhdBasisDt":"20150000","fhdBasisNm":null,"fhdBasisEnt":null,"fhdBasisPrj":null,"fhdBasisMethod":"Dam count","Shape__Length":235636.46117734612,"fhdAccess":null,"fhdBarrierFtrID":null,"fhdEndExtent":null,"habitatType":"stream"},"id":9},
{"type":"Feature","geometry":{"type":"LineString","coordinates":[[-120.692113,45.715079],[-120.643586,45.7419],[-120.601443,45.746308],[-120.578223,45.742534],[-120.547984,45.731844],[-120.52913,45.714157],[-120.48999,45.693148],[-120.382989,45.700268],[-120.375543,45.703262],[-120.305506,45.714963],[-120.209453,45.725288],[-120.19204,45.736383],[-120.182702,45.753447],[-120.163306,45.770822],[-120.134624,45.774344],[-120.050459,45.790157],[-119.98297,45.821315],[-119.943076,45.826162],[-119.900785,45.82676],[-119.859042,45.838754],[-119.801535,45.849875],[-119.713514,45.84899],[-119.667151,45.857444],[-119.626148,45.901073],[-119.604114,45.918555],[-119.57447,45.925362],[-119.542562,45.91153],[-119.50346,45.903686],[-119.448954,45.918704],[-119.414655,45.917166],[-119.359354,45.922297],[-119.29328,45.942461],[-119.256657,45.93833],[-119.192354,45.927056],[-119.117395,45.929708],[-119.065873,45.955852],[-119.027561,45.967102],[-118.989613,45.997467],[-118.97975,46.001091]]},"properties":{"OBJECTID":10,"fhdFtrID":19519,"fhdRefID":534,"fhdRevDt":"20160517","fhdONm":null,"fhdOEnt":"Army Corps of Engineers","fhdSpNm":"Sockeye salmon","fhdRun":"NA","fhdLifeHst":"Anadromous","fhdUseTy":"Migration","fhdBasis":"DownstreamDocObsFish","fhdStNm":"Columbia River","fhdGenus":"Oncorhynchus","fhdSp":"nerka","fhdSubSp":null,"fhdOrig":"NativeLocal","fhdProd":"Mixed","fhdComment":null,"fhdESH":"no","fhdBasisD":null,"fhdNMF":"yes","fhdBasisDt":"20150000","fhdBasisNm":null,"fhdBasisEnt":null,"fhdBasisPrj":null,"fhdBasisMethod":"Dam count","Shape__Length":215977.13388204237,"fhdAccess":null,"fhdBarrierFtrID":null,"fhdEndExtent":null,"habitatType":"stream"},"id":10},
{"type":"Feature","geometry":{"type":"LineString","coordinates":[[-120.692113,45.715079],[-120.788587,45.686433],[-120.855428,45.671738],[-120.895843,45.64293],[-120.917443,45.638727],[-120.936073,45.655061],[-120.949103,45.657374],[-120.981279,45.648821],[-121.040595,45.657996],[-121.077303,45.650298],[-121.101177,45.637565],[-121.138664,45.610004],[-121.175024,45.604236],[-121.195709,45.616758],[-121.197535,45.649862],[-121.212504,45.670564],[-121.285892,45.687297],[-121.302196,45.69672],[-121.338104,45.704131],[-121.371876,45.703514],[-121.397446,45.69139],[-121.45918,45.700976],[-121.506707,45.720385],[-121.53748,45.722246],[-121.564467,45.716585],[-121.64433,45.705086],[-121.680651,45.702455],[-121.690417,45.695543],[-121.730719,45.694612],[-121.780321,45.700184],[-121.811169,45.707164],[-121.867093,45.693878],[-121.899249,45.674303],[-121.908936,45.654277],[-121.940695,45.644401]]},"properties":{"OBJECTID":11,"fhdFtrID":19520,"fhdRefID":534,"fhdRevDt":"20160517","fhdONm":null,"fhdOEnt":"Army Corps of Engineers","fhdSpNm":"Sockeye salmon","fhdRun":"NA","fhdLifeHst":"Anadromous","fhdUseTy":"Migration","fhdBasis":"DownstreamDocObsFish","fhdStNm":"Columbia River","fhdGenus":"Oncorhynchus","fhdSp":"nerka","fhdSubSp":null,"fhdOrig":"NativeLocal","fhdProd":"Mixed","fhdComment":null,"fhdESH":"no","fhdBasisD":null,"fhdNMF":"yes","fhdBasisDt":"20150000","fhdBasisNm":null,"fhdBasisEnt":null,"fhdBasisPrj":null,"fhdBasisMethod":"Dam count","Shape__Length":163446.64249126244,"fhdAccess":null,"fhdBarrierFtrID":null,"fhdEndExtent":null,"habitatType":"stream"},"id":11},
{"type":"Feature","geometry":{"type":"LineString","coordinates":[[-122.407946,45.569866],[-122.368502,45.57293],[-122.350567,45.567892],[-122.331355,45.550851],[-122.308185,45.544421],[-122.258121,45.548217],[-122.177692,45.568377],[-122.143035,45.581717],[-122.111359,45.583966],[-122.039647,45.610857],[-121.999213,45.618678],[-121.965735,45.631364],[-121.951732,45.644775],[-121.940695,45.644401]]},"properties":{"OBJECTID":12,"fhdFtrID":19521,"fhdRefID":534,"fhdRevDt":"20160517","fhdONm":null,"fhdOEnt":"Army Corps of Engineers","fhdSpNm":"Sockeye salmon","fhdRun":"NA","fhdLifeHst":"Anadromous","fhdUseTy":"Migration","fhdBasis":"DownstreamDocObsFish","fhdStNm":"Columbia River","fhdGenus":"Oncorhynchus","fhdSp":"nerka","fhdSubSp":null,"fhdOrig":"NativeLocal","fhdProd":"Mixed","fhdComment":null,"fhdESH":"no","fhdBasisD":null,"fhdNMF":"yes","fhdBasisDt":"20150000","fhdBasisNm":null,"fhdBasisEnt":null,"fhdBasisPrj":null,"fhdBasisMethod":"Dam count","Shape__Length":58127.665677313766,"fhdAccess":null,"fhdBarrierFtrID":null,"fhdEndExtent":null,"habitatType":"stream"},"id":12},
{"type":"Feature","geometry":{"type":"LineString","coordinates":[[-122.407946,45.569866],[-122.439803,45.564186],[-122.453544,45.567614],[-122.490067,45.563562],[-122.528619,45.569981],[-122.563328,45.585869],[-122.589854,45.602485],[-122.639221,45.60954],[-122.688481,45.625787],[-122.713902,45.637834],[-122.747638,45.646683],[-122.764862,45.658297],[-122.776235,45.688644],[-122.759695,45.734233],[-122.760424,45.759334],[-122.769869,45.781658],[-122.795149,45.810339],[-122.795121,45.825142],[-122.784484,45.846061],[-122.784647,45.868495],[-122.808186,45.901922],[-122.806207,45.94832],[-122.8142,45.961365],[-122.840268,45.986227],[-122.866667,45.996848],[-122.872774,46.005598],[-122.884718,46.064014],[-122.904614,46.084526],[-122.961884,46.105518],[-122.988977,46.119469],[-123.005041,46.13509],[-123.034471,46.144316],[-123.074266,46.161343],[-123.120139,46.18676],[-123.166871,46.189428],[-123.242439,46.16203],[-123.230229,46.150027],[-123.239275,46.137601],[-123.276504,46.135196],[-123.293883,46.14049],[-123.390127,46.150622],[-123.427959,46.180166],[-123.427124,46.200326],[-123.469573,46.217156],[-123.482253,46.230541],[-123.492992,46.257842],[-123.515312,46.267217]]},"properties":{"OBJECTID":13,"fhdFtrID":19522,"fhdRefID":534,"fhdRevDt":"20160517","fhdONm":null,"fhdOEnt":"Army Corps of Engineers","fhdSpNm":"Sockeye salmon","fhdRun":"NA","fhdLifeHst":"Anadromous","fhdUseTy":"Migration","fhdBasis":"DownstreamDocObsFish","fhdStNm":"Columbia River","fhdGenus":"Oncorhynchus","fhdSp":"nerka","fhdSubSp":null,"fhdOrig":"NativeLocal","fhdProd":"Mixed","fhdComment":null,"fhdESH":"no","fhdBasisD":null,"fhdNMF":"yes","fhdBasisDt":"20150000","fhdBasisNm":null,"fhdBasisEnt":null,"fhdBasisPrj":null,"fhdBasisMethod":"Dam count","Shape__Length":211068.6843935431,"fhdAccess":null,"fhdBarrierFtrID":null,"fhdEndExtent":null,"habitatType":"stream"},"id":13},
{"type":"Feature","geometry":{"type":"LineString","coordinates":[[-124.083015,46.250005],[-124.056589,46.258375],[-124.01926,46.255344],[-123.927988,46.198315],[-123.912143,46.189931],[-123.827056,46.195399],[-123.734139,46.227283],[-123.68799,46.250436],[-123.649194,46.259503],[-123.585915,46.25665],[-123.541013,46.260622],[-123.515312,46.267217]]},"properties":{"OBJECTID":14,"fhdFtrID":19523,"fhdRefID":534,"fhdRevDt":"20160517","fhdONm":null,"fhdOEnt":"Army Corps of Engineers","fhdSpNm":"Sockeye salmon","fhdRun":"NA","fhdLifeHst":"Anadromous","fhdUseTy":"Migration","fhdBasis":"DownstreamDocObsFish","fhdStNm":"Columbia River","fhdGenus":"Oncorhynchus","fhdSp":"nerka","fhdSubSp":null,"fhdOrig":"NativeLocal","fhdProd":"Mixed","fhdComment":null,"fhdESH":"no","fhdBasisD":null,"fhdNMF":"yes","fhdBasisDt":"20150000","fhdBasisNm":null,"fhdBasisEnt":null,"fhdBasisPrj":null,"fhdBasisMethod":"Dam count","Shape__Length":70769.79042351368,"fhdAccess":null,"fhdBarrierFtrID":null,"fhdEndExtent":null,"habitatType":"stream"},"id":14},
{"type":"Feature","geometry":{"type":"LineString","coordinates":[[-121.649213,44.493175],[-121.652175,44.490779]]},"properties":{"OBJECTID":15,"fhdFtrID":19524,"fhdRefID":53818,"fhdRevDt":"20221014","fhdONm":"Jerry George","fhdOEnt":"ODFW","fhdSpNm":"Sockeye salmon","fhdRun":"NA","fhdLifeHst":"Anadromous","fhdUseTy":"Spawning","fhdBasis":"DocObsFish","fhdStNm":"Unnamed trib to Jack Creek","fhdGenus":"Oncorhynchus","fhdSp":"nerka","fhdSubSp":null,"fhdOrig":"NativeLocal","fhdProd":"Hatchery","fhdComment":"Historic O. nerka habitat","fhdESH":"yes","fhdBasisD":null,"fhdNMF":"yes","fhdBasisDt":"20220928","fhdBasisNm":"Jerry George","fhdBasisEnt":"ODFW","fhdBasisPrj":null,"fhdBasisMethod":null,"Shape__Length":526.1561150464316,"fhdAccess":null,"fhdBarrierFtrID":null,"fhdEndExtent":null,"habitatType":"stream"},"id":15},
{"type":"Feature","geometry":{"type":"LineString","coordinates":[[-121.64782,44.493109],[-121.649213,44.493175]]},"properties":{"OBJECTID":16,"fhdFtrID":19525,"fhdRefID":53818,"fhdRevDt":"20221014","fhdONm":"Jerry George","fhdOEnt":"ODFW","fhdSpNm":"Sockeye salmon","fhdRun":"NA","fhdLifeHst":"Anadromous","fhdUseTy":"Spawning","fhdBasis":"DocObsFish","fhdStNm":"Jack Creek","fhdGenus":"Oncorhynchus","fhdSp":"nerka","fhdSubSp":null,"fhdOrig":"NativeLocal","fhdProd":"Hatchery","fhdComment":"Historic O. nerka habitat","fhdESH":"yes","fhdBasisD":null,"fhdNMF":"yes","fhdBasisDt":"20220928","fhdBasisNm":"Jerry George","fhdBasisEnt":"ODFW","fhdBasisPrj":null,"fhdBasisMethod":null,"Shape__Length":156.01985227447528,"fhdAccess":null,"fhdBarrierFtrID":null,"fhdEndExtent":null,"habitatType":"stream"},"id":16},
{"type":"Feature","geometry":{"type":"LineString","coordinates":[[-121.646831,44.45425],[-121.64339,44.456523]]},"properties":{"OBJECTID":17,"fhdFtrID":19526,"fhdRefID":53818,"fhdRevDt":"20221014","fhdONm":"Jerry George","fhdOEnt":"ODFW","fhdSpNm":"Sockeye salmon","fhdRun":"NA","fhdLifeHst":"Anadromous","fhdUseTy":"Spawning","fhdBasis":"DocObsFish","fhdStNm":"North Fork Lake Creek","fhdGenus":"Oncorhynchus","fhdSp":"nerka","fhdSubSp":null,"fhdOrig":"NativeLocal","fhdProd":"Natural","fhdComment":"historic and current O. nerka spawning site","fhdESH":"yes","fhdBasisD":null,"fhdNMF":"yes","fhdBasisDt":"20220922","fhdBasisNm":"Jerry George","fhdBasisEnt":"ODFW","fhdBasisPrj":null,"fhdBasisMethod":null,"Shape__Length":688.3851046426624,"fhdAccess":null,"fhdBarrierFtrID":null,"fhdEndExtent":null,"habitatType":"stream"},"id":17},
{"type":"Feature","geometry":{"type":"LineString","coordinates":[[-121.64339,44.456523],[-121.643646,44.460221]]},"properties":{"OBJECTID":18,"fhdFtrID":19527,"fhdRefID":53818,"fhdRevDt":"20221014","fhdONm":"Jerry George","fhdOEnt":"ODFW","fhdSpNm":"Sockeye salmon","fhdRun":"NA","fhdLifeHst":"Anadromous","fhdUseTy":"Rearing","fhdBasis":"DownstreamDocObsFish","fhdStNm":"Metolius River","fhdGenus":"Oncorhynchus","fhdSp":"nerka","fhdSubSp":null,"fhdOrig":"NativeLocal","fhdProd":"Natural","fhdComment":"Current and historic use by various life histories of O. nerka","fhdESH":"yes","fhdBasisD":null,"fhdNMF":"yes","fhdBasisDt":"20220929","fhdBasisNm":"Jerry George","fhdBasisEnt":"ODFW","fhdBasisPrj":null,"fhdBasisMethod":null,"Shape__Length":638.4474911837295,"fhdAccess":null,"fhdBarrierFtrID":null,"fhdEndExtent":null,"habitatType":"stream"},"id":18},
{"type":"Feature","geometry":{"type":"LineString","coordinates":[[-121.64339,44.456523],[-121.642455,44.452812],[-121.638088,44.434574]]},"properties":{"OBJECTID":19,"fhdFtrID":19528,"fhdRefID":53818,"fhdRevDt":"20221014","fhdONm":"Jerry George","fhdOEnt":"ODFW","fhdSpNm":"Sockeye salmon","fhdRun":"NA","fhdLifeHst":"Anadromous","fhdUseTy":"Spawning","fhdBasis":"DocObsFish","fhdStNm":"Metolius River","fhdGenus":"Oncorhynchus","fhdSp":"nerka","fhdSubSp":null,"fhdOrig":"NativeLocal","fhdProd":"Natural","fhdComment":"Current and historic range of anadromous and resident-migratory O. nerka","fhdESH":"yes","fhdBasisD":null,"fhdNMF":"yes","fhdBasisDt":"20220929","fhdBasisNm":"Jerry George","fhdBasisEnt":"ODFW","fhdBasisPrj":null,"fhdBasisMethod":null,"Shape__Length":3835.7029706456296,"fhdAccess":null,"fhdBarrierFtrID":null,"fhdEndExtent":null,"habitatType":"stream"},"id":19},
{"type":"Feature","geometry":{"type":"LineString","coordinates":[[-121.642455,44.452812],[-121.662047,44.441537]]},"properties":{"OBJECTID":20,"fhdFtrID":19529,"fhdRefID":53818,"fhdRevDt":"20221014","fhdONm":"Jerry George","fhdOEnt":"ODFW","fhdSpNm":"Sockeye salmon","fhdRun":"NA","fhdLifeHst":"Anadromous","fhdUseTy":"Rearing","fhdBasis":"DownstreamDocObsFish","fhdStNm":"South Fork Lake Creek","fhdGenus":"Oncorhynchus","fhdSp":"nerka","fhdSubSp":null,"fhdOrig":"NativeLocal","fhdProd":"Natural","fhdComment":"Current and historic use by various life histories of O. nerka","fhdESH":"yes","fhdBasisD":null,"fhdNMF":"yes","fhdBasisDt":"20220929","fhdBasisNm":"Jerry George","fhdBasisEnt":"ODFW","fhdBasisPrj":null,"fhdBasisMethod":null,"Shape__Length":4483.909609661316,"fhdAccess":null,"fhdBarrierFtrID":null,"fhdEndExtent":null,"habitatType":"stream"},"id":20},
{"type":"Feature","geometry":{"type":"LineString","coordinates":[[-121.662047,44.441537],[-121.705848,44.435309]]},"properties":{"OBJECTID":21,"fhdFtrID":19530,"fhdRefID":53818,"fhdRevDt":"20221014","fhdONm":"Jerry George","fhdOEnt":"ODFW","fhdSpNm":"Sockeye salmon","fhdRun":"NA","fhdLifeHst":"Anadromous","fhdUseTy":"Rearing","fhdBasis":"DownstreamDocObsFish","fhdStNm":"Middle Fork Lake Creek","fhdGenus":"Oncorhynchus","fhdSp":"nerka","fhdSubSp":null,"fhdOrig":"NativeLocal","fhdProd":"Natural","fhdComment":"Current and historic use by various life histories of O. nerka","fhdESH":"yes","fhdBasisD":null,"fhdNMF":"yes","fhdBasisDt":"20220929","fhdBasisNm":"Jerry George","fhdBasisEnt":"ODFW","fhdBasisPrj":null,"fhdBasisMethod":null,"Shape__Length":5808.030631810035,"fhdAccess":null,"fhdBarrierFtrID":null,"fhdEndExtent":null,"habitatType":"stream"},"id":21},
{"type":"Feature","geometry":{"type":"LineString","coordinates":[[-121.705848,44.435309],[-121.726935,44.425924]]},"properties":{"OBJECTID":22,"fhdFtrID":19531,"fhdRefID":53818,"fhdRevDt":"20221014","fhdONm":"Jerry George","fhdOEnt":"ODFW","fhdSpNm":"Sockeye salmon","fhdRun":"NA","fhdLifeHst":"Anadromous","fhdUseTy":"Rearing","fhdBasis":"DocObsFish","fhdStNm":"Lake Creek","fhdGenus":"Oncorhynchus","fhdSp":"nerka","fhdSubSp":null,"fhdOrig":"NativeLocal","fhdProd":"Natural","fhdComment":"Current and historic use by various life histories of O. nerka","fhdESH":"yes","fhdBasisD":null,"fhdNMF":"yes","fhdBasisDt":"20220929","fhdBasisNm":"Jerry George","fhdBasisEnt":"ODFW","fhdBasisPrj":null,"fhdBasisMethod":null,"Shape__Length":3038.712014514532,"fhdAccess":null,"fhdBarrierFtrID":null,"fhdEndExtent":null,"habitatType":"stream"},"id":22},
{"type":"Feature","geometry":{"type":"LineString","coordinates":[[-121.726935,44.425924],[-121.763133,44.415994],[-121.772117,44.409676]]},"properties":{"OBJECTID":23,"fhdFtrID":19531,"fhdRefID":53818,"fhdRevDt":"20221014","fhdONm":"Jerry George","fhdOEnt":"ODFW","fhdSpNm":"Sockeye salmon","fhdRun":"NA","fhdLifeHst":"Anadromous","fhdUseTy":"Rearing","fhdBasis":"UndocObsFish","fhdStNm":"Lake Creek","fhdGenus":"Oncorhynchus","fhdSp":"nerka","fhdSubSp":null,"fhdOrig":"NativeLocal","fhdProd":"Natural","fhdComment":"Current and historic use by various life histories of O. nerka","fhdESH":"yes","fhdBasisD":null,"fhdNMF":"yes","fhdBasisDt":"20220929","fhdBasisNm":"Jerry George","fhdBasisEnt":"ODFW","fhdBasisPrj":null,"fhdBasisMethod":null,"Shape__Length":6224.752771062975,"fhdAccess":null,"fhdBarrierFtrID":null,"fhdEndExtent":null,"habitatType":"stream"},"id":23},
{"type":"Feature","geometry":{"type":"Polygon","coordinates":[[[-121.276896,44.603184],[-121.287351,44.601172],[-121.293503,44.594638],[-121.301033,44.594777],[-121.305361,44.590664],[-121.312971,44.588904],[-121.317765,44.585608],[-121.328462,44.586413],[-121.34174,44.590415],[-121.347874,44.588686],[-121.352993,44.59119],[-121.35863,44.591478],[-121.368875,44.594082],[-121.383353,44.592227],[-121.394496,44.59658],[-121.405401,44.595913],[-121.411,44.594353],[-121.422432,44.597437],[-121.430133,44.5964],[-121.433287,44.592059],[-121.430496,44.589014],[-121.426207,44.59297],[-121.409474,44.590685],[-121.396094,44.59256],[-121.386038,44.588334],[-121.373943,44.586288],[-121.371007,44.583607],[-121.363864,44.58274],[-121.351279,44.586322],[-121.347134,44.585011],[-121.34121,44.586887],[-121.328778,44.582439],[-121.314797,44.582368],[-121.29864,44.589988],[-121.288302,44.591526],[-121.285064,44.593242],[-121.277144,44.589693],[-121.276345,44.585189],[-121.269219,44.58121],[-121.270054,44.577252],[-121.2765,44.574388],[-121.282583,44.569258],[-121.283189,44.564064],[-121.287544,44.557278],[-121.285085,44.553523],[-121.290313,44.540961],[-121.29359,44.537365],[-121.285773,44.536113],[-121.281212,44.54737],[-121.278323,44.547993],[-121.283498,44.556119],[-121.280134,44.566889],[-121.276904,44.571774],[-121.27165,44.573429],[-121.26994,44.570931],[-121.263894,44.56975],[-121.260965,44.575809],[-121.265065,44.578563],[-121.26654,44.584059],[-121.27198,44.585798],[-121.272829,44.590753],[-121.282355,44.597955],[-121.274677,44.601512],[-121.276896,44.603184]]]},"properties":{"OBJECTID":1,"fhdFtrID":1,"fhdRefID":53709,"fhdRevDt":"20190211","fhdONm":"Guy Chilton","fhdOEnt":"ODFW","fhdSpNm":"Sockeye salmon","fhdRun":"Unknown","fhdLifeHst":"Anadromous","fhdUseTy":"Unknown","fhdBasis":"DocObsFish","fhdStNm":"Billy Chinook Reservoir","fhdGenus":"Oncorhynchus","fhdSp":"nerka","fhdSubSp":null,"fhdOrig":"NativeLocal","fhdProd":"Hatchery","fhdComment":null,"fhdESH":"yes","fhdBasisD":null,"fhdNMF":"yes","fhdBasisDt":"20180000","fhdBasisNm":null,"fhdBasisEnt":null,"fhdBasisPrj":null,"fhdBasisMethod":null,"fhdAccess":null,"fhdBarrierFtrID":null,"fhdEndExtent":null,"Shape__Area":22560653.449522946,"Shape__Length":97628.62699090174,"habitatType":"lake"},"id":24}
]}
