{"type":"FeatureCollection","features":[
{"type":"Feature","geometry":{"type":"LineString","coordinates":[[-124.099449,43.377741],[-124.103797,43.377879],[-124.110685,43.376516],[-124.116959,43.376671],[-124.126764,43.378196],[-124.13762,43.375135],[-124.143596,43.37259],[-124.149508,43.369289],[-124.158498,43.361743],[-124.161924,43.360159],[-124.164537,43.359988],[-124.174218,43.363076],[-124.175839,43.364892],[-124.176004,43.369873],[-124.177767,43.374304],[-124.183671,43.375163],[-124.188035,43.374157],[-124.197019,43.374199],[-124.202409,43.375088],[-124.210373,43.375662],[-124.215,43.378916],[-124.218502,43.382974],[-124.219301,43.385759],[-124.21587,43.396372],[-124.219136,43.40534],[-124.218652,43.410878],[-124.216092,43.421454],[-124.216611,43.423211],[-124.219827,43.425862],[-124.227562,43.427872],[-124.241041,43.425969],[-124.245248,43.425124],[-124.259458,43.423516],[-124.268281,43.421917],[-124.274096,43.4177],[-124.276669,43.414368],[-124.278605,43.40524],[-124.280098,43.40122],[-124.284057,43.395322],[-124.290422,43.384842],[-124.292865,43.382192],[-124.316505,43.364272],[-124.320003,43.357848],[-124.322394,43.355206],[-124.328783,43.353279],[-124.333961,43.352574],[-124.348937,43.35659]]},"properties":{"OBJECTID":1,"fhdFtrID":1,"fhdRefID":53708,"fhdRevDt":"20190204","fhdONm":"Mike Gray","fhdOEnt":"ODFW","fhdSpNm":"Sbass","fhdRun":"Unknown","fhdLifeHst":"Anadromous","fhdUseTy":"Historical","fhdBasis":"ConcurProfOpinion","fhdStNm":"Coos River","fhdGenus":"Morone","fhdSp":"saxatilis","fhdSubSp":null,"fhdOrig":"NonNative","fhdProd":"None","fhdComment":"Rare since 2000","fhdESH":"NA","fhdBasisD":null,"fhdNMF":"no","fhdBasisDt":null,"fhdBasisNm":null,"fhdBasisEnt":null,"fhdBasisPrj":null,"fhdBasisMethod":null,"fhdAccess":null,"fhdBarrierFtrID":null,"fhdEndExtent":null,"Shape__Length":44288.44777125719,"habitatType":"stream"},"id":1},
{"type":"Feature","geometry":{"type":"LineString","coordinates":[[-123.991776,43.376879],[-123.994331,43.374605],[-123.998149,43.374122],[-124.005028,43.375772],[-124.007289,43.374447],[-124.011866,43.367608],[-124.01463,43.366773],[-124.01778,43.36697],[-124.02114,43.368606],[-124.02346,43.3671],[-124.022555,43.364631],[-124.016123,43.363833],[-124.015597,43.361857],[-124.018898,43.360027],[-124.021305,43.360005],[-124.025657,43.361947],[-124.028803,43.365566],[-124.031744,43.367971],[-124.036323,43.36865],[-124.04167,43.367385],[-124.04378,43.360838],[-124.045358,43.359293],[-124.049767,43.357361],[-124.058298,43.354716],[-124.059611,43.352183],[-124.062271,43.352564],[-124.064149,43.357634],[-124.066568,43.358377],[-124.074359,43.359294],[-124.080156,43.362571],[-124.082937,43.36286],[-124.084077,43.36447],[-124.081518,43.366295],[-124.073857,43.369294],[-124.071024,43.369636],[-124.070395,43.371359],[-124.072183,43.373165],[-124.079323,43.374904],[-124.092523,43.37434],[-124.094854,43.37505],[-124.099449,43.377741]]},"properties":{"OBJECTID":2,"fhdFtrID":2,"fhdRefID":53708,"fhdRevDt":"20190204","fhdONm":"Mike Gray","fhdOEnt":"ODFW","fhdSpNm":"Sbass","fhdRun":"Unknown","fhdLifeHst":"Anadromous","fhdUseTy":"Historical","fhdBasis":"ConcurProfOpinion","fhdStNm":"South Fork Coos River","fhdGenus":"Morone","fhdSp":"saxatilis","fhdSubSp":null,"fhdOrig":"NonNative","fhdProd":"None","fhdComment":"Rare since 2000","fhdESH":"NA","fhdBasisD":null,"fhdNMF":"no","fhdBasisDt":null,"fhdBasisNm":null,"fhdBasisEnt":null,"fhdBasisPrj":null,"fhdBasisMethod":null,"fhdAccess":null,"fhdBarrierFtrID":null,"fhdEndExtent":null,"Shape__Length":22859.418228355866,"habitatType":"stream"},"id":2},
{"type":"Feature","geometry":{"type":"LineString","coordinates":[[-124.099449,43.377741],[-124.09762,43.37973],[-124.095325,43.379899],[-124.090888,43.37688],[-124.086742,43.378],[-124.08659,43.37987],[-124.089581,43.384862],[-124.090168,43.388345],[-124.087413,43.389654],[-124.080829,43.390865],[-124.079644,43.393668],[-124.077148,43.39565],[-124.073646,43.396673],[-124.071336,43.398721],[-124.067239,43.40101],[-124.061597,43.40498],[-124.059477,43.405562],[-124.050735,43.403572],[-124.046284,43.405053],[-124.044367,43.406669],[-124.043579,43.409378],[-124.044347,43.410901],[-124.047199,43.411573],[-124.054122,43.415471],[-124.054302,43.416956],[-124.051837,43.419072],[-124.046885,43.418419],[-124.042768,43.41427],[-124.039009,43.414777],[-124.041061,43.419193],[-124.041241,43.422478],[-124.0379,43.423994],[-124.029679,43.418148],[-124.024194,43.417049],[-124.023077,43.41859],[-124.025788,43.42183],[-124.029923,43.42406]]},"properties":{"OBJECTID":3,"fhdFtrID":3,"fhdRefID":53708,"fhdRevDt":"20190204","fhdONm":"Mike Gray","fhdOEnt":"ODFW","fhdSpNm":"Sbass","fhdRun":"Unknown","fhdLifeHst":"Anadromous","fhdUseTy":"Historical","fhdBasis":"ConcurProfOpinion","fhdStNm":"Millicoma River","fhdGenus":"Morone","fhdSp":"saxatilis","fhdSubSp":null,"fhdOrig":"NonNative","fhdProd":"None","fhdComment":"Rare since 2000","fhdESH":"NA","fhdBasisD":null,"fhdNMF":"no","fhdBasisDt":null,"fhdBasisNm":null,"fhdBasisEnt":null,"fhdBasisPrj":null,"fhdBasisMethod":null,"fhdAccess":null,"fhdBarrierFtrID":null,"fhdEndExtent":null,"Shape__Length":19913.75039855148,"habitatType":"stream"},"id":3},
{"type":"Feature","geometry":{"type":"LineString","coordinates":[[-124.141638,43.080578],[-124.145286,43.08453],[-124.145937,43.087819],[-124.147907,43.088691],[-124.15793,43.090481],[-124.159215,43.09217],[-124.159783,43.096892],[-124.162354,43.098325],[-124.168093,43.095781],[-124.171289,43.095154],[-124.174739,43.098252],[-124.178379,43.097729],[-124.181242,43.09516],[-124.188795,43.096864],[-124.188823,43.100241],[-124.182936,43.102733],[-124.181381,43.104343],[-124.177391,43.105789],[-124.179095,43.108149],[-124.181948,43.108876],[-124.183753,43.110721],[-124.181657,43.114822],[-124.18197,43.117709],[-124.180114,43.118998],[-124.179695,43.122109],[-124.185054,43.122729],[-124.190654,43.124292],[-124.195933,43.120779],[-124.20045,43.121677],[-124.199225,43.125094],[-124.196988,43.12763],[-124.191822,43.131277],[-124.191385,43.13347],[-124.187045,43.134109],[-124.180178,43.139933],[-124.178064,43.143287],[-124.178033,43.145753],[-124.17993,43.154369],[-124.181301,43.157237],[-124.18428,43.160067],[-124.183227,43.163374],[-124.186934,43.164736],[-124.184538,43.166932],[-124.185198,43.169031],[-124.188282,43.169547],[-124.189955,43.171084],[-124.190378,43.173683],[-124.194996,43.173232],[-124.199106,43.174303],[-124.201815,43.17591],[-124.202559,43.178774],[-124.207602,43.177935],[-124.210493,43.178902],[-124.217244,43.177827],[-124.219241,43.17676],[-124.222992,43.176857],[-124.233815,43.180944],[-124.240755,43.182063],[-124.246265,43.186445],[-124.251243,43.189551],[-124.255681,43.19082],[-124.259569,43.192964],[-124.26908,43.200062],[-124.272285,43.201245],[-124.27581,43.200707],[-124.280191,43.195994],[-124.279768,43.194265],[-124.276962,43.190004],[-124.276659,43.187713],[-124.273834,43.182355],[-124.273329,43.178767],[-124.274446,43.174141],[-124.273357,43.169785],[-124.27458,43.165655],[-124.274439,43.161767],[-124.276106,43.157053],[-124.279333,43.152857],[-124.28194,43.151914],[-124.287528,43.153584],[-124.294553,43.153978],[-124.298525,43.151592],[-124.298117,43.145428],[-124.294368,43.137087],[-124.289371,43.134811],[-124.286423,43.131692],[-124.286883,43.12696],[-124.287844,43.125594],[-124.293142,43.121783],[-124.294269,43.118115],[-124.296313,43.115211],[-124.300225,43.11291],[-124.309734,43.110942],[-124.315638,43.111473],[-124.317981,43.114409],[-124.319575,43.120505],[-124.319299,43.125677],[-124.320023,43.129031],[-124.322315,43.131851],[-124.329967,43.133495],[-124.336411,43.136432],[-124.341514,43.140042],[-124.340837,43.151871],[-124.341565,43.154183],[-124.346377,43.15745],[-124.34893,43.162175],[-124.354168,43.165422],[-124.358263,43.165594],[-124.364335,43.159849],[-124.376239,43.147314],[-124.382054,43.145674],[-124.388205,43.145773],[-124.392846,43.147056],[-124.401115,43.146267],[-124.407745,43.143596],[-124.411249,43.140622],[-124.412268,43.138151],[-124.411492,43.129758],[-124.409597,43.125397],[-124.410327,43.12241],[-124.414071,43.12109],[-124.426877,43.123002],[-124.430682,43.123894]]},"properties":{"OBJECTID":4,"fhdFtrID":4,"fhdRefID":53708,"fhdRevDt":"20190204","fhdONm":"Mike Gray","fhdOEnt":"ODFW","fhdSpNm":"Sbass","fhdRun":"Unknown","fhdLifeHst":"Anadromous","fhdUseTy":"Spawning","fhdBasis":"ConcurProfOpinion","fhdStNm":"Coquille River","fhdGenus":"Morone","fhdSp":"saxatilis","fhdSubSp":null,"fhdOrig":"NonNative","fhdProd":"Natural","fhdComment":null,"fhdESH":"NA","fhdBasisD":null,"fhdNMF":"no","fhdBasisDt":null,"fhdBasisNm":null,"fhdBasisEnt":null,"fhdBasisPrj":null,"fhdBasisMethod":null,"fhdAccess":null,"fhdBarrierFtrID":null,"fhdEndExtent":null,"Shape__Length":80340.20635963992,"habitatType":"stream"},"id":4},
{"type":"Feature","geometry":{"type":"LineString","coordinates":[[-123.807755,43.670955],[-123.809575,43.66657],[-123.807796,43.664492],[-123.807258,43.660353],[-123.809108,43.655899],[-123.812542,43.652732],[-123.817418,43.652332],[-123.82682,43.654237],[-123.830462,43.653741],[-123.836306,43.651892],[-123.841246,43.649728],[-123.846874,43.648205],[-123.850603,43.648752],[-123.852807,43.650399],[-123.854786,43.655169],[-123.856353,43.657357],[-123.860794,43.658632],[-123.865272,43.658382],[-123.875633,43.655805],[-123.880488,43.654218],[-123.883616,43.652513],[-123.895199,43.650883],[-123.901284,43.651078],[-123.90909,43.654339],[-123.916592,43.659587],[-123.918933,43.661961],[-123.922723,43.668937],[-123.928038,43.675764],[-123.92998,43.679895],[-123.933806,43.682103],[-123.936852,43.682712],[-123.943914,43.685244],[-123.95529,43.687408],[-123.965998,43.691245],[-123.97208,43.692583],[-123.981777,43.693654],[-123.989242,43.693862],[-123.994016,43.69471],[-124.00053,43.696524],[-124.009765,43.698428],[-124.018599,43.699261],[-124.031284,43.698458],[-124.047926,43.696435],[-124.056536,43.69468],[-124.061176,43.694383],[-124.066961,43.69587],[-124.075438,43.700153],[-124.085923,43.703737],[-124.089835,43.706067],[-124.093626,43.707723],[-124.103456,43.710667],[-124.111204,43.714697],[-124.116112,43.718252],[-124.125303,43.724141],[-124.127087,43.725925],[-124.127935,43.733168],[-124.129273,43.736083],[-124.131861,43.73754],[-124.136561,43.737183],[-124.13891,43.735875],[-124.143169,43.731111],[-124.151221,43.725344],[-124.155047,43.720889],[-124.158416,43.711238],[-124.1619,43.704071],[-124.163727,43.699103],[-124.166097,43.697076],[-124.174663,43.691365],[-124.182601,43.687939],[-124.18854,43.684855],[-124.190139,43.682742],[-124.191567,43.677945],[-124.196164,43.673462],[-124.203303,43.670264],[-124.2077,43.669236],[-124.218429,43.668518]]},"properties":{"OBJECTID":5,"fhdFtrID":5,"fhdRefID":53722,"fhdRevDt":"20190204","fhdONm":"Jason Brandt","fhdOEnt":"ODFW","fhdSpNm":"Sbass","fhdRun":"Unknown","fhdLifeHst":"Anadromous","fhdUseTy":"Spawning","fhdBasis":"ConcurProfOpinion","fhdStNm":"Umpqua River","fhdGenus":"Morone","fhdSp":"saxatilis","fhdSubSp":null,"fhdOrig":"NonNative","fhdProd":"Natural","fhdComment":null,"fhdESH":"NA","fhdBasisD":null,"fhdNMF":"no","fhdBasisDt":null,"fhdBasisNm":null,"fhdBasisEnt":null,"fhdBasisPrj":null,"fhdBasisMethod":null,"fhdAccess":null,"fhdBarrierFtrID":null,"fhdEndExtent":null,"Shape__Length":61943.67596118636,"habitatType":"stream"},"id":5},
{"type":"Feature","geometry":{"type":"LineString","coordinates":[[-123.884266,43.795828],[-123.886936,43.797153],[-123.889283,43.796467],[-123.891514,43.794472],[-123.891576,43.79246],[-123.887517,43.785905],[-123.892602,43.780964],[-123.900215,43.781235],[-123.90392,43.780599],[-123.90335,43.777893],[-123.898957,43.773741],[-123.902971,43.771888],[-123.909038,43.773054],[-123.912058,43.775085],[-123.91418,43.778463],[-123.913682,43.781469],[-123.911512,43.78562],[-123.914346,43.786926],[-123.917035,43.786789],[-123.920377,43.784609],[-123.921556,43.781635],[-123.921024,43.775976],[-123.921304,43.772008],[-123.928077,43.770305],[-123.934759,43.770795],[-123.938446,43.771891],[-123.939916,43.77455],[-123.936599,43.779895],[-123.936121,43.782982],[-123.937415,43.783822],[-123.942424,43.783187],[-123.946433,43.780781],[-123.950153,43.779598],[-123.95232,43.78062],[-123.953916,43.784356],[-123.952276,43.787521],[-123.947267,43.79143],[-123.949087,43.793153],[-123.95272,43.792898],[-123.95625,43.789384],[-123.959532,43.783269],[-123.963455,43.778744],[-123.967052,43.776516],[-123.973973,43.773648],[-123.979904,43.769924],[-123.984366,43.770331],[-123.986692,43.774764],[-123.985005,43.778078],[-123.976082,43.786849],[-123.977398,43.78898],[-123.982541,43.790196],[-123.98442,43.789217],[-123.989139,43.783423],[-123.990522,43.780313],[-123.992829,43.777362],[-123.994155,43.773974],[-123.994192,43.769967],[-124.000198,43.764719],[-124.003039,43.763173],[-124.008689,43.761192],[-124.014195,43.759811],[-124.016828,43.75804],[-124.024746,43.751032],[-124.029393,43.747389],[-124.036154,43.743025],[-124.041032,43.739146],[-124.046481,43.7366],[-124.055975,43.737088],[-124.061424,43.738587],[-124.066028,43.738052],[-124.074035,43.735791],[-124.082197,43.734054],[-124.085159,43.732139],[-124.085707,43.728867],[-124.080374,43.721548],[-124.079779,43.71568],[-124.080969,43.713705],[-124.084895,43.709755],[-124.089835,43.706067]]},"properties":{"OBJECTID":6,"fhdFtrID":6,"fhdRefID":53722,"fhdRevDt":"20190204","fhdONm":"Jason Brandt","fhdOEnt":"ODFW","fhdSpNm":"Sbass","fhdRun":"Unknown","fhdLifeHst":"Anadromous","fhdUseTy":"Spawning","fhdBasis":"ConcurProfOpinion","fhdStNm":"Smith River","fhdGenus":"Morone","fhdSp":"saxatilis","fhdSubSp":null,"fhdOrig":"NonNative","fhdProd":"Natural","fhdComment":null,"fhdESH":"NA","fhdBasisD":null,"fhdNMF":"no","fhdBasisDt":null,"fhdBasisNm":null,"fhdBasisEnt":null,"fhdBasisPrj":null,"fhdBasisMethod":null,"fhdAccess":null,"fhdBarrierFtrID":null,"fhdEndExtent":null,"Shape__Length":51358.21047305633,"habitatType":"stream"},"id":6},
{"type":"Feature","geometry":{"type":"LineString","coordinates":[[-123.887933,44.053345],[-123.88605,44.050487],[-123.882965,44.048445],[-123.881198,44.046055],[-123.878056,44.044602],[-123.874085,44.041625],[-123.868303,44.041138],[-123.865023,44.03947],[-123.858875,44.034479],[-123.85772,44.03117],[-123.854541,44.027173],[-123.854571,44.02463],[-123.856315,44.017522],[-123.858003,44.015889],[-123.861242,44.01482],[-123.865939,44.014713],[-123.87059,44.016109],[-123.877412,44.020338],[-123.881893,44.022559],[-123.884518,44.023047],[-123.895411,44.022112],[-123.905145,44.022279],[-123.908691,44.021526],[-123.915608,44.013043],[-123.918091,44.013024],[-123.926014,44.015454],[-123.929471,44.015498],[-123.940594,44.014417],[-123.944453,44.014434],[-123.96132,44.018562],[-123.967719,44.019323],[-123.972913,44.018707],[-123.982043,44.016972],[-123.992618,44.013199],[-124.000945,44.010912],[-124.005549,44.005991],[-124.007934,44.004206],[-124.01273,44.002151],[-124.015283,44.000386],[-124.017166,43.996687],[-124.021823,43.990496],[-124.024893,43.987961],[-124.030495,43.985767],[-124.040699,43.986184],[-124.045347,43.983503],[-124.054108,43.980199],[-124.058946,43.976913],[-124.060874,43.976279],[-124.06925,43.975534],[-124.076231,43.972151],[-124.080611,43.970975],[-124.081877,43.969842],[-124.09856,43.966154],[-124.104033,43.963931],[-124.107081,43.963902],[-124.113172,43.965742],[-124.122463,43.971139],[-124.12618,43.976826],[-124.126242,43.980146],[-124.125271,43.983039],[-124.121822,43.988104],[-124.121406,43.992632],[-124.123539,43.99985],[-124.126899,44.002791],[-124.130008,44.006929],[-124.131037,44.012946],[-124.132214,44.014668],[-124.135917,44.016901],[-124.138561,44.017576],[-124.146777,44.017987]]},"properties":{"OBJECTID":7,"fhdFtrID":7,"fhdRefID":53708,"fhdRevDt":"20190204","fhdONm":"John Spangler","fhdOEnt":"ODFW","fhdSpNm":"Sbass","fhdRun":"Unknown","fhdLifeHst":"Anadromous","fhdUseTy":"Historical","fhdBasis":"ConcurProfOpinion","fhdStNm":"Siuslaw River","fhdGenus":"Morone","fhdSp":"saxatilis","fhdSubSp":null,"fhdOrig":"NonNative","fhdProd":"None","fhdComment":null,"fhdESH":"NA","fhdBasisD":null,"fhdNMF":"no","fhdBasisDt":null,"fhdBasisNm":null,"fhdBasisEnt":null,"fhdBasisPrj":null,"fhdBasisMethod":null,"fhdAccess":null,"fhdBarrierFtrID":null,"fhdEndExtent":null,"Shape__Length":51223.894814758554,"habitatType":"stream"},"id":7}
]}
