{"type":"FeatureCollection","features":[
{"type":"Feature","geometry":{"type":"LineString","coordinates":[[-119.041484,46.192627],[-119.017379,46.178585],[-118.943183,46.078056],[-118.941507,46.02604],[-118.964961,46.018045],[-119.027561,45.967102],[-119.117395,45.929708],[-119.192354,45.927056],[-119.256657,45.93833],[-119.312777,45.935853],[-119.359354,45.922297],[-119.448954,45.918704],[-119.50346,45.903686],[-119.57447,45.925362],[-119.604114,45.918555],[-119.667151,45.857444],[-119.713514,45.84899],[-119.801535,45.849875],[-119.900785,45.82676],[-119.98297,45.821315],[-120.050459,45.790157],[-120.163306,45.770822],[-120.209453,45.725288],[-120.305506,45.714963],[-120.382989,45.700268],[-120.48999,45.693148],[-120.547984,45.731844],[-120.601443,45.746308],[-120.643586,45.7419],[-120.682404,45.719181],[-120.788587,45.686433],[-120.855428,45.671738],[-120.917443,45.638727],[-120.949103,45.657374],[-120.981279,45.648821],[-121.040595,45.657996],[-121.077303,45.650298],[-121.138664,45.610004],[-121.195709,45.616758],[-121.212504,45.670564],[-121.338104,45.704131],[-121.397446,45.69139],[-121.45918,45.700976],[-121.53748,45.722246],[-121.690417,45.695543],[-121.730719,45.694612],[-121.811169,45.707164],[-121.867093,45.693878],[-121.908936,45.654277],[-121.965735,45.631364],[-122.111359,45.583966],[-122.258121,45.548217],[-122.308185,45.544421],[-122.368502,45.57293],[-122.439803,45.564186],[-122.480217,45.582148],[-122.639221,45.60954],[-122.747638,45.646683],[-122.764025,45.657479],[-122.776235,45.688644],[-122.763199,45.724594]]},"properties":{"OBJECTID":1,"fhdFtrID":1,"fhdRefID":53718,"fhdRevDt":"20190204","fhdONm":"Kevin Stertz","fhdOEnt":"ODFW","fhdSpNm":"W","fhdRun":"NA","fhdLifeHst":"FluvAdfluvRes","fhdUseTy":"ResidentMultipleUses","fhdBasis":"UndocObsFish","fhdStNm":"Columbia River","fhdGenus":"Sander","fhdSp":"vitreus","fhdSubSp":null,"fhdOrig":"NonNative","fhdProd":"Natural","fhdComment":null,"fhdESH":"NA","fhdBasisD":null,"fhdNMF":"no","fhdBasisDt":null,"fhdBasisNm":null,"fhdBasisEnt":null,"fhdBasisPrj":null,"fhdBasisMethod":null,"fhdAccess":null,"fhdBarrierFtrID":null,"fhdEndExtent":null,"Shape__Length":528437.0487512624,"habitatType":"stream"},"id":1},
{"type":"Feature","geometry":{"type":"LineString","coordinates":[[-122.611882,45.35781],[-122.629356,45.394029],[-122.658235,45.409761],[-122.645833,45.439922],[-122.665095,45.463281],[-122.667953,45.526423],[-122.77244,45.591805],[-122.788736,45.633],[-122.764025,45.657479]]},"properties":{"OBJECTID":2,"fhdFtrID":2,"fhdRefID":53718,"fhdRevDt":"20190204","fhdONm":"Kevin Stertz","fhdOEnt":"ODFW","fhdSpNm":"W","fhdRun":"NA","fhdLifeHst":"FluvAdfluvRes","fhdUseTy":"ResidentMultipleUses","fhdBasis":"UndocObsFish","fhdStNm":"Willamette River","fhdGenus":"Sander","fhdSp":"vitreus","fhdSubSp":null,"fhdOrig":"NonNative","fhdProd":"Natural","fhdComment":null,"fhdESH":"NA","fhdBasisD":null,"fhdNMF":"no","fhdBasisDt":null,"fhdBasisNm":null,"fhdBasisEnt":null,"fhdBasisPrj":null,"fhdBasisMethod":null,"fhdAccess":null,"fhdBarrierFtrID":null,"fhdEndExtent":null,"Shape__Length":59755.72814618033,"habitatType":"stream"},"id":2},
{"type":"Feature","geometry":{"type":"LineString","coordinates":[[-123.023595,44.023187],[-123.027425,44.045309],[-123.08006,44.051875],[-123.114398,44.068773],[-123.099153,44.108738],[-123.165042,44.203731],[-123.150907,44.224171],[-123.179638,44.253367],[-123.176101,44.278231],[-123.213966,44.309629],[-123.244865,44.381611],[-123.223215,44.39442],[-123.226713,44.434427],[-123.205565,44.444925],[-123.211769,44.501272],[-123.260747,44.555887],[-123.1977,44.603366],[-123.163923,44.637522],[-123.103387,44.639268],[-123.074904,44.659551],[-123.150515,44.723029],[-123.132706,44.743437],[-123.144151,44.775751],[-123.092657,44.813666],[-123.167694,44.828423],[-123.178722,44.860506],[-123.147538,44.862699],[-123.128561,44.904508],[-123.043476,44.94465],[-123.039144,44.987213],[-123.075742,45.014413],[-123.069137,45.076138],[-122.997175,45.120411],[-123.033097,45.148672],[-123.005214,45.160127],[-123.018712,45.197067],[-123.001196,45.258532],[-122.963758,45.284847],[-122.869244,45.253057],[-122.82726,45.2796],[-122.742535,45.300977],[-122.660435,45.292456],[-122.659332,45.329908],[-122.623746,45.350869]]},"properties":{"OBJECTID":3,"fhdFtrID":3,"fhdRefID":53718,"fhdRevDt":"20190429","fhdONm":"Kevin Stertz","fhdOEnt":"ODFW","fhdSpNm":"W","fhdRun":"NA","fhdLifeHst":"FluvRes","fhdUseTy":"Unknown","fhdBasis":"UndocObsFish","fhdStNm":"Willamette River","fhdGenus":"Sander","fhdSp":"vitreus","fhdSubSp":null,"fhdOrig":"NonNative","fhdProd":"Natural","fhdComment":null,"fhdESH":"NA","fhdBasisD":null,"fhdNMF":"no","fhdBasisDt":null,"fhdBasisNm":null,"fhdBasisEnt":null,"fhdBasisPrj":null,"fhdBasisMethod":null,"fhdAccess":null,"fhdBarrierFtrID":null,"fhdEndExtent":null,"Shape__Length":364343.70065058325,"habitatType":"stream"},"id":3},
{"type":"Feature","geometry":{"type":"LineString","coordinates":[[-122.80569,43.923627],[-122.8536,43.949697],[-122.923808,44.01362],[-122.98536,44.029022],[-123.023595,44.023187]]},"properties":{"OBJECTID":4,"fhdFtrID":4,"fhdRefID":53718,"fhdRevDt":"20190429","fhdONm":"Kevin Stertz","fhdOEnt":"ODFW","fhdSpNm":"W","fhdRun":"NA","fhdLifeHst":"FluvRes","fhdUseTy":"Unknown","fhdBasis":"UndocObsFish","fhdStNm":"Middle Fork Willamette River","fhdGenus":"Sander","fhdSp":"vitreus","fhdSubSp":null,"fhdOrig":"NonNative","fhdProd":"Natural","fhdComment":null,"fhdESH":"NA","fhdBasisD":null,"fhdNMF":"no","fhdBasisDt":null,"fhdBasisNm":null,"fhdBasisEnt":null,"fhdBasisPrj":null,"fhdBasisMethod":null,"fhdAccess":null,"fhdBarrierFtrID":null,"fhdEndExtent":null,"Shape__Length":36761.89761536971,"habitatType":"stream"},"id":4},
{"type":"Feature","geometry":{"type":"Polygon","coordinates":[[[-121.322528,45.695857],[-121.326239,45.69645],[-121.329706,45.694178],[-121.322246,45.69414],[-121.322528,45.695857]]]},"properties":{"OBJECTID":1,"fhdFtrID":1,"fhdRefID":53684,"fhdRevDt":"20190213","fhdONm":"Peter Robinson","fhdOEnt":"ODFW","fhdSpNm":"W","fhdRun":"NA","fhdLifeHst":"FluvAdfluvRes","fhdUseTy":"ResidentMultipleUses","fhdBasis":"UndocObsFish","fhdStNm":"McClure Lake","fhdGenus":"Sander","fhdSp":"vitreus","fhdSubSp":null,"fhdOrig":"NonNative","fhdProd":"Natural","fhdComment":null,"fhdESH":"NA","fhdBasisD":null,"fhdNMF":"no","fhdBasisDt":null,"fhdBasisNm":null,"fhdBasisEnt":null,"fhdBasisPrj":null,"fhdBasisMethod":null,"fhdAccess":null,"fhdBarrierFtrID":null,"fhdEndExtent":null,"Shape__Area":447526.444337235,"Shape__Length":4336.19005930949,"habitatType":"lake"},"id":5},
{"type":"Feature","geometry":{"type":"Polygon","coordinates":[[[-119.023039,46.202041],[-119.030984,46.198383],[-119.027243,46.192465],[-119.032426,46.189686],[-119.036085,46.186723],[-119.026055,46.180042],[-119.018661,46.17412],[-119.014584,46.168744],[-119.0228,46.172027],[-119.027805,46.171469],[-119.018579,46.168208],[-119.013205,46.165754],[-119.012948,46.161914],[-119.009334,46.1607],[-119.006323,46.156377],[-119.001897,46.147434],[-119.005334,46.143043],[-119.005001,46.137223],[-119.00256,46.132636],[-118.992192,46.124862],[-118.988846,46.123372],[-118.978905,46.121023],[-118.973674,46.118068],[-118.971872,46.112787],[-118.966212,46.103492],[-118.971502,46.103068],[-118.968762,46.096135],[-118.966174,46.092735],[-118.957199,46.084395],[-118.953185,46.079344],[-118.952907,46.074105],[-118.951479,46.06675],[-118.950297,46.065664],[-118.951406,46.060766],[-118.955617,46.046839],[-118.95515,46.039077],[-118.958266,46.032253],[-118.988346,46.011022],[-118.995708,46.005308],[-118.999609,45.998026],[-119.007529,45.989249],[-119.012766,45.985099],[-119.02669,45.976575],[-119.035007,45.972628],[-119.062319,45.965451],[-119.06777,45.963498],[-119.090085,45.95242],[-119.100548,45.947541],[-119.115263,45.943119],[-119.125537,45.94149],[-119.147679,45.937388],[-119.15154,45.93728],[-119.168308,45.934749],[-119.180548,45.933868],[-119.200569,45.935128],[-119.209366,45.936032],[-119.220821,45.938547],[-119.234221,45.943818],[-119.240811,45.945768],[-119.250736,45.947857],[-119.263606,45.948206],[-119.275895,45.947042],[-119.29986,45.944348],[-119.296695,45.931969],[-119.2936,45.926501],[-119.269845,45.931442],[-119.249348,45.930527],[-119.230764,45.926784],[-119.219263,45.92319],[-119.206648,45.921141],[-119.197218,45.920084],[-119.1797,45.920572],[-119.174231,45.919771],[-119.170175,45.921169],[-119.158529,45.919774],[-119.150795,45.921242],[-119.145044,45.919139],[-119.138457,45.920173],[-119.129645,45.922928],[-119.12717,45.921819],[-119.12234,45.923101],[-119.118103,45.922215],[-119.114277,45.923292],[-119.095859,45.930912],[-119.063238,45.948721],[-119.060667,45.950411],[-119.047062,45.955358],[-119.040425,45.957276],[-119.02245,45.963355],[-119.01267,45.967843],[-118.995873,45.978693],[-118.993334,45.981366],[-118.983684,45.994041],[-118.975413,46.00156],[-118.965374,46.009225],[-118.947427,46.019107],[-118.941066,46.025048],[-118.933672,46.028585],[-118.937625,46.036577],[-118.940665,46.03876],[-118.941075,46.043],[-118.93998,46.046714],[-118.937137,46.051431],[-118.929983,46.056455],[-118.923246,46.057738],[-118.916232,46.063305],[-118.910597,46.06473],[-118.909215,46.071536],[-118.9094,46.079704],[-118.913526,46.091597],[-118.914029,46.095897],[-118.92203,46.100303],[-118.9249,46.104296],[-118.922769,46.109112],[-118.927342,46.11745],[-118.93097,46.120406],[-118.933387,46.124862],[-118.937529,46.127292],[-118.945111,46.133089],[-118.945459,46.141481],[-118.943479,46.147082],[-118.944482,46.150949],[-118.942904,46.152336],[-118.950396,46.157868],[-118.946615,46.162078],[-118.948281,46.1642],[-118.953547,46.167545],[-118.959608,46.163858],[-118.957231,46.160173],[-118.960388,46.15834],[-118.961547,46.155203],[-118.960677,46.150957],[-118.958869,46.149938],[-118.960935,46.145703],[-118.963223,46.144978],[-118.959158,46.141447],[-118.957997,46.138869],[-118.958515,46.131947],[-118.960849,46.128403],[-118.964472,46.13403],[-118.967152,46.1428],[-118.974018,46.15719],[-118.973128,46.158847],[-118.983139,46.171289],[-118.988029,46.174748],[-119.004651,46.18519],[-119.015101,46.191283],[-119.015542,46.19385],[-119.023808,46.197988],[-119.023039,46.202041]],[[-118.935577,46.103677],[-118.940609,46.113111],[-118.936815,46.111049],[-118.935577,46.103677]]]},"properties":{"OBJECTID":2,"fhdFtrID":2,"fhdRefID":53684,"fhdRevDt":"20190213","fhdONm":"Peter Robinson","fhdOEnt":"ODFW","fhdSpNm":"W","fhdRun":"NA","fhdLifeHst":"FluvAdfluvRes","fhdUseTy":"ResidentMultipleUses","fhdBasis":"UndocObsFish","fhdStNm":"Lake Wallula","fhdGenus":"Sander","fhdSp":"vitreus","fhdSubSp":null,"fhdOrig":"NonNative","fhdProd":"Natural","fhdComment":null,"fhdESH":"NA","fhdBasisD":null,"fhdNMF":"no","fhdBasisDt":null,"fhdBasisNm":null,"fhdBasisEnt":null,"fhdBasisPrj":null,"fhdBasisMethod":null,"fhdAccess":null,"fhdBarrierFtrID":null,"fhdEndExtent":null,"Shape__Area":221177788.1562376,"Shape__Length":261154.4545908588,"habitatType":"lake"},"id":6},
{"type":"Feature","geometry":{"type":"Polygon","coordinates":[[[-122.749788,43.916918],[-122.752506,43.916568],[-122.751512,43.908692],[-122.74543,43.907625],[-122.741372,43.904347],[-122.737717,43.897118],[-122.73015,43.890662],[-122.725231,43.891011],[-122.720556,43.889622],[-122.711926,43.884855],[-122.710466,43.882934],[-122.705208,43.881282],[-122.704645,43.879407],[-122.700425,43.876974],[-122.695063,43.876249],[-122.694304,43.873897],[-122.690072,43.871445],[-122.68713,43.867628],[-122.686399,43.864565],[-122.679149,43.861114],[-122.676051,43.858791],[-122.670401,43.856623],[-122.664151,43.852688],[-122.661319,43.854003],[-122.648482,43.849174],[-122.643436,43.850293],[-122.637179,43.850075],[-122.635561,43.848242],[-122.626059,43.841711],[-122.62556,43.835839],[-122.623381,43.832347],[-122.622923,43.827996],[-122.619024,43.825012],[-122.604405,43.822153],[-122.594408,43.816463],[-122.594716,43.822398],[-122.599814,43.826243],[-122.612079,43.827843],[-122.613051,43.831412],[-122.61661,43.832964],[-122.619416,43.837772],[-122.617048,43.842374],[-122.619516,43.849351],[-122.634272,43.853542],[-122.63578,43.853006],[-122.641081,43.855103],[-122.649943,43.856706],[-122.65336,43.859778],[-122.658572,43.860145],[-122.664167,43.863169],[-122.663871,43.864978],[-122.670062,43.868363],[-122.670883,43.870833],[-122.675078,43.875185],[-122.674085,43.877136],[-122.677512,43.8809],[-122.681437,43.882622],[-122.684065,43.882242],[-122.68865,43.88402],[-122.689117,43.887505],[-122.693178,43.887039],[-122.697456,43.890445],[-122.700961,43.891652],[-122.702428,43.894636],[-122.704983,43.894283],[-122.7095,43.897365],[-122.720731,43.900211],[-122.726135,43.902952],[-122.72724,43.90652],[-122.736404,43.91244],[-122.743118,43.91539],[-122.749788,43.916918]]]},"properties":{"OBJECTID":3,"fhdFtrID":3,"fhdRefID":53718,"fhdRevDt":"20190426","fhdONm":"Kevin Stertz","fhdOEnt":"ODFW","fhdSpNm":"W","fhdRun":"NA","fhdLifeHst":"FluvAdfluvRes","fhdUseTy":"ResidentMultipleUses","fhdBasis":"DocObsFish","fhdStNm":"Lookout Point Reservoir","fhdGenus":"Sander","fhdSp":"vitreus","fhdSubSp":null,"fhdOrig":"NonNative","fhdProd":"Natural","fhdComment":null,"fhdESH":"NA","fhdBasisD":null,"fhdNMF":"no","fhdBasisDt":null,"fhdBasisNm":"Kevin Stertz","fhdBasisEnt":null,"fhdBasisPrj":null,"fhdBasisMethod":null,"fhdAccess":null,"fhdBarrierFtrID":null,"fhdEndExtent":null,"Shape__Area":31826926.49139867,"Shape__Length":70052.02338603995,"habitatType":"lake"},"id":7},
{"type":"Feature","geometry":{"type":"Polygon","coordinates":[[[-119.315567,45.928751],[-119.319685,45.929091],[-119.32018,45.927138],[-119.315567,45.928751]]]},"properties":{"OBJECTID":4,"fhdFtrID":5,"fhdRefID":53718,"fhdRevDt":"20190501","fhdONm":"Kevin Stertz","fhdOEnt":"ODFW","fhdSpNm":"W","fhdRun":"NA","fhdLifeHst":"FluvAdfluvRes","fhdUseTy":"ResidentMultipleUses","fhdBasis":"DocObsFish","fhdStNm":"McNary Ponds","fhdGenus":"Sander","fhdSp":"vitreus","fhdSubSp":null,"fhdOrig":"NonNative","fhdProd":"Natural","fhdComment":null,"fhdESH":"NA","fhdBasisD":null,"fhdNMF":"no","fhdBasisDt":"20180000","fhdBasisNm":"Kevin Stertz","fhdBasisEnt":null,"fhdBasisPrj":null,"fhdBasisMethod":"Electrofisher","fhdAccess":null,"fhdBarrierFtrID":null,"fhdEndExtent":null,"Shape__Area":348193.40567923,"Shape__Length":6941.075249917869,"habitatType":"lake"},"id":8}
]}
