{"type":"FeatureCollection","features":[
{"type":"Feature","geometry":{"type":"LineString","coordinates":[[-123.023595,44.023187],[-123.027425,44.045309],[-123.047547,44.044654],[-123.08006,44.051875],[-123.087613,44.060225],[-123.114398,44.068773],[-123.118683,44.088396],[-123.099153,44.108738],[-123.109762,44.128983],[-123.121582,44.137839],[-123.136076,44.167615],[-123.129076,44.180471],[-123.145505,44.186681],[-123.165042,44.203731],[-123.150907,44.224171],[-123.179638,44.253367],[-123.176101,44.278231],[-123.188364,44.286266],[-123.194097,44.307108],[-123.213966,44.309629],[-123.229689,44.341614],[-123.232796,44.357746],[-123.223434,44.369201],[-123.244865,44.381611],[-123.223215,44.39442],[-123.229477,44.414889],[-123.226713,44.434427],[-123.205565,44.444925],[-123.220052,44.486458],[-123.211769,44.501272],[-123.237623,44.527902],[-123.241912,44.544116],[-123.260747,44.555951],[-123.253867,44.572179],[-123.228216,44.583154],[-123.185432,44.58686],[-123.1977,44.603366],[-123.170585,44.621703],[-123.163923,44.637522],[-123.103387,44.639268],[-123.07833,44.646346],[-123.074904,44.659551],[-123.093693,44.676016],[-123.116746,44.676751],[-123.121699,44.691836],[-123.144337,44.709079],[-123.150515,44.723029],[-123.132706,44.743437],[-123.147521,44.754383],[-123.144151,44.775751],[-123.123194,44.793301],[-123.101729,44.797375],[-123.092657,44.813666],[-123.12835,44.826595],[-123.167694,44.828423],[-123.183247,44.847279],[-123.178722,44.860506],[-123.147538,44.862699],[-123.145031,44.877364],[-123.128561,44.904508],[-123.107273,44.920815],[-123.10982,44.930815],[-123.073479,44.927932],[-123.043476,44.94465],[-123.03695,44.967049],[-123.039144,44.987213],[-123.064263,44.989722],[-123.075742,45.014413],[-123.065876,45.066459],[-123.069137,45.076138],[-123.043779,45.091594],[-123.035519,45.10419],[-123.013973,45.102806],[-122.997175,45.120411],[-123.033097,45.148672],[-123.029115,45.160705],[-123.005214,45.160127],[-123.014524,45.17583],[-123.018712,45.197067],[-123.045854,45.200706],[-123.043832,45.219795],[-123.004303,45.221878],[-122.995238,45.234674],[-123.001196,45.258532],[-122.990477,45.272395],[-122.963758,45.284847],[-122.944393,45.26752],[-122.920121,45.268262],[-122.899949,45.256868],[-122.869244,45.253057],[-122.845897,45.262344],[-122.82726,45.2796],[-122.787126,45.292495],[-122.76513,45.291642],[-122.742535,45.300977],[-122.71273,45.296626],[-122.687709,45.299571],[-122.668415,45.28484],[-122.660435,45.292456],[-122.666058,45.318648],[-122.659332,45.329908],[-122.623746,45.350869]]},"properties":{"OBJECTID":1,"fhdFtrID":1,"fhdRefID":53710,"fhdRevDt":"20190705","fhdONm":"Stan Gregory","fhdOEnt":"OSU","fhdSpNm":"WM","fhdRun":"NA","fhdLifeHst":"Resident","fhdUseTy":"ResidentMultipleUses","fhdBasis":"DocObsFish","fhdStNm":"Willamette River","fhdGenus":"Lepomis","fhdSp":"gulosus","fhdSubSp":null,"fhdOrig":"NonNative","fhdProd":"Natural","fhdComment":null,"fhdESH":"NA","fhdBasisD":null,"fhdNMF":"no","fhdBasisDt":"20130000","fhdBasisNm":"Randy Wildman, Stan Gregory","fhdBasisEnt":null,"fhdBasisPrj":null,"fhdBasisMethod":"Electrofisher","fhdAccess":null,"fhdBarrierFtrID":null,"fhdEndExtent":null,"Shape__Length":364343.70065058325,"habitatType":"stream"},"id":1},
{"type":"Feature","geometry":{"type":"LineString","coordinates":[[-122.84826,45.500234],[-122.851975,45.500773]]},"properties":{"OBJECTID":2,"fhdFtrID":2,"fhdRefID":53585,"fhdRevDt":"20190705","fhdONm":"Wayne Wood","fhdOEnt":"OSU","fhdSpNm":"WM","fhdRun":"NA","fhdLifeHst":"Resident","fhdUseTy":"ResidentMultipleUses","fhdBasis":"DocObsFish","fhdStNm":"Beaverton Creek","fhdGenus":"Lepomis","fhdSp":"gulosus","fhdSubSp":null,"fhdOrig":"NonNative","fhdProd":"Natural","fhdComment":null,"fhdESH":"NA","fhdBasisD":null,"fhdNMF":"no","fhdBasisDt":"19820913","fhdBasisNm":null,"fhdBasisEnt":"OSU Ichthyology Collection","fhdBasisPrj":null,"fhdBasisMethod":null,"fhdAccess":null,"fhdBarrierFtrID":null,"fhdEndExtent":null,"Shape__Length":609.1089686785053,"habitatType":"stream"},"id":2},
{"type":"Feature","geometry":{"type":"LineString","coordinates":[[-123.277978,44.555068],[-123.260747,44.555951]]},"properties":{"OBJECTID":3,"fhdFtrID":3,"fhdRefID":53752,"fhdRevDt":"20190705","fhdONm":"Alan Herlihy","fhdOEnt":"OSU","fhdSpNm":"WM","fhdRun":"NA","fhdLifeHst":"Resident","fhdUseTy":"ResidentMultipleUses","fhdBasis":"DocObsFish","fhdStNm":"Marys River","fhdGenus":"Lepomis","fhdSp":"gulosus","fhdSubSp":null,"fhdOrig":"NonNative","fhdProd":"Natural","fhdComment":null,"fhdESH":"NA","fhdBasisD":null,"fhdNMF":"no","fhdBasisDt":"19970600","fhdBasisNm":null,"fhdBasisEnt":null,"fhdBasisPrj":null,"fhdBasisMethod":null,"fhdAccess":null,"fhdBarrierFtrID":null,"fhdEndExtent":null,"Shape__Length":2286.879797293245,"habitatType":"stream"},"id":3},
{"type":"Feature","geometry":{"type":"LineString","coordinates":[[-123.239609,44.497846],[-123.239928,44.497993]]},"properties":{"OBJECTID":4,"fhdFtrID":4,"fhdRefID":53585,"fhdRevDt":"20190705","fhdONm":"Wayne Wood","fhdOEnt":"OSU","fhdSpNm":"WM","fhdRun":"NA","fhdLifeHst":"Resident","fhdUseTy":"ResidentMultipleUses","fhdBasis":"DocObsFish","fhdStNm":"Middle Channel Willamette River","fhdGenus":"Lepomis","fhdSp":"gulosus","fhdSubSp":null,"fhdOrig":"NonNative","fhdProd":"Natural","fhdComment":null,"fhdESH":"NA","fhdBasisD":null,"fhdNMF":"no","fhdBasisDt":"20000921","fhdBasisNm":null,"fhdBasisEnt":null,"fhdBasisPrj":null,"fhdBasisMethod":null,"fhdAccess":null,"fhdBarrierFtrID":null,"fhdEndExtent":null,"Shape__Length":42.55497679970627,"habitatType":"stream"},"id":4},
{"type":"Feature","geometry":{"type":"MultiLineString","coordinates":[[[-123.225019,44.492657],[-123.239609,44.497846]],[[-123.239928,44.497993],[-123.232549,44.508966]]]},"properties":{"OBJECTID":5,"fhdFtrID":4,"fhdRefID":53585,"fhdRevDt":"20190705","fhdONm":"Wayne Wood","fhdOEnt":"OSU","fhdSpNm":"WM","fhdRun":"NA","fhdLifeHst":"Resident","fhdUseTy":"ResidentMultipleUses","fhdBasis":"DocObsFish","fhdStNm":"Middle Channel Willamette River","fhdGenus":"Lepomis","fhdSp":"gulosus","fhdSubSp":null,"fhdOrig":"NonNative","fhdProd":"Natural","fhdComment":null,"fhdESH":"NA","fhdBasisD":null,"fhdNMF":"no","fhdBasisDt":"20000921","fhdBasisNm":null,"fhdBasisEnt":"OSU Ichthyology Collection","fhdBasisPrj":null,"fhdBasisMethod":null,"fhdAccess":null,"fhdBarrierFtrID":null,"fhdEndExtent":null,"Shape__Length":4510.8164196023245,"habitatType":"stream"},"id":5},
{"type":"Feature","geometry":{"type":"LineString","coordinates":[[-123.038388,44.57564],[-123.013352,44.555343]]},"properties":{"OBJECTID":6,"fhdFtrID":5,"fhdRefID":53585,"fhdRevDt":"20190705","fhdONm":"Wayne Wood","fhdOEnt":"OSU","fhdSpNm":"WM","fhdRun":"NA","fhdLifeHst":"Resident","fhdUseTy":"ResidentMultipleUses","fhdBasis":"DocObsFish","fhdStNm":"Oak Creek","fhdGenus":"Lepomis","fhdSp":"gulosus","fhdSubSp":null,"fhdOrig":"NonNative","fhdProd":"Natural","fhdComment":null,"fhdESH":"NA","fhdBasisD":null,"fhdNMF":"no","fhdBasisDt":null,"fhdBasisNm":null,"fhdBasisEnt":"OSU Ichthyology Collection","fhdBasisPrj":null,"fhdBasisMethod":null,"fhdAccess":null,"fhdBarrierFtrID":null,"fhdEndExtent":null,"Shape__Length":5026.762382912645,"habitatType":"stream"},"id":6},
{"type":"Feature","geometry":{"type":"LineString","coordinates":[[-123.132296,44.527927],[-123.129553,44.517459],[-123.111307,44.508618]]},"properties":{"OBJECTID":7,"fhdFtrID":6,"fhdRefID":53585,"fhdRevDt":"20190705","fhdONm":"Wayne Wood","fhdOEnt":"OSU","fhdSpNm":"WM","fhdRun":"NA","fhdLifeHst":"Resident","fhdUseTy":"ResidentMultipleUses","fhdBasis":"DocObsFish","fhdStNm":"Calapooia River","fhdGenus":"Lepomis","fhdSp":"gulosus","fhdSubSp":null,"fhdOrig":"NonNative","fhdProd":"Natural","fhdComment":null,"fhdESH":"NA","fhdBasisD":null,"fhdNMF":"no","fhdBasisDt":"20020620","fhdBasisNm":null,"fhdBasisEnt":"OSU Ichthyology Collection","fhdBasisPrj":null,"fhdBasisMethod":null,"fhdAccess":null,"fhdBarrierFtrID":null,"fhdEndExtent":null,"Shape__Length":6676.992198606868,"habitatType":"stream"},"id":7},
{"type":"Feature","geometry":{"type":"LineString","coordinates":[[-123.29817,44.378714],[-123.299446,44.398386]]},"properties":{"OBJECTID":8,"fhdFtrID":7,"fhdRefID":53749,"fhdRevDt":"20190705","fhdONm":"Alan Herlihy","fhdOEnt":"OSU","fhdSpNm":"WM","fhdRun":"NA","fhdLifeHst":"Resident","fhdUseTy":"ResidentMultipleUses","fhdBasis":"DocObsFish","fhdStNm":"Muddy Creek","fhdGenus":"Lepomis","fhdSp":"gulosus","fhdSubSp":null,"fhdOrig":"NonNative","fhdProd":"Natural","fhdComment":null,"fhdESH":"NA","fhdBasisD":null,"fhdNMF":"no","fhdBasisDt":"19970724","fhdBasisNm":null,"fhdBasisEnt":null,"fhdBasisPrj":null,"fhdBasisMethod":"Electrofish","fhdAccess":null,"fhdBarrierFtrID":null,"fhdEndExtent":null,"Shape__Length":6563.953843422726,"habitatType":"stream"},"id":8},
{"type":"Feature","geometry":{"type":"LineString","coordinates":[[-123.259263,44.380297],[-123.26669,44.36775],[-123.284697,44.366106]]},"properties":{"OBJECTID":9,"fhdFtrID":8,"fhdRefID":53752,"fhdRevDt":"20190705","fhdONm":"Alan Herlihy","fhdOEnt":"OSU","fhdSpNm":"WM","fhdRun":"NA","fhdLifeHst":"Resident","fhdUseTy":"ResidentMultipleUses","fhdBasis":"DocObsFish","fhdStNm":"Long Tom River","fhdGenus":"Lepomis","fhdSp":"gulosus","fhdSubSp":null,"fhdOrig":"NonNative","fhdProd":"Natural","fhdComment":null,"fhdESH":"NA","fhdBasisD":null,"fhdNMF":"no","fhdBasisDt":"19980922","fhdBasisNm":null,"fhdBasisEnt":null,"fhdBasisPrj":null,"fhdBasisMethod":"Electrofish","fhdAccess":null,"fhdBarrierFtrID":null,"fhdEndExtent":null,"Shape__Length":4753.645053575396,"habitatType":"stream"},"id":9},
{"type":"Feature","geometry":{"type":"LineString","coordinates":[[-123.081735,44.394701],[-123.080935,44.381634]]},"properties":{"OBJECTID":10,"fhdFtrID":9,"fhdRefID":53749,"fhdRevDt":"20190705","fhdONm":"Alan Herlihy","fhdOEnt":"OSU","fhdSpNm":"WM","fhdRun":"NA","fhdLifeHst":"Resident","fhdUseTy":"ResidentMultipleUses","fhdBasis":"DocObsFish","fhdStNm":"Spoon Creek","fhdGenus":"Lepomis","fhdSp":"gulosus","fhdSubSp":null,"fhdOrig":"NonNative","fhdProd":"Natural","fhdComment":null,"fhdESH":"NA","fhdBasisD":null,"fhdNMF":"no","fhdBasisDt":"19970822","fhdBasisNm":null,"fhdBasisEnt":null,"fhdBasisPrj":null,"fhdBasisMethod":"Electrofish","fhdAccess":null,"fhdBarrierFtrID":null,"fhdEndExtent":null,"Shape__Length":2121.447589698608,"habitatType":"stream"},"id":10},
{"type":"Feature","geometry":{"type":"LineString","coordinates":[[-123.323716,44.168928],[-123.318272,44.182229]]},"properties":{"OBJECTID":11,"fhdFtrID":10,"fhdRefID":53585,"fhdRevDt":"20190705","fhdONm":"Wayne Wood","fhdOEnt":"OSU","fhdSpNm":"WM","fhdRun":"NA","fhdLifeHst":"Resident","fhdUseTy":"ResidentMultipleUses","fhdBasis":"DocObsFish","fhdStNm":"Bear Creek","fhdGenus":"Lepomis","fhdSp":"gulosus","fhdSubSp":null,"fhdOrig":"NonNative","fhdProd":"Natural","fhdComment":null,"fhdESH":"NA","fhdBasisD":null,"fhdNMF":"no","fhdBasisDt":"19940823","fhdBasisNm":null,"fhdBasisEnt":"OSU Ichthyology Collection","fhdBasisPrj":null,"fhdBasisMethod":null,"fhdAccess":null,"fhdBarrierFtrID":null,"fhdEndExtent":null,"Shape__Length":2505.2426920967087,"habitatType":"stream"},"id":11},
{"type":"Feature","geometry":{"type":"LineString","coordinates":[[-122.849716,44.619524],[-122.854824,44.633547]]},"properties":{"OBJECTID":12,"fhdFtrID":11,"fhdRefID":53749,"fhdRevDt":"20190705","fhdONm":"Alan Herlihy","fhdOEnt":"OSU","fhdSpNm":"WM","fhdRun":"NA","fhdLifeHst":"Resident","fhdUseTy":"ResidentMultipleUses","fhdBasis":"DocObsFish","fhdStNm":"Beaver Creek","fhdGenus":"Lepomis","fhdSp":"gulosus","fhdSubSp":null,"fhdOrig":"NonNative","fhdProd":"Natural","fhdComment":null,"fhdESH":"NA","fhdBasisD":null,"fhdNMF":"no","fhdBasisDt":"19950000","fhdBasisNm":null,"fhdBasisEnt":null,"fhdBasisPrj":null,"fhdBasisMethod":"Electrofish","fhdAccess":null,"fhdBarrierFtrID":null,"fhdEndExtent":null,"Shape__Length":2405.8849139968943,"habitatType":"stream"},"id":12},
{"type":"Feature","geometry":{"type":"Polygon","coordinates":[[[-123.943041,46.15564],[-123.944288,46.155047],[-123.942464,46.151959],[-123.942227,46.15395],[-123.943041,46.15564]]]},"properties":{"OBJECTID":1,"fhdFtrID":1,"fhdRefID":53684,"fhdRevDt":"20190213","fhdONm":"Peter Robinson","fhdOEnt":"ODFW","fhdSpNm":"WM","fhdRun":"NA","fhdLifeHst":"Resident","fhdUseTy":"ResidentMultipleUses","fhdBasis":"UndocObsFish","fhdStNm":"Wild Ace Lake","fhdGenus":"Lepomis","fhdSp":"gulosus","fhdSubSp":null,"fhdOrig":"NonNative","fhdProd":"Natural","fhdComment":null,"fhdESH":"NA","fhdBasisD":null,"fhdNMF":"no","fhdBasisDt":null,"fhdBasisNm":null,"fhdBasisEnt":null,"fhdBasisPrj":null,"fhdBasisMethod":null,"fhdAccess":null,"fhdBarrierFtrID":null,"fhdEndExtent":null,"Shape__Area":98271.774879135,"Shape__Length":1723.4409401893272,"habitatType":"lake"},"id":13},
{"type":"Feature","geometry":{"type":"Polygon","coordinates":[[[-123.937885,46.14915],[-123.937759,46.150061],[-123.940056,46.153177],[-123.940806,46.152463],[-123.937885,46.14915]]]},"properties":{"OBJECTID":2,"fhdFtrID":2,"fhdRefID":53684,"fhdRevDt":"20190213","fhdONm":"Peter Robinson","fhdOEnt":"ODFW","fhdSpNm":"WM","fhdRun":"NA","fhdLifeHst":"Resident","fhdUseTy":"ResidentMultipleUses","fhdBasis":"UndocObsFish","fhdStNm":"Cemetery Lake","fhdGenus":"Lepomis","fhdSp":"gulosus","fhdSubSp":null,"fhdOrig":"NonNative","fhdProd":"Natural","fhdComment":null,"fhdESH":"NA","fhdBasisD":null,"fhdNMF":"no","fhdBasisDt":null,"fhdBasisNm":null,"fhdBasisEnt":null,"fhdBasisPrj":null,"fhdBasisMethod":null,"fhdAccess":null,"fhdBarrierFtrID":null,"fhdEndExtent":null,"Shape__Area":83390.48976121,"Shape__Length":1552.0270834589605,"habitatType":"lake"},"id":14},
{"type":"Feature","geometry":{"type":"Polygon","coordinates":[[[-124.217577,43.536261],[-124.220575,43.534527],[-124.219714,43.531709],[-124.219945,43.530523],[-124.222814,43.529596],[-124.223385,43.527807],[-124.22061,43.528728],[-124.217764,43.528902],[-124.216579,43.530507],[-124.219065,43.534552],[-124.217577,43.536261]]]},"properties":{"OBJECTID":3,"fhdFtrID":3,"fhdRefID":53684,"fhdRevDt":"20190213","fhdONm":"Peter Robinson","fhdOEnt":"ODFW","fhdSpNm":"WM","fhdRun":"NA","fhdLifeHst":"Resident","fhdUseTy":"ResidentMultipleUses","fhdBasis":"UndocObsFish","fhdStNm":"Saunders Lake","fhdGenus":"Lepomis","fhdSp":"gulosus","fhdSubSp":null,"fhdOrig":"NonNative","fhdProd":"Natural","fhdComment":null,"fhdESH":"NA","fhdBasisD":null,"fhdNMF":"no","fhdBasisDt":null,"fhdBasisNm":null,"fhdBasisEnt":null,"fhdBasisPrj":null,"fhdBasisMethod":null,"fhdAccess":null,"fhdBarrierFtrID":null,"fhdEndExtent":null,"Shape__Area":432543.91275857,"Shape__Length":10058.345048884401,"habitatType":"lake"},"id":15},
{"type":"Feature","geometry":{"type":"Polygon","coordinates":[[[-123.937215,46.147943],[-123.938028,46.146599],[-123.934421,46.138518],[-123.932219,46.134162],[-123.933182,46.140213],[-123.934326,46.142836],[-123.937215,46.147943]]]},"properties":{"OBJECTID":4,"fhdFtrID":4,"fhdRefID":53585,"fhdRevDt":"20190705","fhdONm":"Wayne Wood","fhdOEnt":"OSU","fhdSpNm":"WM","fhdRun":"NA","fhdLifeHst":"Resident","fhdUseTy":"ResidentMultipleUses","fhdBasis":"DocObsFish","fhdStNm":"Smith Lake","fhdGenus":"Lepomis","fhdSp":"gulosus","fhdSubSp":null,"fhdOrig":"NonNative","fhdProd":"Natural","fhdComment":null,"fhdESH":"NA","fhdBasisD":null,"fhdNMF":"no","fhdBasisDt":null,"fhdBasisNm":null,"fhdBasisEnt":"OSU Ichthyology Collection","fhdBasisPrj":null,"fhdBasisMethod":null,"fhdAccess":null,"fhdBarrierFtrID":null,"fhdEndExtent":null,"Shape__Area":371773.45582826,"Shape__Length":5336.1357325247845,"habitatType":"lake"},"id":16},
{"type":"Feature","geometry":{"type":"Polygon","coordinates":[[[-124.077107,44.010931],[-124.081582,44.010735],[-124.083474,44.009817],[-124.084314,44.007999],[-124.08692,44.008623],[-124.087874,44.00621],[-124.085965,44.006174],[-124.082807,44.004682],[-124.079891,44.004818],[-124.077334,44.005535],[-124.077164,44.007184],[-124.0798,44.008762],[-124.077107,44.010931]]]},"properties":{"OBJECTID":5,"fhdFtrID":5,"fhdRefID":53585,"fhdRevDt":"20190705","fhdONm":"Wayne Wood","fhdOEnt":"OSU","fhdSpNm":"WM","fhdRun":"NA","fhdLifeHst":"Resident","fhdUseTy":"ResidentMultipleUses","fhdBasis":"DocObsFish","fhdStNm":"Munsel Lake","fhdGenus":"Lepomis","fhdSp":"gulosus","fhdSubSp":null,"fhdOrig":"NonNative","fhdProd":"Natural","fhdComment":null,"fhdESH":"NA","fhdBasisD":null,"fhdNMF":"no","fhdBasisDt":null,"fhdBasisNm":null,"fhdBasisEnt":"OSU Ichthyology Collection","fhdBasisPrj":null,"fhdBasisMethod":null,"fhdAccess":null,"fhdBarrierFtrID":null,"fhdEndExtent":null,"Shape__Area":819451.383059885,"Shape__Length":7066.454660033698,"habitatType":"lake"},"id":17},
{"type":"Feature","geometry":{"type":"Polygon","coordinates":[[[-124.102513,43.832616],[-124.10453,43.83156],[-124.104852,43.828093],[-124.105547,43.82685],[-124.107565,43.825456],[-124.109557,43.825531],[-124.109255,43.827276],[-124.111469,43.82741],[-124.111742,43.826367],[-124.110209,43.822716],[-124.11313,43.820391],[-124.115659,43.820716],[-124.117018,43.823142],[-124.116196,43.825209],[-124.11783,43.82912],[-124.120334,43.829674],[-124.12306,43.828695],[-124.125096,43.825783],[-124.119855,43.824306],[-124.119339,43.821671],[-124.117738,43.818852],[-124.118557,43.816504],[-124.120399,43.814742],[-124.12177,43.8125],[-124.125046,43.809699],[-124.126502,43.81181],[-124.126037,43.815635],[-124.129838,43.821698],[-124.130545,43.821298],[-124.129002,43.818358],[-124.129091,43.816033],[-124.127932,43.814101],[-124.130264,43.812705],[-124.128212,43.807443],[-124.128882,43.80569],[-124.130664,43.805218],[-124.133199,43.807245],[-124.134768,43.806856],[-124.13261,43.804727],[-124.131303,43.801288],[-124.132852,43.800123],[-124.132309,43.797876],[-124.136929,43.798432],[-124.139639,43.799261],[-124.140979,43.800286],[-124.141604,43.803713],[-124.140885,43.806173],[-124.142629,43.807767],[-124.145646,43.808643],[-124.147636,43.807958],[-124.152539,43.807128],[-124.14771,43.80408],[-124.145538,43.802376],[-124.145816,43.800469],[-124.147799,43.798774],[-124.146441,43.796596],[-124.145053,43.797799],[-124.14294,43.797581],[-124.140557,43.796084],[-124.137063,43.794662],[-124.135845,43.790777],[-124.133661,43.789731],[-124.133421,43.788489],[-124.129553,43.7856],[-124.129898,43.783267],[-124.131769,43.780398],[-124.133201,43.780742],[-124.134242,43.778571],[-124.137035,43.776853],[-124.136317,43.776069],[-124.13356,43.777603],[-124.130102,43.777772],[-124.130343,43.776553],[-124.132193,43.774629],[-124.131212,43.773974],[-124.128711,43.775392],[-124.124329,43.775692],[-124.12355,43.773757],[-124.124312,43.771797],[-124.124038,43.770427],[-124.120994,43.77134],[-124.122047,43.772413],[-124.120822,43.773487],[-124.116854,43.771692],[-124.118323,43.774649],[-124.115053,43.775316],[-124.111825,43.77395],[-124.10669,43.775106],[-124.106103,43.776493],[-124.102787,43.779755],[-124.098949,43.780397],[-124.098332,43.781079],[-124.094279,43.781527],[-124.092247,43.782426],[-124.08898,43.782711],[-124.088477,43.784076],[-124.091515,43.783589],[-124.093927,43.783861],[-124.095521,43.783123],[-124.097714,43.783154],[-124.102727,43.781588],[-124.103375,43.782955],[-124.106203,43.780414],[-124.108457,43.777109],[-124.110911,43.777646],[-124.115723,43.777879],[-124.117696,43.777005],[-124.11902,43.778203],[-124.118106,43.780387],[-124.121011,43.779565],[-124.120508,43.782332],[-124.121744,43.784362],[-124.122964,43.778946],[-124.12567,43.778043],[-124.127303,43.779569],[-124.127581,43.781224],[-124.126159,43.783267],[-124.125846,43.78827],[-124.124118,43.78848],[-124.123299,43.790058],[-124.12484,43.791397],[-124.126158,43.790038],[-124.127724,43.795982],[-124.126294,43.800256],[-124.123021,43.799589],[-124.121663,43.800252],[-124.118858,43.798263],[-124.118509,43.79999],[-124.115836,43.801418],[-124.114372,43.803005],[-124.112873,43.801417],[-124.111683,43.798446],[-124.110116,43.797257],[-124.108583,43.797158],[-124.107666,43.795604],[-124.105875,43.797225],[-124.103513,43.797715],[-124.10242,43.796295],[-124.102342,43.793818],[-124.099386,43.794136],[-124.097921,43.793315],[-124.092561,43.792512],[-124.091437,43.795705],[-124.08926,43.796174],[-124.087249,43.795785],[-124.086935,43.793744],[-124.085429,43.792457],[-124.079746,43.794315],[-124.078858,43.795416],[-124.078316,43.798013],[-124.076838,43.798388],[-124.074455,43.800042],[-124.072427,43.802218],[-124.072568,43.804231],[-124.06931,43.806708],[-124.069579,43.809536],[-124.067793,43.810379],[-124.067801,43.811676],[-124.069137,43.814128],[-124.06706,43.816382],[-124.067292,43.818501],[-124.07013,43.818812],[-124.068961,43.817123],[-124.071226,43.814052],[-124.071073,43.810295],[-124.072382,43.809834],[-124.072854,43.808055],[-124.077158,43.805998],[-124.076912,43.804432],[-124.074873,43.803476],[-124.075882,43.801217],[-124.079038,43.799835],[-124.081715,43.79729],[-124.081358,43.796171],[-124.083279,43.794571],[-124.085558,43.798847],[-124.088563,43.798142],[-124.092142,43.798104],[-124.094757,43.79682],[-124.096204,43.797895],[-124.099403,43.797893],[-124.100733,43.799634],[-124.096792,43.802062],[-124.094112,43.805538],[-124.096826,43.805127],[-124.097839,43.803269],[-124.101916,43.801008],[-124.105051,43.801571],[-124.107011,43.802605],[-124.108082,43.805399],[-124.103091,43.806683],[-124.10812,43.807758],[-124.104797,43.809742],[-124.101053,43.812922],[-124.101591,43.813663],[-124.104691,43.81223],[-124.107857,43.81015],[-124.110068,43.810671],[-124.11242,43.811993],[-124.11367,43.809803],[-124.116913,43.809175],[-124.120092,43.805228],[-124.121478,43.805608],[-124.121968,43.80738],[-124.1197,43.809544],[-124.116454,43.815064],[-124.114493,43.817353],[-124.111736,43.816735],[-124.111101,43.818539],[-124.109081,43.82062],[-124.106056,43.820922],[-124.103041,43.821909],[-124.10374,43.824428],[-124.103092,43.82535],[-124.098275,43.825513],[-124.095857,43.826691],[-124.091224,43.827305],[-124.091542,43.828969],[-124.093631,43.82844],[-124.095502,43.82943],[-124.097099,43.828707],[-124.10153,43.828142],[-124.101343,43.83005],[-124.102513,43.832616]]]},"properties":{"OBJECTID":6,"fhdFtrID":6,"fhdRefID":53713,"fhdRevDt":"20190705","fhdONm":"Matthew Neilson","fhdOEnt":"USGS","fhdSpNm":"WM","fhdRun":"NA","fhdLifeHst":"Resident","fhdUseTy":"ResidentMultipleUses","fhdBasis":"DocObsFish","fhdStNm":"Tahkenitch Lake","fhdGenus":"Lepomis","fhdSp":"gulosus","fhdSubSp":null,"fhdOrig":"NonNative","fhdProd":"Natural","fhdComment":null,"fhdESH":"NA","fhdBasisD":null,"fhdNMF":"no","fhdBasisDt":"20090000","fhdBasisNm":null,"fhdBasisEnt":null,"fhdBasisPrj":null,"fhdBasisMethod":null,"fhdAccess":null,"fhdBarrierFtrID":null,"fhdEndExtent":null,"Shape__Area":18066660.40203414,"Shape__Length":127175.84580603265,"habitatType":"lake"},"id":18},
{"type":"Feature","geometry":{"type":"Polygon","coordinates":[[[-124.234688,43.508605],[-124.236172,43.507382],[-124.236289,43.505229],[-124.234177,43.500524],[-124.231921,43.507608],[-124.232424,43.508593],[-124.234688,43.508605]]]},"properties":{"OBJECTID":7,"fhdFtrID":7,"fhdRefID":53713,"fhdRevDt":"20190705","fhdONm":"Matthew Neilson","fhdOEnt":"USGS","fhdSpNm":"WM","fhdRun":"NA","fhdLifeHst":"Resident","fhdUseTy":"ResidentMultipleUses","fhdBasis":"DocObsFish","fhdStNm":"Beale Lake","fhdGenus":"Lepomis","fhdSp":"gulosus","fhdSubSp":null,"fhdOrig":"NonNative","fhdProd":"Natural","fhdComment":null,"fhdESH":"NA","fhdBasisD":null,"fhdNMF":"no","fhdBasisDt":null,"fhdBasisNm":null,"fhdBasisEnt":null,"fhdBasisPrj":null,"fhdBasisMethod":null,"fhdAccess":null,"fhdBarrierFtrID":null,"fhdEndExtent":null,"Shape__Area":415636.43761064,"Shape__Length":4238.854969140803,"habitatType":"lake"},"id":19},
{"type":"Feature","geometry":{"type":"Polygon","coordinates":[[[-122.817685,45.748852],[-122.815554,45.750978],[-122.816542,45.752504],[-122.819097,45.751236],[-122.817685,45.748852]]]},"properties":{"OBJECTID":8,"fhdFtrID":8,"fhdRefID":53585,"fhdRevDt":"20190705","fhdONm":"Wayne Wood","fhdOEnt":"OSU","fhdSpNm":"WM","fhdRun":"NA","fhdLifeHst":"Resident","fhdUseTy":"ResidentMultipleUses","fhdBasis":"DocObsFish","fhdStNm":"Grassy Lake","fhdGenus":"Lepomis","fhdSp":"gulosus","fhdSubSp":null,"fhdOrig":"NonNative","fhdProd":"Natural","fhdComment":null,"fhdESH":"NA","fhdBasisD":null,"fhdNMF":"no","fhdBasisDt":null,"fhdBasisNm":null,"fhdBasisEnt":"OSU Ichthyology Collection","fhdBasisPrj":null,"fhdBasisMethod":null,"fhdAccess":null,"fhdBarrierFtrID":null,"fhdEndExtent":null,"Shape__Area":153155.873351615,"Shape__Length":1582.8307053238498,"habitatType":"lake"},"id":20}
]}
